"Lat","Lon","Id","Number","Cells__global_id","Cells__Name","Cells__IsNetObject","Cells__OperatingCompany","Cells__AdmArea","Cells__District","Cells__Address","Cells__PublicPhone__PublicPhone","Cells__SeatsCount","Cells__SocialPrivileges","Cells__Longitude_WGS84","Cells__Latitude_WGS84"
"55.765366956773974","37.621587946238108","45f1b14e-f0cb-4c38-aa97-d5b297a4f314","1","20660594","Бар «Юнион Джек»","нет","null","Центральный административный округ","Мещанский район","Нижний Кисельный переулок, дом 3, строение 1","(495) 621-19-63","30","нет","37.6215879462381080","55.7653669567739740"
"55.8055749999999","37.63571","d09698b1-32da-4957-bded-c00b58af44ed","2","20660628","Бар «Джонни Грин Паб»","нет","null","Северо-Восточный административный округ","Останкинский район","проспект Мира, дом 91, корпус 1","(495) 602-45-85","50","нет","37.6357100000000000","55.8055749999999000"
"55.8274371738441","37.4926033244427","90f91e8a-5b45-4dd9-82e0-d3a1d06c357a","3","20660638","Альтернатива 2","нет","null","Северный административный округ","Войковский район","Ленинградское шоссе, дом 22","(495) 974-04-42","40","нет","37.4926033244427000","55.8274371738441000"
"55.7849966534612","37.4647474589397","f8b9ea5f-29d4-43b1-9ac4-2eda3df8d068","4","20660639","Грэйс Бар","нет","null","Северо-Западный административный округ","район Хорошёво-Мнёвники","улица Маршала Тухачевского, дом 49","(499) 940-34-49","68","нет","37.4647474589397000","55.7849966534612000"
"55.744569","37.56598","39651c39-612e-49bc-9bfa-e5b9b5ca9cde","5","20660775","ICE","нет","null","Западный административный округ","район Дорогомилово","площадь Киевского Вокзала, дом 2","(495) 975-75-75","30","нет","37.5659800000000030","55.7445689999999980"
"55.7568345945054","37.6320644842234","c9a616d2-d84c-401b-b708-267f99f253ea","6","20660826","Бургер бар11 1","нет","null","Центральный административный округ","Басманный район","Лубянский проезд, дом 15, строение 2","(495) 621-31-79","48","нет","37.6320644842234000","55.7568345945054000"
"55.759090896864471","37.550618418864481","0ab7b3b9-e110-41d6-b211-53e13f014e8b","7","20660867","Бар «Разлив»","нет","null","Центральный административный округ","Пресненский район","улица Сергея Макеева, дом 4","(499) 256-41-20","15","нет","37.5506184188644810","55.7590908968644710"
"55.882243910557769","37.614784240722656","13814b57-6680-44a6-8667-793f312da3f5","8","20660898","Пивной бар","нет","null","Северо-Восточный административный округ","район Отрадное","улица Римского-Корсакова, дом 20, строение 2","(499) 203-83-09","40","нет","37.6147842407226560","55.8822439105577700"
"55.7578216589971","37.58304394692145","4bdd2fbb-f036-40a5-8fa4-8e3204f68d5d","9","20660953","Бар «Гудман»","да","Гудман","Центральный административный округ","Пресненский район","Новинский бульвар, дом 31","(495) 644-32-56","50","нет","37.5830439469214500","55.7578216589971000"
"55.65561342981642","37.396913734733317","ba3d1dc3-6fb7-4921-b34e-606172fc4b84","10","20661017","Де Марко","да","Де Марко","Западный административный округ","район Солнцево","улица Богданова, дом 17, строение 1","(495) 435-20-92","98","нет","37.3969137347333170","55.6556134298164200"
"55.7668872021784","37.600921653299","7dcaac22-c1ee-45b4-846a-128b83926781","11","20661112","Бар NOOR","нет","null","Центральный административный округ","Тверской район","Тверская улица, дом 23, строение 1","(495) 699-77-82","40","нет","37.6009216532990000","55.7668872021784000"
"55.678327189565678","37.561032604637596","1605a4ff-cb14-4b12-a90f-e9463def3f6c","12","20661156","Спорт-бар «Торнадо»","нет","null","Юго-Западный административный округ","район Черёмушки","Нахимовский проспект, дом 57","(925) 046-43-05","50","нет","37.5610326046375960","55.6783271895656780"
"55.767029370599666","37.632141532452387","e82d2c76-6e69-4b49-8c5d-dc1e229774c5","13","20661278","Чешская пивная Козловица","нет","null","Центральный административный округ","Красносельский район","улица Сретенка, дом 4","(495) 621-61-64","220","нет","37.6321415324523870","55.7670293705996660"
"55.6470209450588","37.7455970274043","9ea70750-bf98-45fb-9dfc-8030ed920f6d","14","20661299","Бар «Биверс»","нет","null","Юго-Восточный административный округ","район Марьино","Люблинская улица, дом 171, корпус 1","(495) 346-84-76","50","нет","37.7455970274043000","55.6470209450588000"
"55.880913782557322","37.449701840729773","183c7ceb-3c4c-45e7-bf72-cfbed381f037","15","20661309","Бар IMAX","нет","null","Северный административный округ","район Левобережный","Правобережная улица, дом 1Б","(495) 775-77-79","4","нет","37.4497018407297730","55.8809137825573220"
"55.880913782557322","37.449701840729773","6875c8c5-0fba-4b59-8d32-aa13d1122f48","16","20661311","Love Suchi and...","нет","null","Северный административный округ","район Левобережный","Правобережная улица, дом 1Б","(495) 771-70-14","148","нет","37.4497018407297730","55.8809137825573220"
"55.794294648718271","37.404014755619954","9aff1926-1368-49f9-b53a-1b4a0c8f0dd2","17","20661326","Пив Бар","нет","null","Северо-Западный административный округ","район Строгино","улица Твардовского, дом 14, корпус 1","(903) 979-28-41","8","нет","37.4040147556199540","55.7942946487182710"
"55.805364657740547","37.400769964383642","7ac318cc-d000-446b-b027-fe7c83cc033c","18","20661328","Суши Wok","да","Суши Wok","Северо-Западный административный округ","район Строгино","Строгинский бульвар, дом 7, корпус 1","(985) 700-72-50","8","нет","37.4007699643836420","55.8053646577405470"
"55.80948808078206","37.464620672717558","f79c660b-2b07-4fb3-b358-dc09bd68ae06","19","20661379","БАР СВЕЖИЕ СОКИ","нет","null","Северо-Западный административный округ","район Щукино","Щукинская улица, дом 42","(495) 921-43-01","10","нет","37.4646206727175580","55.8094880807820600"
"55.717307632118633","37.511065063713325","6fd4bd83-2139-4843-af1c-96f90e5fe837","20","20661387","БАР «Фьюжн лаунж»","нет","null","Западный административный округ","район Раменки","улица Улофа Пальме, дом 1","(499) 147-79-95","10","нет","37.5110650637133250","55.7173076321186330"
"55.805080495302796","37.399948098737475","16feaf0c-3911-4fd0-855a-5f218abe4394","21","20661428","Кафе-бар Пиво","нет","null","Северо-Западный административный округ","район Строгино","Строгинский бульвар, дом 9","(915) 200-04-61","24","нет","37.3999480987374750","55.8050804953027960"
"55.765206165384861","37.608450200854435","4f7439ee-2f3b-4705-8ded-40501b02c6ca","22","20661482","Бирмаркет","нет","null","Центральный административный округ","Тверской район","Страстной бульвар, дом 4, строение 3","(903) 741-41-41","20","нет","37.6084502008544350","55.7652061653848610"
"55.763514843378864","37.556618165211184","0aef393c-0325-4bf1-94e1-e6f0e7b10b9b","23","20661577","Ресторан «Cinq sens»","нет","null","Центральный административный округ","Пресненский район","Звенигородское шоссе, дом 3А, строение 1","(499) 130-11-93","75","нет","37.5566181652111840","55.7635148433788640"
"55.814083099606286","37.468187433648467","289615d6-0b5a-4fa2-826b-3cff9b7051db","24","20661586","Пивной бар, доставка еды на дом","нет","null","Северо-Западный административный округ","район Покровское-Стрешнево","Волоколамское шоссе, дом 45","(495) 922-33-93","16","нет","37.4681874336484670","55.8140830996062860"
"55.717791664498989","37.785125888847929","b7195326-14af-4c98-a71f-899b669bf055","25","20661595","Лето","да","Лето","Юго-Восточный административный округ","Рязанский район","Рязанский проспект, дом 32, корпус 3","(499) 398-16-28","53","нет","37.7851258888479290","55.7177916644989890"
"55.75914810521364","37.58082940186447","d21ca34a-5267-4bb0-9b8d-bdb8b41b844a","26","20661610","Клуб «Высотка-2»","нет","null","Центральный административный округ","Пресненский район","Кудринская площадь, дом 1","(495) 605-12-91","80","нет","37.5808294018644700","55.7591481052136400"
"55.66378322426781","37.511297876821246","fc7da605-48bf-46eb-aa79-4871b45cb4c6","27","20661615","Passion","нет","null","Юго-Западный административный округ","Обручевский район","Ленинский проспект, дом 109","(495) 988-51-52","12","нет","37.5112978768212460","55.6637832242678100"
"55.4122","37.368","902ae946-6e22-4d21-9899-73edf4bfd1e1","28","20661751","Торнадо","нет","null","Юго-Западный административный округ","район Котловка","Большая Черёмушкинская улица, дом 1","(906) 724-29-26","50","нет","37.3680000000000000","55.4122000000000000"
"55.890201","37.588036","8d71f541-0573-4dd3-adea-9dbf5d297a78","29","20661760","Пивной Бар","нет","null","Северо-Восточный административный округ","район Бибирево","Алтуфьевское шоссе, дом 72","(499) 381-91-21","127","нет","37.5880360000000020","55.8902009999999980"
"55.888225672866255","37.58864964501138","2c00d2e0-aa43-4af2-9f2e-9647cf9c0e0c","30","20661761","Караоке бар","нет","null","Северо-Восточный административный округ","район Бибирево","Алтуфьевское шоссе, дом 70, корпус 1","(916) 650-57-00","30","нет","37.5886496450113800","55.8882256728662550"
"55.640586427066005","37.608232145842386","57cf3766-0e1b-4a5e-9ed4-3e9ceb6f3742","31","20661775","ФИТО-БАР","нет","null","Южный административный округ","район Чертаново Северное","Балаклавский проспект, дом 5А","(495) 748-77-77","0","нет","37.6082321458423860","55.6405864270660050"
"55.783645328339006","37.560064539876883","7459abd4-85a1-448c-a489-9c0c0a7799d9","32","20661883","Галла Денс","нет","null","Северный административный округ","район Беговой","Ленинградский проспект, дом 31А, строение 1","(495) 786-43-77","20","нет","37.5600645398768830","55.7836453283390060"
"55.708698355943341","37.622067446169545","3266e84b-45cb-4947-9293-1058bdd542f0","33","20665571","Йогурт-Френзи","нет","null","Южный административный округ","Даниловский район","Большая Тульская улица, дом 13","(495) 772-44-27","6","нет","37.6220674461695450","55.7086983559433410"
"55.759107921184807","37.603228764425261","2b49c4b3-f910-4533-a2bb-53790f43c2e2","34","20665834","Бар «Wisky room»","нет","null","Центральный административный округ","Пресненский район","Леонтьевский переулок, дом 8, строение 1","(495) 629-17-37","26","нет","37.6032287644252610","55.7591079211848070"
"55.996207122843771","37.216956553722021","20bdabc3-f783-4b81-be42-e3db41a76ad8","35","20666018","Buthers Стейк бар","нет","null","Зеленоградский административный округ","район Савёлки","Яблоневая аллея, дом 2","(909) 659-21-91","60","нет","37.2169565537220210","55.9962071228437710"
"55.761666599147468","37.640626663746296","7fea3caf-46a1-4879-b68d-2a5cd098e8c9","36","20666124","Гранд Бурбон Стрит","нет","null","Центральный административный округ","Басманный район","Потаповский переулок, дом 5, строение 2","(495) 625-94-24","85","нет","37.6406266637462960","55.7616665991474680"
"55.762412021173446","37.606928016576418","2e45ec37-6361-4b47-bc29-006094c24483","37","20672648","Все твои друзья","нет","null","Центральный административный округ","Тверской район","Малый Гнездниковский переулок, дом 12","(495) 233-40-88","24","нет","37.6069280165764180","55.7624120211734460"
"55.760077312515932","37.621601433037334","b3bb767c-0320-48fe-b031-04f8f38df0c0","38","20673748","Суши-бар Эноки ( при гостинице Арарат Парк Хаятт","нет","null","Центральный административный округ","Мещанский район","Неглинная улица, дом 4","(495) 783-12-34","22","нет","37.6216014330373340","55.7600773125159320"
"55.614579456260266","37.261845983095753","e4c75873-4cbc-46e3-bd5d-ecc9e0488a99","39","20674496","Овчаренко Е.Л.","нет","null","Западный административный округ","район Внуково","Базовая улица, дом 2, корпус 1","(926) 634-12-44","8","нет","37.2618459830957530","55.6145794562602660"
"55.846144758883433","37.3580592058223","cbd05f04-c44e-49b3-95d6-a7317ddb23f7","40","20675518","БАР. СОКИ","нет","null","Северо-Западный административный округ","район Митино","Дубравная улица, дом 34/29","(495) 258-94-19","0","нет","37.3580592058223000","55.8461447588834330"
"55.820406639681906","37.758636654422389","7b9d587d-f0aa-4eb9-a771-2a1ac1f048f6","41","20675891","БИЛЬЯРДНЫЙ КЛУБ СПОРТ - БАР","нет","null","Восточный административный округ","район Метрогородок","улица Николая Химушина, дом 5, строение 3","(499) 966-88-07","25","нет","37.7586366544223890","55.8204066396819060"
"55.6617177144958","37.4816247439943","7e8d630e-3bdb-4a24-a443-751fa3465d35","42","20677110","Бар «Спортбар»","нет","null","Западный административный округ","район Тропарёво-Никулино","проспект Вернадского, дом 86Б","(495) 788-93-52","75","нет","37.4816247439943000","55.6617177144958000"
"55.747532267739153","37.581259984511838","e7cafd11-2d7a-4f2c-aa51-0fab2aac5aae","43","20677339","Luciano bar","да","Luciano","Центральный административный округ","район Арбат","Смоленская площадь, дом 3","(495) 981-55-58","50","нет","37.5812599845118380","55.7475322677391530"
"55.747532267739153","37.581259984511838","772897db-a81f-4ea4-82bf-f32ac870bafc","44","20677395","Luciano Bar","да","Luciano","Центральный административный округ","район Арбат","Смоленская площадь, дом 3","(495) 981-55-58","50","нет","37.5812599845118380","55.7475322677391530"
"55.635035","37.436903","6cca9362-fed3-4607-936e-423e76e61598","45","20681201","Столярская И.И.","нет","null","Новомосковский административный округ","поселение Московский","Киевское шоссе, 22-й километр, домовладение 4, строение 2","(495) 748-94-55","10","нет","37.4369030000000000","55.6350350000000000"
"55.759687964098987","37.808985","c9960b5e-67cd-4fe3-bf26-ed16e7e9b19f","46","20682425","Форест бар","нет","null","Восточный административный округ","район Новогиреево","улица Металлургов, дом 62, корпус 1","(495) 645-67-75","60","нет","37.8089850000000000","55.7596879640989870"
"55.844324","37.383642","aec26ee3-abaf-46ab-a5c4-985a4902b14a","47","20684125","Соки","нет","null","Северо-Западный административный округ","район Митино","Пятницкое шоссе, дом 18","(495) 794-45-50","0","нет","37.3836420000000000","55.8443240000000000"
"55.771154341306662","37.670200616578008","0191171a-60b7-42b4-9752-3f4ef5480d47","48","20685029","Шафран","нет","null","Центральный административный округ","Басманный район","Новорязанская улица, дом 38","(499) 411-12-52","50","нет","37.6702006165780080","55.7711543413066620"
"55.8236416474614","37.757857349577051","a96ffbf8-6b89-4d89-8a03-9c71105c8a0e","49","20685149","БАР «ПИВМАГ»","нет","null","Восточный административный округ","район Метрогородок","Открытое шоссе, дом 24, корпус 12","(915) 367-02-15","8","нет","37.7578573495770510","55.8236416474614000"
"55.769300680246069","37.620726117658172","ab34551c-d496-44bc-807f-3a21637e02b4","50","20685371","Петров и Васечка","нет","null","Центральный административный округ","Тверской район","Цветной бульвар, дом 7, строение 1","(968) 710-77-70","55","нет","37.6207261176581720","55.7693006802460690"
"55.762570048874196","37.556899785055641","b2d9ba55-61be-44da-8879-1c1fc238e418","51","20686186","Бар «Хлеб и Вино»","да","Хлеб и Вино","Центральный административный округ","Пресненский район","2-я Звенигородская улица, дом 12, строение 23","(965) 404-35-63","70","нет","37.5568997850556410","55.7625700488741960"
"55.7651463730682","37.621224547617","0fcdc0de-c074-4c4b-a5fe-3f1611698e63","52","20686773","Бар «Глобал бар НК»","нет","null","Центральный административный округ","Мещанский район","Нижний Кисельный переулок, дом 4","(499) 271-69-96","90","нет","37.6212245476170000","55.7651463730682000"
"55.7352812582155","37.4597186745662","558cc847-3efe-4e46-8fe1-37d11456aea0","53","20686987","Тарантино","нет","null","Западный административный округ","район Фили-Давыдково","Малая Филёвская улица, дом 30","(495) 908-98-76","60","нет","37.4597186745662000","55.7352812582155000"
"55.6777108328092","37.8500958477148","7ffa1a6c-a3fe-452f-8e48-d321e5f79727","54","20690037","Бар «Водопад»","нет","null","Юго-Восточный административный округ","район Кузьминки","улица Юных Ленинцев, дом 71, корпус 1","(499) 172-69-01","6","нет","37.8500958477148000","55.6777108328092000"
"55.6826223552459","37.8133012923519","b194b3ea-de50-4dc4-be0e-5e8feb4b8daf","55","20690064","Бар «Иль Патио»","да","Иль Патио","Юго-Восточный административный округ","район Кузьминки","Волгоградский проспект, дом 119А","(495) 739-55-61","5","нет","37.8133012923519000","55.6826223552459000"
"55.5956236644517","37.6061007009569","985e1e4d-d641-4446-b3d8-2d8d7fd796bd","56","20694280","Пивной Дом-Запад","да","Штирбирлиц","Южный административный округ","район Чертаново Южное","Россошанская улица, дом 1, корпус 1","(909) 912-92-82","50","нет","37.6061007009569000","55.5956236644517000"
"55.742721","37.502863","42cb1dcd-e05a-4ab4-9ea7-fc6d44fbd4ab","57","20696041","Бар «Джандуя»","нет","null","Западный административный округ","район Филёвский Парк","Багратионовский проезд, дом 7, корпус 20А","(499) 145-75-77","90","нет","37.5028629999999980","55.7427210000000030"
"55.6286517692529","37.7400225830899","a0deb0f7-19c1-446a-a80c-82774d50cd52","58","20696050","Бильярдный клуб «Лига»","нет","null","Южный административный округ","район Зябликово","улица Мусы Джалиля, дом 6, корпус 1","(495) 395-77-76","50","нет","37.7400225830899000","55.6286517692529000"
"55.6233582590347","37.6031671433346","c38bdd49-e482-45fb-b816-14be59cd0b7f","59","20696061","КОФЕЙНЯ","нет","null","Южный административный округ","район Чертаново Северное","Днепропетровская улица, дом 2","(495) 983-03-11","48","нет","37.6031671433346000","55.6233582590347000"
"55.635482723761207","37.758661969807818","34dcb40e-c124-4508-922b-ac4c31a29077","60","20696198","Кашира","нет","null","Южный административный округ","район Братеево","Ключевая улица, дом 10, корпус 3","(926) 523-77-98","16","нет","37.7586619698078180","55.6354827237612070"
"55.8083656113848","37.4944730388843","1b51096e-2b54-446b-bfa9-34eb34f38bc0","61","20697330","Английский паб Букингем","нет","null","Северный административный округ","район Сокол","Волоколамское шоссе, дом 15/22","(499) 158-91-36","50","нет","37.4944730388843000","55.8083656113848000"
"55.6798540786491","37.6406368242325","388bfd94-89dc-4126-aea5-8c86c8d706f2","62","20697881","Бруклин бильярд","нет","null","Южный административный округ","район Нагатино-Садовники","Нагатинская улица, дом 13, корпус 1","(968) 636-50-37","4","нет","37.6406368242325000","55.6798540786491000"
"55.8446851641971","37.4235602842405","ec6e63b3-b2e6-49e5-a7ad-4c96c49a96da","63","20700856","Бар «Спорт»","нет","null","Северо-Западный административный округ","район Южное Тушино","Туристская улица, дом 1","(926) 388-04-10","10","нет","37.4235602842405000","55.8446851641971000"
"55.76284658353206","37.606607207630937","d9555f74-c8f5-405d-8728-4f323ac4330c","64","20708804","Craft RePUBlic","нет","null","Центральный административный округ","Тверской район","Малый Гнездниковский переулок, дом 9, строение 7","(495) 629-89-84","38","нет","37.6066072076309370","55.7628465835320600"
"55.760578258669085","37.646916707918919","66a09eea-cebe-468d-a1ee-2a28d6618be7","65","20709309","Глав Пив Маг","нет","null","Центральный административный округ","Басманный район","улица Макаренко, дом 2/21, строение 1","нет телефона","40","нет","37.6469167079189190","55.7605782586690850"
"55.844324","37.383642","070f0047-8d7c-4344-a2fc-144a08da110e","66","20710373","Фрэш-бар","нет","null","Северо-Западный административный округ","район Митино","Пятницкое шоссе, дом 18","(495) 794-45-50","0","нет","37.3836420000000000","55.8443240000000000"
"55.844324","37.383642","a55ab989-3e30-466e-ac15-3f43bea75d7e","67","20710424","Бар","нет","null","Северо-Западный административный округ","район Митино","Пятницкое шоссе, дом 18","(495) 794-45-50","0","нет","37.3836420000000000","55.8443240000000000"
"55.783043","37.579322","839c083b-1c8a-445a-9740-8157283970f1","68","20710938","SURE","нет","null","Северный административный округ","район Беговой","3-я улица Ямского Поля, дом 26А","(495) 660-49-00","55","нет","37.5793220000000000","55.7830430000000000"
"55.844324","37.383642","28b5ab27-7ceb-4185-86cd-dbc7592007ba","69","20711360","Фреш-бар","нет","null","Северо-Западный административный округ","район Митино","Пятницкое шоссе, дом 18","(495) 794-45-50","0","нет","37.3836420000000000","55.8443240000000000"
"55.765206165384861","37.608450200854435","23abadc3-f24d-49ca-9234-d31236446a81","70","20712409","Крафт Стейшн","нет","null","Центральный административный округ","Тверской район","Страстной бульвар, дом 4, строение 3","(916) 557-77-78","30","нет","37.6084502008544350","55.7652061653848610"
"55.718002699742591","37.502865255606288","e9e8ec46-8191-4dcb-a52b-1daf4fb1e440","71","20712905","БАР «Бинза»","нет","null","Западный административный округ","район Раменки","Минская улица, дом 2Г, корпус 1","(499) 381-50-54","75","нет","37.5028652556062880","55.7180026997425910"
"55.706636146958679","37.752218430383358","479249db-750c-4627-baca-e756f745fdf5","72","20713523","Кафе-бар","нет","null","Юго-Восточный административный округ","район Кузьминки","Волгоградский проспект, дом 54","(495) 709-54-91","14","нет","37.7522184303833580","55.7066361469586790"
"55.796253772126896","37.719563020297741","a7fcc5a8-8d2e-4718-8cd4-7bfc4bd4bf09","73","20714838","DUCK STAR'S","нет","null","Восточный административный округ","район Преображенское","Большая Черкизовская улица, дом 6","(495) 201-37-34","95","нет","37.7195630202977410","55.7962537721268960"
"55.835852451767245","37.385825264272761","ed0ce842-3b45-4239-a62d-bcde92f6c63c","74","20715095","БАР-КАРАОКЕ «ЛЯ ФА»","нет","null","Северо-Западный административный округ","район Митино","Пятницкое шоссе, дом 3","(925) 777-86-55","40","нет","37.3858252642727610","55.8358524517672450"
"55.659286979665772","37.757764323826663","f81b2482-5a36-4af3-82c4-76008e4dc888","75","20715322","Караоке-бар «Орфеон»","нет","null","Юго-Восточный административный округ","район Марьино","Братиславская улица, дом 16, корпус 1","(495) 346-07-95","36","нет","37.7577643238266630","55.6592869796657720"
"55.757956181695313","37.6368584852073","e9a85522-6dac-4ea5-b4a8-7388fb852757","76","20715955","Хлеб и Вино","да","Хлеб и Вино","Центральный административный округ","Басманный район","улица Маросейка, дом 15","(903) 147-44-12","54","нет","37.6368584852072980","55.7579561816953130"
"55.634157866832489","37.589668838006858","69e86e9c-2bbd-4629-a882-58235854f9f4","77","20716507","РАШН ПАБ","нет","null","Южный административный округ","район Чертаново Северное","микрорайон Северное Чертаново, дом 7, корпус Г","(901) 595-02-02","32","нет","37.5896688380068580","55.6341578668324890"
"55.857310723165767","37.585592618762625","516f82d7-e81c-40d2-9606-0dbf70a26081","78","20717532","БАР «ДАБЛ ШОТ»","нет","null","Северо-Восточный административный округ","район Отрадное","Алтуфьевское шоссе, дом 16","(916) 853-70-14","99","нет","37.5855926187626250","55.8573107231657670"
"55.699798505573284","37.765366677782822","c55110ea-244f-45e4-8b9a-aac9f1e6311c","79","20718729","КРЦ «Высота»","нет","null","Юго-Восточный административный округ","район Кузьминки","улица Юных Ленинцев, дом 52","(499) 175-67-45","10","нет","37.7653666777828220","55.6997985055732840"
"55.699798505573284","37.765366677782822","7b88a886-811a-4302-8976-5bdb2ce9010d","80","20718760","КРЦ «Высота»","нет","null","Юго-Восточный административный округ","район Кузьминки","улица Юных Ленинцев, дом 52","(499) 176-56-74","10","нет","37.7653666777828220","55.6997985055732840"
"55.769859","37.646768","e46618eb-be41-45d9-8593-7d1186fdde0c","81","20719167","Бельгийская пивная 0,33","нет","null","Центральный административный округ","Красносельский район","Садовая-Спасская улица, дом 17/2","(495) 607-75-53","120","нет","37.6467680000000000","55.7698590000000000"
"55.6977547580269","37.785685701563267","e5fcc5fe-f247-4a21-b343-db1b85d68a3e","82","20719253","Бар","нет","null","Юго-Восточный административный округ","район Кузьминки","улица Юных Ленинцев, дом 115","нет телефона","10","нет","37.7856857015632670","55.6977547580269030"
"55.70630970008893","37.765383481008087","49ae1581-64e7-4aac-8b25-97a957b1d39e","83","20719316","Бар","да","Ростикс KFC","Юго-Восточный административный округ","район Кузьминки","Волгоградский проспект, дом 119А","(499) 739-55-61","6","нет","37.7653834810080870","55.7063097000889300"
"55.6109941753448","37.6075812803338","027c5219-6f6c-4543-9dc1-1260ffd14232","84","20721798","НАМИ ЭликомТорг","нет","null","Южный административный округ","район Чертаново Центральное","улица Красного Маяка, дом 2Б","(495) 721-82-72","150","нет","37.6075812803338000","55.6109941753448000"
"55.7338200996199","37.6273437963557","8eb8202b-b672-4e98-8bde-0dacfeffb825","85","20723239","Джон-Дон паб","нет","null","Центральный административный округ","район Замоскворечье","Пятницкая улица, дом 56, строение 4","(968) 665-51-14","50","нет","37.6273437963557000","55.7338200996199000"
"55.8503348697753","37.4445137010644","8605e228-b263-4997-a9df-608e0c5c74d2","86","20723725","Бар «Витамин»","нет","null","Северо-Западный административный округ","район Южное Тушино","Сходненская улица, дом 56","(963) 710-20-76","5","нет","37.4445137010644000","55.8503348697753000"
"55.736826844486068","37.692154140931656","585274f4-847d-4117-954e-97bdf80fcae6","87","20724255","МИМИ","нет","null","Центральный административный округ","Таганский район","Нижегородская улица, дом 32, строение 4","(495) 912-46-87","50","нет","37.6921541409316560","55.7368268444860680"
"55.7350976964724","37.6653024183343","37e456c9-0947-43e7-af82-13fbabde371d","88","20724309","Бильярдная","нет","null","Центральный административный округ","Таганский район","Марксистская улица, дом 34, корпус 8","(495) 911-61-00","25","нет","37.6653024183343000","55.7350976964724000"
"55.7469112206109","37.6792928205548","d4e9a25d-3f67-4c63-b906-080eb1ba382c","89","20725169","Бостон Паб","нет","null","Центральный административный округ","Таганский район","улица Сергия Радонежского, дом 29-31, строение 1","(495) 624-07-10","98","нет","37.6792928205548000","55.7469112206109000"
"55.44875028","37.511275","85ac2e8b-3a4a-4684-96ef-6db811e805b9","90","20728003","Бар Виват","нет","null","Новомосковский административный округ","поселение Рязановское","посёлок Ерино, дом 1","(495) 867-55-75","35","нет","37.5112750000000000","55.4487502800000000"
"55.770687277972868","37.626859350152934","b2cfc8c7-b7ec-4d24-81d5-e7f8bc7fc381","91","20729574","Бар «Для Дел»","нет","null","Центральный административный округ","Мещанский район","Большой Сухаревский переулок, дом 5, строение 2","(965) 313-39-50","36","нет","37.6268593501529340","55.7706872779728680"
"55.756051834590096","37.559499365606115","0e40c517-7916-4d1d-96e4-11791fd2a2ae","92","20730144","Бар «Блексмит»","нет","null","Центральный административный округ","Пресненский район","Рочдельская улица, дом 15, строение 30","(967) 071-10-13","60","нет","37.5594993656061150","55.7560518345900960"
"55.648604329204822","37.662085487882493","ba279b34-db75-44a1-9192-e1e830592ab5","93","20730867","Салютис","да","Killlfish Discount Bar","Южный административный округ","район Москворечье-Сабурово","Каширское шоссе, дом 42, корпус 1","(800) 333-09-77","90","нет","37.6620854878824930","55.6486043292048220"
"55.7012089991293","37.5039051070089","05b89ac5-8e81-4b46-b795-c95bdb6790ee","94","20730922","Азбука Вкуса","да","Азбука Вкуса","Западный административный округ","район Раменки","Мичуринский проспект, дом 22, корпус 1","(495) 932-89-91","6","нет","37.5039051070089000","55.7012089991293000"
"55.839006372930093","37.378771004993268","f8f75cde-d6a0-4eae-95d5-babf8cfed9b1","95","20730923","БАР","нет","null","Северо-Западный административный округ","район Митино","Новотушинский проезд, дом 10","(495) 754-70-92","12","нет","37.3787710049932680","55.8390063729300930"
"55.850817105708131","37.359367867537188","e2a12951-4adf-4bc1-8b1a-19b65967fa16","96","20730925","БАР-ФИТНЕС","нет","null","Северо-Западный административный округ","район Митино","Пятницкое шоссе, дом 29, корпус 5","(495) 759-22-11","24","нет","37.3593678675371880","55.8508171057081310"
"55.8470534475681","37.3621144188648","1dc2ca30-4141-438f-acb5-b27617b8f707","97","20730926","БАР-СПОРТ «ТОРНАДО»","да","Торнадо","Северо-Западный административный округ","район Митино","Митинская улица, дом 36, корпус 2","(495) 751-16-89","60","нет","37.3621144188648000","55.8470534475681000"
"55.757854146320859","37.501809858293221","b7573de0-3121-49e6-88f1-c386cd826528","98","20730927","Бар «Акеро»","нет","null","Западный административный округ","район Филёвский Парк","Береговой проезд, дом 4, корпус 3","(495) 995-00-78","16","нет","37.5018098582932210","55.7578541463208590"
"55.7675816547737","37.4048420258709","87b7351d-5d04-4fa6-85bb-a8f5e2789def","99","20730928","Пиццерия «Эль-Бонифачио»","нет","null","Западный административный округ","район Крылатское","Осенняя улица, дом 25, корпус 1","(495) 412-65-04","14","нет","37.4048420258709000","55.7675816547737000"
"55.741093150216081","37.415345712097718","cf85c240-e3f9-4f25-a9e4-f0f5e2c7c032","100","20730929","ОГОНЕК","нет","null","Западный административный округ","район Кунцево","Ярцевская улица, дом 25А","(495) 710-72-07","20","нет","37.4153457120977180","55.7410931502160810"
"55.742411042650119","37.429826610027085","e6d7206d-5f18-444f-b7a3-13a29a191064","101","20730930","СОЮЗКОНТРОЛЬ","нет","null","Западный административный округ","район Кунцево","Рублёвское шоссе, дом 20, корпус 1","(495) 415-38-72","15","нет","37.4298266100270850","55.7424110426501190"
"55.74273406254629","37.430565841391122","7f55e74d-50bb-47db-bc88-afe506691390","102","20730931","ЮНИСЛОТ-ПЛЮС","нет","null","Западный административный округ","район Кунцево","Рублёвское шоссе, дом 20, корпус 2","(499) 149-30-88","15","нет","37.4305658413911220","55.7427340625462900"
"55.6360841337629","37.3585904917673","b5ddc6f3-f6b1-45c5-b3f6-26470ef83008","103","20730933","ПАЛЬМА-КЛУБ","нет","null","Западный административный округ","район Ново-Переделкино","улица Шолохова, дом 4","(495) 502-52-54","36","нет","37.3585904917673000","55.6360841337629000"
"55.6378535016883","37.338613743339","86dd0d4a-048c-4786-bc11-b8ddb8f311b2","104","20730934","Бар «Гараж»","нет","null","Западный административный округ","район Ново-Переделкино","улица Скульптора Мухиной, дом 18","(495) 732-29-82","85","нет","37.3386137433390000","55.6378535016883000"
"55.6438156911153","37.3481953885926","7207af2f-4b7e-43c2-91de-90465488aad5","105","20730935","Бар «Нью Амстердам Холл»","нет","null","Западный административный округ","район Ново-Переделкино","улица Скульптора Мухиной, дом 4","(495) 733-55-53","84","нет","37.3481953885926000","55.6438156911153000"
"55.6768859872112","37.5047358021536","4d23644d-31e9-4827-9381-18e39a201e9d","106","20730936","Бар «Каро фильм менеджмент»","нет","null","Западный административный округ","район Проспект Вернадского","проспект Вернадского, дом 14","(499) 133-96-10","18","нет","37.5047358021536000","55.6768859872112000"
"55.651414","37.4831149999999","e153bf18-26e7-4877-939d-5c181291c760","107","20730937","Бар","нет","null","Западный административный округ","район Тропарёво-Никулино","Ленинский проспект, дом 158","(495) 234-92-46","40","нет","37.4831149999999000","55.6514140000000000"
"55.6765988897471","37.4704525511474","100d6b70-a016-4ce6-a1d9-d7ec5363f1e1","108","20730938","Бар «ЛЮКС»","нет","null","Западный административный округ","район Тропарёво-Никулино","улица Мичуринский Проспект, Олимпийская Деревня, дом 4, корпус 1","(495) 437-54-08","24","нет","37.4704525511474000","55.6765988897471000"
"55.889799653807","37.3888632284234","906c660c-0cdf-4aef-b984-ff86413320f8","109","20730940","Бар «SYNERGY»","нет","null","Северо-Западный административный округ","район Куркино","Воротынская улица, дом 18","(903) 275-33-76","45","нет","37.3888632284234000","55.8897996538070000"
"56.002977982964204","37.204784452915192","ab73f085-77f2-4331-97b2-6fb64c578670","110","20730944","Юмит-2С","нет","null","Зеленоградский административный округ","район Матушкино","город Зеленоград, корпус 233","(499) 995-08-10","8","нет","37.2047844529151900","56.0029779829642040"
"55.995021","37.207384","f8188c6b-2e4e-4d88-9643-29edb1c18a1c","111","20730945","Бар «Оазис»","нет","null","Зеленоградский административный округ","район Матушкино","город Зеленоград, корпус 426А, строение 1","(499) 734-16-36","55","нет","37.2073839999999980","55.9950210000000010"
"55.73177525357","37.487777732475","e0c2f0b2-f50d-44a8-9292-76cd81fa16e3","112","20730946","Бар","нет","null","Западный административный округ","район Фили-Давыдково","Кутузовский проспект, дом 48","(495) 520-63-68","40","нет","37.4877777324750000","55.7317752535700000"
"55.702777319441289","37.457554197935494","f5653052-5cb5-4e09-9e1b-5a6dd7b3e3ee","113","20730950","Лебедько Александр Николаевич","нет","null","Западный административный округ","район Очаково-Матвеевское","Аминьевское шоссе, дом 3А","(926) 204-11-02","4","нет","37.4575541979354940","55.7027773194412890"
"55.7677117451558","37.4079393655818","140ef9d4-fa8a-4fa3-b76f-eff98185e6e2","114","20730951","ПИВНОЙ БАР «РЯБИНКА»","нет","null","Западный административный округ","район Крылатское","Осенняя улица, дом 28","(495) 415-42-49","120","нет","37.4079393655818000","55.7677117451558000"
"56.004937503843244","37.194851910888545","72b7662b-19c9-4079-9cd8-6e55deb12b66","115","20730952","Бар «Адамов Роман Анатольевич»","нет","null","Зеленоградский административный округ","район Матушкино","2-й Западный проезд, дом 2","(000) 000-00-00","24","нет","37.1948519108885450","56.0049375038432440"
"55.766772","37.381221","3e40d522-a5e3-4d60-8896-df54a51c37eb","116","20730953","Бар «ФОРМУЛА КИНО»","нет","null","Западный административный округ","район Крылатское","Рублёвское шоссе, дом 62","(499) 929-95-60","1","нет","37.3812209999999960","55.7667720000000030"
"55.677854","37.467368","ad5d97f9-e6ef-47f7-9575-3b1c15ff6eb1","117","20730984","Бар «ВИП-бар»","нет","null","Западный административный округ","район Тропарёво-Никулино","улица Мичуринский Проспект, Олимпийская Деревня, дом 3, корпус 1","(495) 915-84-85","60","нет","37.4673680000000000","55.6778540000000000"
"55.723462","37.519768","a4dd26d6-f0fb-439d-a1e4-1a182c37b2c7","118","20731033","БАР при Московском гольф клубе","нет","null","Западный административный округ","район Раменки","улица Довженко, дом 1, строение 1","нет телефона","34","нет","37.5197680000000000","55.7234620000000000"
"55.7177640196933","37.5088128075954","d9f6e130-d140-40f1-8dd5-153377936ada","119","20731034","БАР","нет","null","Западный административный округ","район Раменки","улица Улофа Пальме, дом 5, строение 1","(495) 933-52-60","10","нет","37.5088128075954000","55.7177640196933000"
"55.717778624192","37.5088330732412","41a7a495-f685-4ae4-a690-d71fd30acc2c","120","20731035","БАР","нет","null","Западный административный округ","район Раменки","улица Улофа Пальме, дом 5, строение 1","нет телефона","12","нет","37.5088330732412000","55.7177786241920000"
"55.7177544512719","37.5088545309135","0eda00a8-d652-4ef7-96f7-338167f862b3","121","20731036","БАР","нет","null","Западный административный округ","район Раменки","улица Улофа Пальме, дом 5, строение 1","нет телефона","16","нет","37.5088545309135000","55.7177544512719000"
"55.7177431228773","37.5088134100216","b00b7996-a47a-4bd5-914b-64281d19ed0c","122","20731037","БАР","нет","null","Западный административный округ","район Раменки","улица Улофа Пальме, дом 5, строение 1","нет телефона","10","нет","37.5088134100216000","55.7177431228773000"
"55.6651494315987","37.4861899057297","64a869d5-9fc1-43d6-9bb2-81c0610c495c","123","20731039","Бар «Фитнес-бар»","нет","null","Западный административный округ","район Тропарёво-Никулино","проспект Вернадского, дом 103, корпус 1","(495) 239-19-94","24","нет","37.4861899057297000","55.6651494315987000"
"55.6448733580908","37.2845608998777","82cba6ec-a94d-4906-a909-f290017f735d","124","20731051","ООО «Бизнес Ресурс»","нет","null","Западный административный округ","район Внуково","2-я Рейсовая улица, дом 2, корпус 5","(495) 436-83-60","32","нет","37.2845608998777000","55.6448733580908000"
"55.7710314663369","37.4070727603153","e8b51d30-ce07-47f6-8674-89fe6af5dcf0","125","20731131","Бар «СТОЙКА БАР»","нет","null","Западный административный округ","район Крылатское","Крылатская улица, дом 33, корпус 1","(495) 414-50-50","90","нет","37.4070727603153000","55.7710314663369000"
"55.728331929735347","37.438590652750854","cc8e8fba-242b-4141-a919-6a25d9487e34","126","20731142","САФРОНЧИК","нет","null","Западный административный округ","район Кунцево","улица Ивана Франко, дом 16","(499) 755-95-91","17","нет","37.4385906527508540","55.7283319297353470"
"55.7486346856794","37.4977570130774","30561b33-a0dd-4107-ae9f-22b6c303f5a1","127","20731243","Кафе «Звезда»","нет","null","Западный административный округ","район Филёвский Парк","Большая Филёвская улица, дом 20","(499) 148-67-74","40","нет","37.4977570130774000","55.7486346856794000"
"55.742658906621","37.4982290818644","640179c3-e0e4-425d-9865-4a8f2031b22d","128","20731284","Бар «СПБ»","нет","null","Западный административный округ","район Филёвский Парк","улица Барклая, дом 9/2, строение 3","(499) 148-75-69","160","нет","37.4982290818644000","55.7426589066210000"
"55.7330896532908","37.590229900909","cf76d504-3f1e-440e-9285-c518adb66676","129","20731485","винный бар и кафе «Гаврош»","нет","null","Центральный административный округ","район Хамовники","улица Тимура Фрунзе, дом 11, строение 19","(499) 558-08-38","80","нет","37.5902299009090000","55.7330896532908000"
"55.755791329324758","37.614625717781195","9a459228-c2be-4bff-9b19-78226020637f","130","20731490","Коктейль-бар","нет","null","Центральный административный округ","Тверской район","Манежная площадь, дом 1, строение 2","(495) 737-84-12","10","нет","37.6146257177811950","55.7557913293247580"
"55.734906302167026","37.6279835633063","48a21e7a-fb69-4fed-8152-a392d40e84b1","131","20731492","Бар «Николай»","да","Николай","Центральный административный округ","район Замоскворечье","Пятницкая улица, дом 53/18, строение 1","(495) 951-95-59","40","нет","37.6279835633063020","55.7349063021670260"
"55.9806304211657","37.1765618735306","e45c8538-15d4-4560-97bb-8a42e1d11e6c","132","20731493","БАР «Юнионбэт»","нет","null","Зеленоградский административный округ","район Старое Крюково","город Зеленоград, корпус 834Б","(915) 113-37-77","32","нет","37.1765618735306000","55.9806304211657000"
"55.754695803256624","37.621448656344477","7b20cce3-a816-48db-a76d-fffb8e69e53c","133","20731495","ТД ГУМ бар в столовой","нет","null","Центральный административный округ","Тверской район","Красная площадь, дом 3","(495) 788-42-53","10","нет","37.6214486563444770","55.7546958032566240"
"55.8638354233214","37.7016999946625","4610c1fc-e1eb-446a-bfdd-89f5c532c5d1","134","20731497","ЛОББИ-БАР при г-це Максима","нет","null","Северо-Восточный административный округ","Ярославский район","Ярославское шоссе, дом 44","(495) 972-61-44","30","нет","37.7016999946625000","55.8638354233214000"
"55.7322162486311","37.5892296062544","d5978b03-9701-418c-897c-88becdb1346c","135","20731501","EL CAFE","нет","null","Центральный административный округ","район Хамовники","улица Льва Толстого, дом 5, строение 1","(926) 010-91-75","10","нет","37.5892296062544000","55.7322162486311000"
"55.757961819619581","37.624430897186059","5dea99eb-9672-4abb-ba49-cb8fe120a466","136","20731505","Pachamoscow","нет","null","Центральный административный округ","Тверской район","Никольская улица, дом 10","(495) 755-95-54","300","нет","37.6244308971860590","55.7579618196195810"
"55.822531252749862","37.647072856311581","cacc5a37-c36a-4b7f-9493-5ef2332ece43","137","20731506","Ночной клуб «СОЛЯРИС»","нет","null","Северо-Восточный административный округ","Алексеевский район","проспект Мира, дом 150","(495) 234-10-88","100","нет","37.6470728563115810","55.8225312527498620"
"55.6577824718105","37.7513221786113","688b56b3-fa21-4b2b-9996-e7e6bffcfb88","138","20731508","Бар «Байла бар»","нет","null","Юго-Восточный административный округ","район Марьино","Мячковский бульвар, дом 3","(495) 973-39-99","20","нет","37.7513221786113000","55.6577824718105000"
"55.6731055945515","37.6646485451884","ff8b46e4-00b6-431d-8d32-e9cbcdc0ac5c","139","20731509","БАР ПЕНА","нет","null","Южный административный округ","район Нагатинский Затон","проспект Андропова, дом 37","(499) 614-83-21","70","нет","37.6646485451884000","55.6731055945515000"
"55.6474580454059","37.7234287955547","3a1ec5d6-79d9-481f-9da1-798f35c3ab95","140","20731511","Бар «Клешня»","нет","null","Юго-Восточный административный округ","район Марьино","Новочеркасский бульвар, дом 13","(495) 357-40-91","55","нет","37.7234287955547000","55.6474580454059000"
"55.6190588593336","37.5918098913252","3843ec07-fefc-4eb4-b9ab-1c9974b5dd23","141","20731512","БРИДИС ШПИЛЬКА","нет","null","Южный административный округ","район Чертаново Центральное","Чертановская улица, дом 32, строение 3","(495) 314-26-36","50","нет","37.5918098913252000","55.6190588593336000"
"55.7835098198114","37.7191611753535","6f27b490-e3c4-4675-be58-257f1a7e685d","142","20731513","БАР ГОЛОДНАЯ КОШКА","нет","null","Восточный административный округ","район Соколиная Гора","улица Измайловский Вал, дом 2","(499) 369-71-91","15","нет","37.7191611753535000","55.7835098198114000"
"55.7399312877603","37.6101991464642","c86a41ae-0309-4e23-9cb8-1aae600e0ece","143","20731516","Роллинг Стоун","нет","null","Центральный административный округ","район Якиманка","Болотная набережная, дом 3, строение 1","(495) 504-09-32","45","нет","37.6101991464642000","55.7399312877603000"
"55.813337214177","37.6204042878602","19adeb7d-6092-4ba2-8d36-f46ddc9d339d","144","20731518","БАР при ОАО г-це «ЗВЕЗДНАЯ»","нет","null","Северо-Восточный административный округ","Останкинский район","Аргуновская улица, дом 2, корпус 1","(615) 410-13-93","30","нет","37.6204042878602000","55.8133372141770000"
"55.767566907986776","37.602605552698812","7ae81aa6-d9c7-4858-b576-3b816db76671","145","20731522","Бар-Селона","нет","null","Центральный административный округ","Тверской район","Тверская улица, дом 22А, строение 3","(495) 650-55-42","25","нет","37.6026055526988120","55.7675669079867760"
"55.754498641728617","37.609499462779326","9dad5e80-70ff-48be-85b5-442b7f8419bd","146","20731523","БАР","нет","null","Центральный административный округ","район Арбат","Романов переулок, дом 4, строение 2","(495) 609-64-50","20","нет","37.6094994627793260","55.7544986417286170"
"55.743180398217341","37.6747410801939","239dfd09-9646-4e49-b98c-64fb9b9c2014","147","20731524","ТУКАН","нет","null","Центральный административный округ","Таганский район","Вековая улица, дом 20А, строение 3","(495) 783-80-13","58","нет","37.6747410801938970","55.7431803982173410"
"55.820154314934122","37.500464273701766","7f73c419-0689-4337-8aaf-71c9e90d4ad7","148","20731525","ПИРАМИДА","нет","null","Северный административный округ","Войковский район","площадь Ганецкого, дом 1","(495) 933-74-96","30","нет","37.5004642737017660","55.8201543149341220"
"55.804738907331952","37.617966800684","415fa0b6-ef5c-4f8c-85ae-b1e8fd2436db","149","20731526","ОЛЬХОВАТОВ Т.В.","нет","null","Северо-Восточный административный округ","район Марьина Роща","12-й проезд Марьиной Рощи, владение 9, строение 2","(495) 933-75-25","9","нет","37.6179668006840020","55.8047389073319520"
"55.8071860910442","37.6358375432528","9be609e5-4c2b-4763-9274-2c160e922292","150","20731527","Бар «МИР БИЛЬЯРДА»","нет","null","Северо-Восточный административный округ","Останкинский район","проспект Мира, дом 91, корпус 3","(495) 687-10-53","70","нет","37.6358375432528000","55.8071860910442000"
"55.80948808078206","37.464620672717558","c82b2084-18ae-4d92-a22c-d179b9d03776","151","20731532","БАР КИНОТЕАТРА «КАРО-ФИЛЬМ»","нет","null","Северо-Западный административный округ","район Щукино","Щукинская улица, дом 42","(495) 229-97-50","50","нет","37.4646206727175580","55.8094880807820600"
"55.7997721685114","37.482996989398274","79608aef-34a8-44a8-9a0d-7c582d2d5712","152","20731535","БАР В БИЛЬЯРДНОМ КЛУБЕ","нет","null","Северо-Западный административный округ","район Щукино","улица Маршала Бирюзова, дом 32","(495) 925-27-08","30","нет","37.4829969893982740","55.7997721685114030"
"55.7998137525357","37.471357248885","638182ed-ce9d-4e36-99e8-6a0a2c79af1e","153","20731537","БАР «АУДИ-ЦЕНТР»","нет","null","Северо-Западный административный округ","район Щукино","улица Максимова, дом 5","(495) 797-90-90","30","нет","37.4713572488850000","55.7998137525357000"
"55.8389245762446","37.4070725411466","2993bd30-1bbb-4d90-88d2-b9f3a64b6c00","154","20731538","БАР","нет","null","Северо-Западный административный округ","район Южное Тушино","улица Василия Петушкова, дом 25","(495) 948-98-10","73","нет","37.4070725411466000","55.8389245762446000"
"55.98029883514733","37.251659027780057","0c4b7d98-ba4b-4b82-a762-133988259b24","155","20731539","САЛЯРИ","нет","null","Зеленоградский административный округ","район Савёлки","Сосновая аллея, дом 8","(499) 735-05-05","15","нет","37.2516590277800570","55.9802988351473300"
"55.7574262340384","37.6588222013537","5e791154-801a-42f6-8325-d0058bf0db61","156","20731542","Каро фильм","нет","null","Центральный административный округ","Басманный район","улица Земляной Вал, дом 33","(495) 970-17-80","287","нет","37.6588222013537000","55.7574262340384000"
"55.732968790801422","37.637412549450836","eeab0a84-47c0-4ec4-994b-fa699d81fa0d","157","20731543","бар «Центральный»","нет","null","Центральный административный округ","район Замоскворечье","улица Бахрушина, дом 25","(495) 951-15-19","30","нет","37.6374125494508360","55.7329687908014220"
"55.723408529459519","37.634051628029404","fb392ef6-e7ec-482f-b44e-63711a93a349","158","20731544","бар «Рандеву» при гостинице","нет","null","Центральный административный округ","район Замоскворечье","улица Щипок, дом 22, строение 2","(495) 661-85-11","26","нет","37.6340516280294040","55.7234085294595190"
"55.7849312650346","37.6245475960605","a2a0e7dd-2018-42d6-b743-a8c896df2951","159","20731548","Бар «Ресторан 495»","нет","null","Центральный административный округ","Мещанский район","Олимпийский проспект, дом 18/1","(495) 931-90-00","50","нет","37.6245475960605000","55.7849312650346000"
"55.781041160065847","37.6264459576472","c9aaae60-06d8-4290-9b7f-1ba18c5eb45a","160","20731552","Бар «Галладенс-Олимпийский»","нет","null","Центральный административный округ","Мещанский район","Олимпийский проспект, дом 16, строение 1","(495) 786-43-72","20","нет","37.6264459576471990","55.7810411600658470"
"55.752289680891742","37.655336395072332","8a6b48b4-fdc3-4179-9cb2-c491eeef28d6","161","20731555","Мега-Эст","нет","null","Центральный административный округ","Таганский район","улица Земляной Вал, дом 48А","(495) 917-20-66","9","нет","37.6553363950723320","55.7522896808917420"
"55.965296871413507","37.208278185337583","babffe18-a25b-458b-83e7-d61d0f0d4955","162","20731556","ЛОББИ","нет","null","Центральный административный округ","Тверской район","Лесная улица, дом 15","(495) 783-65-03","30","нет","37.2082781853375830","55.9652968714135070"
"55.782558148609738","37.5985822304499","d61519b0-0149-4e0b-a55e-1735100c5ed2","163","20731557","МОТОРДОМ","нет","null","Центральный административный округ","Тверской район","Новослободская улица, дом 20","(495) 789-88-54","80","нет","37.5985822304499000","55.7825581486097380"
"55.7629141098361","37.6143995633682","da037ad6-0dc8-4b88-a0c5-eea192301b99","164","20731558","Шайк Бар","нет","null","Центральный административный округ","Тверской район","Столешников переулок, дом 7, строение 1","(495) 991-72-39","60","нет","37.6143995633682000","55.7629141098361000"
"55.754695803256624","37.621448656344477","e8f96e87-6082-4ff2-92c8-5d96f7c40a67","165","20731560","У ФОНТАНА","нет","null","Центральный административный округ","Тверской район","Красная площадь, дом 3","(495) 788-42-53","30","нет","37.6214486563444770","55.7546958032566240"
"55.754695803256624","37.621448656344477","7df7d198-5cc9-45e2-a697-6aa925c8285c","166","20731561","АРМАНИ БАР","нет","null","Центральный административный округ","Тверской район","Красная площадь, дом 3","(495) 788-42-53","28","нет","37.6214486563444770","55.7546958032566240"
"55.75843700819717","37.621634597297721","4d44bb1f-b66f-4318-a6c5-9ab5bc558978","167","20731562","ШАЛЯПИН","нет","null","Центральный административный округ","Тверской район","Театральный проезд, дом 2","(495) 642-60-01","57","нет","37.6216345972977210","55.7584370081971700"
"55.783809862457","37.560841106045","0075c233-6cc2-4c5b-beeb-22083216a16a","168","20731564","БАР VIP этажа","нет","null","Северный административный округ","район Беговой","Ленинградский проспект, дом 31А, строение 1","(495) 995-00-09","80","нет","37.5608411060450000","55.7838098624570000"
"55.8738792716378","37.5514068513028","a14cf332-f21a-4303-b4be-2e5e3557b57a","169","20731565","ОлимпГарант","нет","null","Северный административный округ","Бескудниковский район","Бескудниковский бульвар, дом 40, корпус 3","(499) 489-72-26","60","нет","37.5514068513028000","55.8738792716378000"
"55.870805647633816","37.535700637078278","7793afee-ac71-489a-a96b-9cb5a0a892ad","170","20731566","ИРИС ГОСТ-ЦА БАР","нет","null","Северный административный округ","Бескудниковский район","Коровинское шоссе, дом 10","(499) 488-82-91","40","нет","37.5357006370782780","55.8708056476338160"
"55.8651268227554","37.5434550272057","1c796fac-fb85-4b01-a87a-646975b66a57","171","20731567","ООО «Легион строй групп»","нет","null","Северный административный округ","район Западное Дегунино","Коровинское шоссе, дом 1, корпус 1","(495) 710-73-39","80","нет","37.5434550272057000","55.8651268227554000"
"55.805951708451","37.5037046896049","82644d18-c12f-4eef-acce-5adeb7f9c8b5","172","20731568","Jack Rebbit Slim's","нет","null","Северный административный округ","район Сокол","Волоколамское шоссе, дом 1, корпус А","(499) 158-11-73","70","нет","37.5037046896049000","55.8059517084510000"
"55.7906720654591","37.5476612302519","fe530447-39eb-4fa6-82c6-c7a87eb738f9","173","20731570","ЭСТРАДА лобби-бар","нет","null","Северный административный округ","Хорошёвский район","Ленинградский проспект, дом 37, корпус 9","(499) 988-31-31","95","нет","37.5476612302519000","55.7906720654591000"
"55.822531252749862","37.647072856311581","4a16504a-68ec-483b-bb47-400f2a0921a6","174","20731571","Бар «ТЕРРАСА»","нет","null","Северо-Восточный административный округ","Алексеевский район","проспект Мира, дом 150","(495) 234-14-62","100","нет","37.6470728563115810","55.8225312527498620"
"55.894353267436749","37.588229122189666","4a680d9d-8be8-42a3-81f3-b0cd0c51044f","175","20731572","Компания Яна+","нет","null","Северо-Восточный административный округ","район Бибирево","Алтуфьевское шоссе, дом 80","(499) 747-84-06","30","нет","37.5882291221896660","55.8943532674367490"
"55.851918808264","37.6098450637426","c762dbf3-19e9-4c1c-a2fb-d6fc4fcfd94e","176","20731577","БАР ПРИ АВТОМОЙКЕ","нет","null","Северо-Восточный административный округ","район Отрадное","Берёзовая аллея, дом 4","(499) 404-58-88","10","нет","37.6098450637426000","55.8519188082640000"
"55.892571554000028","37.671548157000018","c8baf464-6ac9-4e0a-b234-e757e0836c8e","177","20731579","Тбилисо","нет","null","Северо-Восточный административный округ","район Северное Медведково","Студёный проезд, дом 36","(499) 478-53-13","80","нет","37.6715481570000180","55.8925715540000280"
"55.892706136000015","37.667963265000026","ee64d272-a241-404d-a609-8880ac809ce6","178","20731580","БАР","нет","null","Северо-Восточный административный округ","район Северное Медведково","Студёный проезд, дом 28","(499) 478-35-05","40","нет","37.6679632650000260","55.8927061360000150"
"55.875637735646038","37.622125373077687","5f28e669-6d67-4b69-9d59-38861c42852d","179","20731581","БАР ПРИ ИНТЕРНЕТ-КАФЕ","нет","null","Северо-Восточный административный округ","район Южное Медведково","Ясный проезд, дом 26, корпус 2","(499) 473-53-51","11","нет","37.6221253730776870","55.8756377356460380"
"55.8104593507479","37.7037260234934","4acfd99e-2985-46c0-afc1-71a668155613","180","20731582","ИСТ-ВЕСТ-ГРУП","нет","null","Восточный административный округ","район Богородское","Краснобогатырская улица, дом 27","(499) 169-24-37","48","нет","37.7037260234934000","55.8104593507479000"
"55.809430430242756","37.783936729017967","c25d8a42-9aac-482d-a34e-40dd3e9a2c7f","181","20731585","Пиццерия «Пиццетория»","нет","null","Восточный административный округ","район Северное Измайлово","Щёлковское шоссе, дом 30","(499) 164-39-62","24","нет","37.7839367290179670","55.8094304302427560"
"55.690595146946919","37.8588666770933","e381a50b-68c4-4129-82bb-0299ec0cb054","182","20731586","КАТЕХИ","нет","null","Юго-Восточный административный округ","район Выхино-Жулебино","улица Генерала Кузнецова, дом 12","(499) 742-19-10","25","нет","37.8588666770933030","55.6905951469469190"
"55.7004609378491","37.745892070395","a1784d10-6e8e-49b4-9e86-3493e7c122fe","183","20731591","БАР ПРИ «ДВОРЦЕ БРАКОСОЧЕТАНИЯ»","нет","null","Юго-Восточный административный округ","район Текстильщики","улица Юных Ленинцев, дом 35, корпус 1","(499) 179-66-14","60","нет","37.7458920703950000","55.7004609378491000"
"55.6393934600577","37.6078870521619","4d24c69c-5856-40c5-94db-c8e878de3100","184","20731602","БАР «BENDER»","нет","null","Южный административный округ","район Чертаново Северное","Чертановская улица, дом 1В, корпус 1","(495) 316-77-38","32","нет","37.6078870521619000","55.6393934600577000"
"55.6232352333909","37.6031339447116","cf1ec3bc-f705-4a25-925a-ba541a248703","185","20731603","Спорт-бар «КОСМИК»","да","Космик","Южный административный округ","район Чертаново Северное","Днепропетровская улица, дом 2","(495) 223-43-83","150","нет","37.6031339447116000","55.6232352333909000"
"55.669539710764568","37.542649820926108","4df8cb85-4f3d-4ec7-aec5-2d5a10404439","186","20731606","ФИТНЕС-БАР «WORLD CLASS»","да","World Class","Юго-Западный административный округ","Обручевский район","улица Архитектора Власова, дом 22","(495) 504-41-72","25","нет","37.5426498209261080","55.6695397107645680"
"55.645733796646979","37.491572438027973","8f227464-1184-4007-ba57-34bfaf406fb1","187","20731607","ДК СПОРТ","нет","null","Юго-Западный административный округ","Обручевский район","улица Островитянова, дом 1, строение 4","(495) 443-12-55","15","нет","37.4915724380279730","55.6457337966469790"
"55.65312124619583","37.502512111506924","1e44ca2f-3c3e-4148-a798-74da77588126","188","20731608","РИО","нет","null","Юго-Западный административный округ","Обручевский район","улица Миклухо-Маклая, дом 11Б","(495) 434-35-88","150","нет","37.5025121115069240","55.6531212461958300"
"55.6636024790487","37.536783560727464","8ceacbac-3e54-4d8c-aa46-6e52a5c79131","189","20731609","ФИТНЕС-БАР «WELLNES PARK»","нет","null","Юго-Западный административный округ","Обручевский район","улица Воронцовские Пруды, дом 3","(495) 225-55-59","13","нет","37.5367835607274640","55.6636024790486990"
"55.6560164103394","37.5410195814201","bb157232-f39c-4f41-8599-4b907c705e78","190","20731611","СЕРДОЛИК - Ю","нет","null","Юго-Западный административный округ","район Черёмушки","Профсоюзная улица, дом 61А","(495) 784-14-13","45","нет","37.5410195814201000","55.6560164103394000"
"55.655493375193814","37.542981076613607","561fea71-bf07-4ae3-9288-f6f08e3b68d4","191","20731612","МАКСИМАЛЬНАЯ ВЫПЕЧКА","нет","null","Юго-Западный административный округ","район Черёмушки","Профсоюзная улица, дом 61А","(495) 727-34-74","20","нет","37.5429810766136070","55.6554933751938140"
"55.6560164103394","37.5412341581413","231ee86a-876e-4074-8c69-6229f6f04db4","192","20731613","МАКСИМАЛЬНЫЙ БАР","нет","null","Юго-Западный административный округ","район Черёмушки","Профсоюзная улица, дом 61А","(495) 727-34-74","40","нет","37.5412341581413000","55.6560164103394000"
"55.543607552114644","37.510438977750979","234926c1-aef9-4e55-9e96-41f303121322","193","20731614","Чашка","нет","null","Юго-Западный административный округ","район Южное Бутово","улица Академика Семёнова, дом 3","(495) 714-10-81","50","нет","37.5104389777509790","55.5436075521146440"
"55.7509280929965","37.5658839841135","c75b4785-1d11-40d8-94f2-6c2aaa666e53","194","20731615","ЛОББИ БАР","нет","null","Западный административный округ","район Дорогомилово","Кутузовский проспект, дом 2/1, строение 1","(495) 221-55-55","50","нет","37.5658839841135000","55.7509280929965000"
"55.751572945951","37.564133573531358","86a807b3-a143-48dd-8135-1daf82683a42","195","20731616","ДИОРАМА БАР","нет","null","Западный административный округ","район Дорогомилово","Кутузовский проспект, дом 2/1, корпус 1А","(495) 229-55-55","3","нет","37.5641335735313580","55.7515729459509970"
"55.741666118088048","37.56662890775668","3a7ae1e0-6340-445a-b375-91b78ee69f68","196","20731618","БАР СПОРТКЛУБА","нет","null","Западный административный округ","район Дорогомилово","площадь Европы, дом 2","(495) 941-80-97","10","нет","37.5666289077566800","55.7416661180880480"
"55.741666118088048","37.56662890775668","4793632e-b625-4054-88d8-1818373e582c","197","20731619","БАР КИНОТЕАТРА","нет","null","Западный административный округ","район Дорогомилово","площадь Европы, дом 2","(495) 941-80-97","10","нет","37.5666289077566800","55.7416661180880480"
"55.733275228567408","37.644331277452878","7202ec97-cc23-4ec6-a9df-fffe2ebb5005","198","20731621","бар 34 этаж","нет","null","Центральный административный округ","район Замоскворечье","Космодамианская набережная, дом 52, строение 6","(495) 787-98-00","100","нет","37.6443312774528780","55.7332752285674080"
"55.733275228567408","37.644331277452878","efc1e4f8-55a7-4afb-b790-f7dd5d8f9d14","199","20731623","бар оздоровительного центра","нет","null","Центральный административный округ","район Замоскворечье","Космодамианская набережная, дом 52, строение 6","нет телефона","210","нет","37.6443312774528780","55.7332752285674080"
"55.733091388017321","37.643604924876627","3adbb7ba-1c90-45d8-ae17-c5efc82764c1","200","20731625","бар PWC-CLUB","нет","null","Центральный административный округ","район Замоскворечье","Космодамианская набережная, дом 52, строение 5","(495) 737-00-16","70","нет","37.6436049248766270","55.7330913880173210"
"55.748234852595466","37.625876472022583","de0eb071-9e27-478e-8985-58a05a2002e7","201","20731628","Бар ЛОББИ гостиницы Балчуг","нет","null","Центральный административный округ","район Замоскворечье","улица Балчуг, дом 1","(495) 287-20-00","50","нет","37.6258764720225830","55.7482348525954660"
"55.731139560745987","37.647330432067257","13c0c3f4-03e5-4132-871a-4b3082d08af2","202","20731631","бар «Алекс» при гостинице","нет","null","Центральный административный округ","район Замоскворечье","Шлюзовая набережная, дом 6, строение 1","(495) 933-04-86","50","нет","37.6473304320672570","55.7311395607459870"
"55.727749067859037","37.633212516967831","c1cd694b-92cc-41fa-ad5a-58c9bb8f5143","203","20731632","Лобби-Бар при гостинице","нет","null","Центральный административный округ","район Замоскворечье","Стремянный переулок, дом 11","(495) 937-60-34","16","нет","37.6332125169678310","55.7277490678590370"
"55.727749067859037","37.633212516967831","bef73532-f692-4470-aa1d-db353a3e5de8","204","20731634","бар гостиницы «Татьяна»","нет","null","Центральный административный округ","район Замоскворечье","Стремянный переулок, дом 11","(495) 721-25-05","26","нет","37.6332125169678310","55.7277490678590370"
"55.729105375561346","37.648822160499485","c1bbe79f-9db6-4eeb-8d0e-58a100c1d0b7","205","20731635","бар фитнес-центра","нет","null","Центральный административный округ","район Замоскворечье","Кожевническая улица, дом 15, строение 1","(495) 577-87-75","35","нет","37.6488221604994850","55.7291053755613460"
"55.754682592826235","37.608980165735424","311e47c3-685a-4847-b190-beb25f7c30b4","206","20731637","Фитнес бар","нет","null","Центральный административный округ","район Арбат","Романов переулок, дом 4","(495) 772-75-45","10","нет","37.6089801657354240","55.7546825928262350"
"55.756786297005","37.6053711401057","f0d121fd-37ea-4767-bfaa-c57d549b7050","207","20731641","Буфет","нет","null","Центральный административный округ","Пресненский район","Большая Никитская улица, дом 19/13, строение 1","(499) 697-83-27","26","нет","37.6053711401057000","55.7567862970050000"
"55.7636499795448","37.5941916929317","15db120b-92c6-4de7-8c7d-848ddfed5812","208","20731649","Бар «Клава»","нет","null","Центральный административный округ","Пресненский район","Малая Бронная улица, дом 26, строение 1","(495) 695-76-70","68","нет","37.5941916929317000","55.7636499795448000"
"55.7571378099513","37.6024614499492","d1faa0fb-ef34-43a3-bdbb-904988616192","209","20731651","Бар «РЮМОЧНАЯ»","нет","null","Центральный административный округ","Пресненский район","Большая Никитская улица, дом 22/2","(499) 291-54-74","60","нет","37.6024614499492000","55.7571378099513000"
"55.7708523773745","37.5869941170447","bc8f6e6e-1a92-449d-832b-6809c4151b48","210","20731657","Бар «ДЖЕМ»","нет","null","Центральный административный округ","Пресненский район","Васильевская улица, дом 4","(499) 254-28-22","56","нет","37.5869941170447000","55.7708523773745000"
"55.7592856141443","37.5977536665033","74f7711d-f53c-430f-af03-aa02c18d4083","211","20731658","БУФЕТ","нет","null","Центральный административный округ","Пресненский район","Малая Бронная улица, дом 4, строение 2","(495) 203-83-27","48","нет","37.5977536665033000","55.7592856141443000"
"55.7375728936127","37.6126882062973","b05bf17e-5d0e-425d-99e1-f0a21953b67d","212","20731660","Аврора","нет","null","Центральный административный округ","район Якиманка","улица Большая Якиманка, дом 24","(499) 271-28-00","150","нет","37.6126882062973000","55.7375728936127000"
"55.754695803256624","37.621448656344477","7d90cc9b-e6a9-464b-bdb4-8cd4827af833","213","20731661","ТД ГУМ Кафе фестивальное Бар Кинозал","нет","null","Центральный административный округ","Тверской район","Красная площадь, дом 3","(495) 788-42-53","40","нет","37.6214486563444770","55.7546958032566240"
"55.8450495889583","37.5703468547877","9854d4ff-4439-4295-96a4-e519eb4844b6","214","20731662","ДЕЙЛИН","нет","null","Северный административный округ","Тимирязевский район","Дмитровское шоссе, дом 48, корпус 1","(916) 938-40-47","20","нет","37.5703468547877000","55.8450495889583000"
"55.77836","37.52545","a8232af2-4431-4155-bebf-0aea33cfea7d","215","20731663","ИОЛА","нет","null","Северный административный округ","Хорошёвский район","Хорошёвское шоссе, дом 70, корпус 1","(499) 195-23-67","20","нет","37.5254499999999990","55.7783599999999990"
"55.7952152058401","37.5389295719999","8d49ee51-10d6-4bd1-91ae-acf60ceda929","216","20731664","Голкипер","нет","null","Северный административный округ","Хорошёвский район","Ленинградский проспект, дом 39, строение 41","(495) 612-73-55","57","нет","37.5389295719999000","55.7952152058401000"
"55.697035","37.850303","cb42dd1e-6d4c-4fc6-960f-6d9bd3173516","217","20731670","ЖУЛЕБИНСКИЙ БУЛЬВАР","нет","null","Юго-Восточный административный округ","район Выхино-Жулебино","Хвалынский бульвар, дом 7/11, корпус 1","(495) 700-84-23","70","нет","37.8503030000000000","55.6970350000000000"
"55.574523330921636","37.577005949558163","c3e4eac2-ff3b-4df9-b59f-8f08d2e0240c","218","20731679","ПОДМОСКОВНЫЙ СТРОИТЕЛЬ","нет","null","Юго-Западный административный округ","район Северное Бутово","Ратная улица, дом 10А","(495) 928-92-14","15","нет","37.5770059495581630","55.5745233309216360"
"55.733275228567408","37.644331277452878","48d2fb73-4fe5-4fcf-a68e-ca9313e44751","219","20731683","бар 1 этаж","нет","null","Центральный административный округ","район Замоскворечье","Космодамианская набережная, дом 52, строение 6","(495) 787-98-00","32","нет","37.6443312774528780","55.7332752285674080"
"55.739475342320617","37.63704658183746","610699fa-6f56-4305-85d8-f3fd094b59f7","220","20731684","Лобби-бар «Аквамарин»","нет","null","Центральный административный округ","район Замоскворечье","Озерковская набережная, дом 26","(929) 445-39-75","120","нет","37.6370465818374600","55.7394753423206170"
"55.728849844935063","37.621705458267414","3284267e-fb30-4bb4-9a66-835566f89044","221","20731685","бар отеля «Шелтон»","нет","null","Центральный административный округ","район Замоскворечье","улица Коровий Вал, дом 1А, строение 3","(495) 727-44-11","16","нет","37.6217054582674140","55.7288498449350630"
"55.72920332067703","37.660677167565133","b7517c9a-2c5e-45a6-9b17-c40322fcb60b","222","20731690","Бар «Лобби»","нет","null","Центральный административный округ","Таганский район","улица Симоновский Вал, дом 2","(495) 287-14-00","56","нет","37.6606771675651330","55.7292033206770300"
"55.839745162103995","37.488615236202982","c557a74a-df35-4fd0-9dbc-33266c5ba7a9","223","20731691","Кафе «Бургер паб Куба»","нет","null","Северный административный округ","Головинский район","Головинское шоссе, дом 1","(495) 456-55-66","67","нет","37.4886152362029820","55.8397451621039950"
"55.811173488494951","37.497792173968577","bf909a06-992d-4c61-8d42-ea0bbf593e44","224","20731692","Юнона","нет","null","Северный административный округ","район Сокол","Дубосековская улица, дом 7","(499) 544-44-84","30","нет","37.4977921739685770","55.8111734884949510"
"55.8183190343721","37.6178362997818","c014a1e9-9bbd-4fa2-8217-07df04b7e131","225","20731694","Спорт-бар «Фортуна»","нет","null","Северо-Восточный административный округ","Останкинский район","Новомосковская улица, дом 24","(495) 616-68-01","48","нет","37.6178362997818000","55.8183190343721000"
"55.7631550138369","37.8330906854691","59806fa8-8e8b-434e-a56b-4211a1a2d3a2","226","20731696","Бар-бильярд","нет","null","Восточный административный округ","район Ивановское","улица Молостовых, дом 3А","(495) 300-55-22","30","нет","37.8330906854691000","55.7631550138369000"
"55.602394354256226","37.581007493942757","0696558b-700d-4d33-8202-7917539d4a72","227","20731699","Бар при сауне","нет","null","Южный административный округ","район Чертаново Южное","улица Академика Янгеля, дом 14, корпус 7","(499) 386-17-11","10","нет","37.5810074939427570","55.6023943542562260"
"55.632997559909064","37.522746455875847","088ee4c6-5cfb-4efc-9c2b-856e773f7cbd","228","20731701","ВЕКТОР -С","нет","null","Юго-Западный административный округ","район Коньково","улица Островитянова, дом 32А","(495) 429-76-69","45","нет","37.5227464558758470","55.6329975599090640"
"55.6378659681326","37.5416203962388","d830631a-039a-427e-bb20-fa8f508b2fd3","229","20731702","ПОСТ СКРИПТУМ","нет","null","Юго-Западный административный округ","район Коньково","улица Миклухо-Маклая, дом 42Б","(495) 429-08-20","48","нет","37.5416203962388000","55.6378659681326000"
"55.731038409751804","37.646222193032642","d12671f6-ce26-46b9-bceb-90bfdd2fc3dc","230","20731704","бар «Стефан» при гостинице","нет","null","Центральный административный округ","район Замоскворечье","Шлюзовая набережная, дом 6, строение 4","(495) 933-04-86","35","нет","37.6462221930326420","55.7310384097518040"
"55.803716946736962","37.406387050439243","e32a0f4f-3e0a-42e6-a9f1-395ae1b993ad","231","20731705","БАР","нет","null","Северо-Западный административный округ","район Строгино","Строгинский бульвар, дом 21","(495) 757-90-36","20","нет","37.4063870504392430","55.8037169467369620"
"55.756068361446523","37.665859359619517","98ea9162-524c-41ab-a104-516c933e49f8","232","20731709","ТАРКО","нет","null","Центральный административный округ","Басманный район","4-й Сыромятнический переулок, дом 1/8, строение 9","нет телефона","16","нет","37.6658593596195170","55.7560683614465230"
"55.7411891139692","37.6526960359639","7f5ec753-e3e8-4c37-b959-d8029062ef66","233","20731717","СТОЙКА-БАР","нет","null","Центральный административный округ","Таганский район","Таганская площадь, дом 86/1, строение 1","(495) 915-60-31","60","нет","37.6526960359639000","55.7411891139692000"
"55.730899285679477","37.679532099797008","71bae48b-1792-416f-9389-a357a9d38a25","234","20731720","КОРАЛЛ","нет","null","Центральный административный округ","Таганский район","улица Талалихина, дом 28, строение 2","(495) 676-35-93","35","нет","37.6795320997970080","55.7308992856794770"
"55.782246128193258","37.6004818792849","25852b4d-f0f1-40dc-9d93-7fd0c8e6e382","235","20731722","СПОРТИВНЫЙ КЛУБ","нет","null","Центральный административный округ","Тверской район","Сущёвская улица, дом 21","(495) 787-63-15","16","нет","37.6004818792848990","55.7822461281932580"
"55.772333772953573","37.599330195069172","bffc7f08-fc04-499f-96d0-9d747d626a18","236","20731726","БАР ПРИ ФИТНЕС-КЛУБЕ","нет","null","Центральный административный округ","Тверской район","Оружейный переулок, дом 13, строение 2","(495) 763-33-67","25","нет","37.5993301950691720","55.7723337729535730"
"55.7807245001767","37.6069382812938","1d433b37-3973-4ec7-ad1b-9a802706db37","237","20731727","БАР 2","нет","null","Центральный административный округ","Тверской район","Селезнёвская улица, дом 15, строение 2","(499) 978-75-21","12","нет","37.6069382812938000","55.7807245001767000"
"55.763889765342547","37.618499192846919","ae50500e-37a4-404d-b3a2-aadc93ac08b8","238","20731729","БАР","нет","null","Центральный административный округ","Тверской район","улица Петровские Линии, дом 2","(495) 921-42-68","30","нет","37.6184991928469190","55.7638897653425470"
"55.760380489129645","37.619634737122581","5bd2441b-ee3d-4079-8a4e-8e1be98fc9e3","239","20731730","БАР ГЛОБУС ГУРМЭ","да","Глобус Гурмэ","Центральный административный округ","Тверской район","улица Петровка, дом 2, строение 1","(495) 518-96-60","20","нет","37.6196347371225810","55.7603804891296450"
"55.760380489129645","37.619634737122581","bd783f14-4e60-47e3-b342-3f9b2a577aa2","240","20731731","БАР 2 ГЛОБУС ГУРМЭ","да","Глобус Гурмэ","Центральный административный округ","Тверской район","улица Петровка, дом 2, строение 1","(495) 518-96-60","14","нет","37.6196347371225810","55.7603804891296450"
"55.760380489129645","37.619634737122581","2299e51f-8708-4611-b459-92d3411dfee6","241","20731732","БАР 1 ГЛОБУС ГУРМЭ","да","Глобус Гурмэ","Центральный административный округ","Тверской район","улица Петровка, дом 2, строение 1","(495) 518-96-60","22","нет","37.6196347371225810","55.7603804891296450"
"55.7807356624477","37.6070867706374","a01be30e-11c9-4dac-8119-201ec6cc96ba","242","20731734","БАР 1","нет","null","Центральный административный округ","Тверской район","Селезнёвская улица, дом 15, строение 1","(499) 978-75-21","36","нет","37.6070867706374000","55.7807356624477000"
"55.761236624511547","37.606972677780405","fbbf6125-d54e-4a41-909f-f7bde022818f","243","20731735","КОМБИНАТ ПИТАНИЯ ФИН.ХОЗ.УПР.МЭРИИ МОСКВЫ","нет","null","Центральный административный округ","Тверской район","Леонтьевский переулок, дом 22","(495) 629-64-39","40","нет","37.6069726777804050","55.7612366245115470"
"55.7629758688738","37.6166175079863","00bef977-838c-41f5-9201-e497c43d0a3f","244","20731737","КОНСЬЕРЖ-БАР","нет","null","Центральный административный округ","Тверской район","улица Петровка, дом 11","(495) 937-10-00","20","нет","37.6166175079862980","55.7629758688738020"
"55.7629084948154","37.6173660862108","7e7e9575-8b56-4bf6-8bec-cd1ed03b9aa5","245","20731738","ЛОББИ-БАР","нет","null","Центральный административный округ","Тверской район","улица Петровка, дом 11","(495) 937-10-00","60","нет","37.6173660862108000","55.7629084948154000"
"55.77296676813684","37.612084451055232","929341ae-6710-4848-8c86-3ebbf4fa454a","246","20731739","СПЛИТ","нет","null","Центральный административный округ","Тверской район","Садовая-Каретная улица, дом 24/7","(499) 266-61-19","6","нет","37.6120844510552320","55.7729667681368400"
"55.7625279302635","37.614721065029805","e432292c-a768-4d1e-9625-abdad509cd36","247","20731740","ФИРМА АКВАРЕЛЬ","нет","null","Центральный административный округ","Тверской район","Столешников переулок, дом 12, строение 3","(495) 502-94-30","24","нет","37.6147210650298050","55.7625279302635020"
"55.778623","37.589428","788dc516-987a-4bb2-8d47-0de47ebd7e50","248","20731741","ЛЕ СПА","нет","null","Центральный административный округ","Тверской район","Лесная улица, дом 10-16","(499) 978-74-23","12","нет","37.5894280000000000","55.7786230000000000"
"55.772936533386115","37.602981801232907","50cbd438-8253-4c51-a760-c5386106568e","249","20731742","БАР","нет","null","Центральный административный округ","Тверской район","Долгоруковская улица, дом 5","(499) 973-34-52","32","нет","37.6029818012329070","55.7729365333861150"
"55.781091901384244","37.5998426934397","6bf4d6e2-cea4-4460-840c-408630499be4","250","20731743","ЭКСПЕРТ","нет","null","Центральный административный округ","Тверской район","Новослободская улица, дом 14/19, строение 1","(499) 973-18-86","20","нет","37.5998426934396970","55.7810919013842440"
"55.767822162244229","37.607005344576883","c7182df4-86aa-4d0f-94d8-3bf0da3cb559","251","20731744","БАР ХОЛДИНГ","нет","null","Центральный административный округ","Тверской район","улица Малая Дмитровка, дом 6, строение 1","(495) 933-71-10","7","нет","37.6070053445768830","55.7678221622442290"
"55.7720853173695","37.594780390186614","8d12c388-2a46-49a3-8637-64f532fcbaa9","252","20731746","СПОРТ-ТАЙМ 2000","нет","null","Центральный административный округ","Тверской район","2-я Тверская-Ямская улица, дом 20-22, строение 2","(495) 237-22-90","12","нет","37.5947803901866140","55.7720853173695020"
"55.7656242282601","37.6165870467559","3d88a506-f932-4dc8-addf-c3456fb051be","253","20731748","БАР","нет","null","Центральный административный округ","Тверской район","улица Петровка, дом 26, строение 2","(495) 925-45-43","50","нет","37.6165870467559000","55.7656242282601000"
"55.767822162244229","37.607005344576883","f82d8317-92c1-4f30-84e2-1cad8637b988","254","20731749","БАР 5","нет","null","Центральный административный округ","Тверской район","улица Малая Дмитровка, дом 6, строение 1","(495) 105-57-69","4","нет","37.6070053445768830","55.7678221622442290"
"55.767822162244229","37.607005344576883","fd325e30-8e98-497a-9a81-255570cd52f6","255","20731750","БАР 4","нет","null","Центральный административный округ","Тверской район","улица Малая Дмитровка, дом 6, строение 1","(499) 268-25-75","8","нет","37.6070053445768830","55.7678221622442290"
"55.770541543072","37.6203529084847","4268aa84-352f-4795-8a30-964365133432","256","20731751","БАРЫ 12345","нет","null","Центральный административный округ","Тверской район","Цветной бульвар, дом 13","(495) 628-89-41","90","нет","37.6203529084847000","55.7705415430720000"
"55.77586913838465","37.586770502744059","b772c83d-9f75-4048-a16d-a0b9c0b04dd2","257","20731752","ЛОББИ-БАР","нет","null","Центральный административный округ","Тверской район","1-я Тверская-Ямская улица, дом 34","(495) 285-30-00","30","нет","37.5867705027440590","55.7758691383846500"
"55.782246128193258","37.6004818792849","0451fe5c-88e7-409b-8376-906e73100e7e","258","20731753","ЭФИ","нет","null","Центральный административный округ","Тверской район","Сущёвская улица, дом 21","(495) 787-63-33","4","нет","37.6004818792848990","55.7822461281932580"
"55.768666469039928","37.599544491465046","b2983ac0-9e51-4dc7-9904-c4cc09ff1793","259","20731755","КОНСЬЕРЖ-БАР","нет","null","Центральный административный округ","Тверской район","Тверская улица, дом 26/1","(495) 937-00-00","30","нет","37.5995444914650460","55.7686664690399280"
"55.7682794155296","37.5994702792727","a68bf36b-e55b-4507-b184-f2a879651e7d","260","20731756","БАР","нет","null","Центральный административный округ","Тверской район","Тверская улица, дом 26/1","(495) 937-00-00","180","нет","37.5994702792727000","55.7682794155296000"
"55.7683166539932","37.5995532365571","63365f0c-310a-483f-9fae-416e3bc43e01","261","20731757","ЛОББИ-БАР","нет","null","Центральный административный округ","Тверской район","Тверская улица, дом 26/1","(495) 937-00-00","90","нет","37.5995532365571000","55.7683166539932000"
"55.7682908843061","37.5995167350053","0aa3b55d-8cf4-4d67-ac2c-3e096eb5bd93","262","20731759","ДЖУС-БАР","нет","null","Центральный административный округ","Тверской район","Тверская улица, дом 26/1","(495) 937-00-00","90","нет","37.5995167350053000","55.7682908843061000"
"55.7453295262057","37.5802684680301","4b80df53-c20c-4926-a14f-6f1d3b3f9705","263","20731760","ДАЙМОНД","нет","null","Центральный административный округ","район Хамовники","Смоленская улица, дом 5","(495) 725-01-00","52","нет","37.5802684680301000","55.7453295262057000"
"55.736748908474155","37.575815628979093","57cb6b2a-4775-4256-9bda-a6f541a4d1cf","264","20731761","КАФЕ-БАР","нет","null","Центральный административный округ","район Хамовники","улица Плющиха, дом 57","(499) 245-08-59","10","нет","37.5758156289790930","55.7367489084741550"
"55.715634329360782","37.555443652929561","6ce00f5c-5229-4b93-a3ec-5276ef302637","265","20731763","ПРЕСС-БАР","нет","null","Центральный административный округ","район Хамовники","улица Лужники, дом 24, строение 1","(499) 201-02-82","30","нет","37.5554436529295610","55.7156343293607820"
"55.7453641731216","37.5802944522578","17419291-86a6-4dfc-aea9-42b196b1b1ab","266","20731764","ВИВАЛЬДИ","нет","null","Центральный административный округ","район Хамовники","Смоленская улица, дом 5","(499) 252-56-01","50","нет","37.5802944522578000","55.7453641731216000"
"55.7333126810702","37.5648590397257","f8f23e5b-43c1-4c72-a027-b23113c23c32","267","20731765","ВЕРОДАН","нет","null","Центральный административный округ","район Хамовники","Большой Саввинский переулок, дом 12, строение 3","(499) 246-09-11","35","нет","37.5648590397257000","55.7333126810702000"
"55.7397697808677","37.5960263238974","5f11a1ea-21c8-4d81-bc20-ff827f83174b","268","20731766","БАР В ГОСТИНИЦЕ «ТИФЛИСЪ»","нет","null","Центральный административный округ","район Хамовники","улица Остоженка, дом 32, строение 1","(495) 695-10-56","20","нет","37.5960263238974000","55.7397697808677000"
"55.73091404377535","37.59318485761937","9470cce0-41f4-4ab7-b159-566789f26844","269","20731767","КАФЕ БАР-КАРАОКЕ","нет","null","Центральный административный округ","район Хамовники","Фрунзенская набережная, дом 14","(495) 505-24-20","25","нет","37.5931848576193700","55.7309140437753500"
"55.7308539806887","37.5808342920361","c0258b5c-5c2f-405d-abce-20fc4aac3bad","270","20731768","БАР В САЛОНЕ «МИЛЛЬ ФЛЕР»","нет","null","Центральный административный округ","район Хамовники","Оболенский переулок, дом 9, корпус 8","(499) 708-30-84","9","нет","37.5808342920361000","55.7308539806887000"
"55.7255041272064","37.5789406524716","e610db51-ca57-4be2-b18d-f590a0998db2","271","20731769","La SPEZIA","нет","null","Центральный административный округ","район Хамовники","Комсомольский проспект, дом 30","(499) 246-02-06","50","нет","37.5789406524716000","55.7255041272064000"
"55.7437860579185","37.5874647117225","72b0336a-1053-4aa6-85e2-75545ff15e6a","272","20731770","БАР В ФИТНЕС КЛУБЕ","нет","null","Центральный административный округ","район Хамовники","Глазовский переулок, дом 5","(499) 795-13-18","4","нет","37.5874647117225000","55.7437860579185000"
"55.7423909769561","37.6056500898431","e16b55fd-6c71-471a-843c-f3a8a58bd24a","273","20731772","БАР В ФИТНЕС КЛУБЕ","нет","null","Центральный административный округ","район Хамовники","Комсомольский проспект, дом 32","(495) 105-89-39","12","нет","37.6056500898431000","55.7423909769561000"
"55.7399992935488","37.5978502260274","ddf03270-990b-42bd-b845-f73cf45f55a2","274","20731773","БАРЫ В ФИТНЕС КЛУБЕ «ДОКТОР ЛОДЕР»","нет","null","Центральный административный округ","район Хамовники","улица Остоженка, дом 25","(495) 637-40-76","8","нет","37.5978502260274000","55.7399992935488000"
"55.755791329324758","37.614625717781195","fcab0851-831b-4544-b4b6-0c148de012e9","275","20731774","АНКЕР ИНВЕСТ","нет","null","Центральный административный округ","Тверской район","Манежная площадь, дом 1, строение 2","(495) 737-82-45","12","нет","37.6146257177811950","55.7557913293247580"
"55.88032362454372","37.547374567282212","f1d277b4-45df-462f-85fa-0f493f232f0f","276","20731776","ГУДВИЛЛ (закрыто 2014)","нет","null","Северный административный округ","район Восточное Дегунино","Дмитровское шоссе, дом 98, строение 1","(499) 901-25-14","2","нет","37.5473745672822120","55.8803236245437200"
"55.8588771343784","37.467065714461","188cc938-b22c-494e-ae5b-3a5a473eaf90","277","20731777","БАР В ГОСТИНИЦЕ ООО ИЗДАТЕЛЬСКИЙ ДОМ «КРОН-ПРЕСС»","нет","null","Северный административный округ","район Левобережный","Ленинградское шоссе, дом 61, строение 4","(495) 626-92-96","1","нет","37.4670657144610000","55.8588771343784000"
"55.767270640593985","37.523902838361792","e5560e9d-52ef-484a-97f6-84c9d027ec12","278","20731778","СП «РОЛЬФ»","нет","null","Северный административный округ","Хорошёвский район","2-й Магистральный тупик, дом 5А","(495) 940-19-44","25","нет","37.5239028383617920","55.7672706405939850"
"55.792651193794768","37.519444290469067","0c279b6d-0091-4f96-85d5-2246ef7ebf2a","279","20731779","КРИСТЕЛЬ","нет","null","Северный административный округ","Хорошёвский район","3-я Песчаная улица, дом 2, строение 2","(495) 157-63-78","24","нет","37.5194442904690670","55.7926511937947680"
"55.810412755635433","37.656140904755567","55864394-3408-4f85-90e1-98f632fa9109","280","20731781","БАР ПРИ ОЗДОРОВИТЕЛЬНОМ ЦЕНТРЕ","нет","null","Северо-Восточный административный округ","Алексеевский район","улица Павла Корчагина, дом 2","(495) 216-82-46","12","нет","37.6561409047555670","55.8104127556354330"
"55.813687615801165","37.655886534878391","8166c82d-94d7-463f-a405-3cb287e13a31","281","20731782","ФУДСЕРВИС","нет","null","Северо-Восточный административный округ","Алексеевский район","улица Павла Корчагина, дом 3, строение 2","(495) 742-64-00","18","нет","37.6558865348783910","55.8136876158011650"
"55.822531252749862","37.647072856311581","09a5b22b-66b3-44d3-858e-6d67ec5faf1a","282","20731783","БАР «ГАГАРИН»","нет","null","Северо-Восточный административный округ","Алексеевский район","проспект Мира, дом 150","(495) 234-10-00","150","нет","37.6470728563115810","55.8225312527498620"
"55.8163070117095","37.7845015798889","6e0b8f85-400a-430b-a568-8a10b918711c","283","20731787","ГУДВИЛЛ","нет","null","Восточный административный округ","район Гольяново","Иркутская улица, дом 5/6, строение 1","(495) 891-69-09","24","нет","37.7845015798889000","55.8163070117095000"
"55.806869817698235","37.801297998235754","92b816c0-c3fd-48ab-85aa-35706e0b1637","284","20731790","Бар «ЭПИЦЕНТР»","нет","null","Восточный административный округ","район Северное Измайлово","улица Константина Федина, дом 11","(495) 461-58-76","50","нет","37.8012979982357540","55.8068698176982350"
"55.7746884963593","37.7246543394157","78b8f796-36df-4378-9b3c-abcecfa1429f","285","20731791","Кальян-БАР","нет","null","Восточный административный округ","район Соколиная Гора","проспект Будённого, дом 17","(499) 369-06-78","40","нет","37.7246543394157000","55.7746884963593000"
"55.7809788714341","37.7135714517665","4a99e878-440a-4189-b9cf-a94564e5277e","286","20731792","БАР","нет","null","Восточный административный округ","район Соколиная Гора","Большая Семёновская улица, дом 42, строение 2","(495) 234-58-80","32","нет","37.7135714517665000","55.7809788714341000"
"55.707736924034705","37.625314337809016","6367323f-04bc-416b-beff-d3ffdc3992d3","287","20731797","ООО «АВАНГАРД-Т»","нет","null","Южный административный округ","Даниловский район","Гамсоновский переулок, дом 2, строение 1","(495) 264-67-01","67","нет","37.6253143378090160","55.7077369240347050"
"55.702809875690235","37.651698662624192","7d53a8a8-f049-43a6-8b92-6a0313d81b85","288","20731799","БАР В ФИЗК.-ОЗДОР.КОМПЛЕКСЕ","нет","null","Южный административный округ","Даниловский район","Автозаводская улица, дом 21","(495) 674-61-19","8","нет","37.6516986626241920","55.7028098756902350"
"55.708369808670433","37.625445834101448","78eb3bc7-b880-437e-9a03-7491fc6e1187","289","20731801","Детское кафе","нет","null","Южный административный округ","Даниловский район","Холодильный переулок, дом 3","(495) 952-27-40","125","нет","37.6254458341014480","55.7083698086704330"
"55.708858262952177","37.642077544864478","7d30c0e3-c6ad-45e3-b68f-0fcf9951a90f","290","20731802","ДАНИЛОВСКАЯ ЗАСТАВА","нет","null","Южный административный округ","Даниловский район","Даниловская набережная, дом 4А","(495) 235-20-91","25","нет","37.6420775448644780","55.7088582629521770"
"55.6560527270063","37.5412556158135","f5530649-c016-4a8f-872d-703eb1e7db1e","291","20731806","ГАММА ЛАЙТ","нет","null","Юго-Западный административный округ","район Черёмушки","Профсоюзная улица, дом 61А","(495) 727-27-43","50","нет","37.5412556158135000","55.6560527270063000"
"55.663495469035176","37.549755761178034","33f572b1-757b-4f9e-84e6-7c48314e62ed","292","20731807","НИРА","нет","null","Юго-Западный административный округ","район Черёмушки","улица Намёткина, дом 6, корпус 1","(499) 775-18-19","20","нет","37.5497557611780340","55.6634954690351760"
"55.996731","37.216067","d60409e2-5a6a-4be9-a74b-338d04a5fc6a","293","20731813","Пивной клуб «Амбар»","нет","null","Зеленоградский административный округ","район Савёлки","город Зеленоград, корпус 317А, строение 1","(499) 735-65-50","50","нет","37.2160670000000020","55.9967309999999970"
"55.773351091343","37.621922846496","fa089bd4-8f2b-4dce-bd3c-5d0547b30419","294","20731814","СПБ","да","СПБ","Центральный административный округ","Мещанский район","Садовая-Сухаревская улица, дом 2/34, строение 1","(915) 421-38-61","250","нет","37.6219228464960000","55.7733510913430000"
"55.822531252749862","37.647072856311581","0809cbb7-e626-4010-aa7f-0aaab1649682","295","20731817","Бар «ПАБ»","нет","null","Северо-Восточный административный округ","Алексеевский район","проспект Мира, дом 150","(495) 234-63-80","50","нет","37.6470728563115810","55.8225312527498620"
"55.792826024720782","37.59329778192599","8f537b1d-5aaa-478f-b84f-f46db5134835","296","20731820","ЗОЛОТАЯ ВОБЛА","да","Золотая вобла","Северо-Восточный административный округ","район Марьина Роща","улица Сущёвский Вал, дом 9, строение 1","(495) 788-41-02","120","нет","37.5932977819259900","55.7928260247207820"
"55.7453501802951","37.7765819059438","759395e6-e3ca-4b10-b837-f6214e374d4b","297","20731824","«ШПИЛЬ»","нет","null","Восточный административный округ","район Перово","Перовская улица, дом 32, строение 1","(926) 503-87-10","48","нет","37.7765819059438000","55.7453501802951000"
"55.7835822913626","37.7192468727197","181a8f13-6c2f-4f7b-88a8-be81ff0853c6","298","20731825","Burger King","да","Burger King","Восточный административный округ","район Соколиная Гора","улица Измайловский Вал, дом 2","(967) 021-32-04","49","нет","37.7192468727197000","55.7835822913626000"
"55.677671421590283","37.654334171123423","646c52fc-5c34-43b1-9609-12e82e194427","299","20731828","Пивной трактир «Охота»","нет","null","Южный административный округ","район Нагатино-Садовники","Нагатинская улица, дом 22, корпус 1","(499) 725-59-12","30","нет","37.6543341711234230","55.6776714215902830"
"55.64560898848039","37.517891926714093","356c7037-ed51-47c8-9962-77c92416515d","300","20731830","РЕВА","нет","null","Юго-Западный административный округ","район Коньково","улица Миклухо-Маклая, дом 18, корпус 1","(905) 526-54-20","45","нет","37.5178919267140930","55.6456089884803900"
"55.762592932213863","37.634429037312614","641b7121-2041-4bcf-bee4-6006b74d0ea1","301","20731832","Ирландский паб «Моллиc»","нет","null","Центральный административный округ","Красносельский район","Мясницкая улица, дом 13, строение 3","(495) 624-46-96","120","нет","37.6344290373126140","55.7625929322138630"
"55.6596600147077","37.7534719930721","fefa6c0c-4f77-47ab-a26d-50434d35aa34","302","20731835","Бар «Кружка»","нет","null","Юго-Восточный административный округ","район Марьино","Братиславская улица, дом 12","(499) 722-28-50","65","нет","37.7534719930721000","55.6596600147077000"
"55.6512592263001","37.7446135610709","de84946a-1910-4e3d-ab0c-bd2289a5afc5","303","20731836","Бар «Кружка»","нет","null","Юго-Восточный административный округ","район Марьино","Люблинская улица, дом 163/1","(495) 261-47-41","65","нет","37.7446135610709000","55.6512592263001000"
"55.659635731416","37.7478370273964","c5a519f2-2d93-4e82-a9fa-fd5a404fffd5","304","20731837","Кафе-бар «Девятка»","нет","null","Юго-Восточный административный округ","район Марьино","улица Перерва, дом 43","(495) 787-26-42","24","нет","37.7478370273964000","55.6596357314160000"
"55.753230053495031","37.5994781076705","04a17165-f89b-46cd-b5da-a5411c596c1c","305","20731840","СПБ сеть пивных баров","да","СПБ","Центральный административный округ","район Арбат","улица Новый Арбат, дом 2","(967) 059-13-02","320","нет","37.5994781076705000","55.7532300534950310"
"55.8486755798058","37.5191864000344","ebc7a95f-2219-4a48-9f98-e3bc2e371b5b","306","20731841","пивной бар","нет","null","Северный административный округ","Головинский район","3-й Лихачёвский переулок, дом 9, корпус 1","(926) 394-92-49","28","нет","37.5191864000344000","55.8486755798058000"
"55.7816998615553","37.7090116964409","2ec423e9-db8e-432b-bc62-4f901feb8ac4","307","20731843","Бар «Пивной град»","нет","null","Восточный административный округ","район Соколиная Гора","Большая Семёновская улица, дом 32, строение 3","(965) 324-75-10","200","нет","37.7090116964409000","55.7816998615553000"
"55.7693501446096","37.6162143439575","d3f2af3a-fc9e-4800-9b0e-69e31d2f4861","308","20731846","ПИВНОЙ БАР ЭЛЕФАНТ","нет","null","Центральный административный округ","Тверской район","2-й Колобовский переулок, дом 12","(495) 694-54-92","55","нет","37.6162143439575000","55.7693501446096000"
"55.7097020170102","37.627684421677607","08caf829-eab1-4a8a-9657-4e3fd2f0dd35","309","20731847","ГОСТИНИЦА «ДАНИЛОВСКАЯ» БАР","нет","null","Южный административный округ","Даниловский район","Большой Староданиловский переулок, дом 5","(495) 954-06-81","20","нет","37.6276844216776070","55.7097020170102010"
"55.496991701892668","37.533212101526331","ada6118d-b1c6-4f07-b7ba-286e60b981cf","310","20731848","МЭРИ","нет","null","Южный административный округ","Даниловский район","Восточная улица, дом 9","(495) 675-14-68","15","нет","37.5332121015263310","55.4969917018926680"
"55.796236029247588","37.618594540095529","e2a6cf2f-824b-4ffa-a573-7b0d59ba1ecc","311","20732093","ЭДАРТ","нет","null","Северо-Восточный административный округ","район Марьина Роща","Шереметьевская улица, дом 6, корпус 1","(495) 689-79-85","92","нет","37.6185945400955290","55.7962360292475880"
"55.8075411089047","37.5704219566406","90a34ccf-80ee-49f8-9f2a-8a987081becf","312","20732312","ПРОФИНВЕСТ","нет","null","Северный административный округ","Тимирязевский район","Тимирязевская улица, дом 1","(495) 786-87-60","4","нет","37.5704219566406000","55.8075411089047000"
"55.841890502834694","37.579572089479413","94e575d0-2b94-49e2-ab0d-ba6f9ba65538","313","20732466","ЭТАЛОН-ЦЕНТР","нет","null","Северо-Восточный административный округ","район Марфино","Гостиничная улица, дом 1","(495) 482-10-22","30","нет","37.5795720894794130","55.8418905028346940"
"55.843665951514538","37.582437592124428","89d0d155-953c-4d58-b3ca-496638dcc0ab","314","20732532","ЭТАЛОН-ЦЕНТР","нет","null","Северо-Восточный административный округ","район Марфино","Гостиничная улица, дом 4А","(495) 788-72-52","25","нет","37.5824375921244280","55.8436659515145380"
"55.8210740306885","37.6046887133495","ed211ded-5cee-4579-9734-9666f195e36e","315","20732538","БАР «НА 1-М ЭТАЖЕ ФГУП ТТЦ «ОСТАНКИНО»»","нет","null","Северо-Восточный административный округ","Останкинский район","улица Академика Королёва, дом 19","(495) 617-50-33","15","нет","37.6046887133495000","55.8210740306885000"
"55.7879619593136","37.680419348341","e5305da0-0fbc-4751-afa9-417d89afdf36","316","20732549","УК ОТЕЛЬ МЕНЕДЖМЕНТ","нет","null","Восточный административный округ","район Сокольники","Русаковская улица, дом 24","(495) 786-73-73","80","нет","37.6804193483410000","55.7879619593136000"
"55.7609939913909","37.6323327051249","a066f014-b758-4330-825b-d0db64fc148d","317","20732936","Бар Аперетиво","нет","null","Центральный административный округ","Басманный район","Мясницкая улица, дом 16","нет телефона","30","нет","37.6323327051249000","55.7609939913909000"
"55.6438181574687","37.5804373251029","213a4b11-8d4f-4824-a4fa-819ac7a05ac8","318","20732959","Бар «БИЛЬЯРД- КСК БИТЦА»","нет","null","Южный административный округ","район Чертаново Северное","Балаклавский проспект, дом 33","(495) 318-19-55","24","нет","37.5804373251029000","55.6438181574687000"
"55.886660139000014","37.659445372999983","36273931-8443-4521-906d-8bd221e67579","319","20733100","БАР","нет","null","Северо-Восточный административный округ","район Северное Медведково","Широкая улица, дом 12","(499) 479-58-56","80","нет","37.6594453729999830","55.8866601390000140"
"55.409848351644435","37.009574685047177","fa095de9-926c-4d51-8499-c5491c329985","320","20733101","БАР","нет","null","Северо-Восточный административный округ","район Северное Медведково","Широкая улица, дом 12","(499) 479-58-56","12","нет","37.0095746850471770","55.4098483516444350"
"55.629576672083","37.6167669030004","cae5d646-dd81-4d6d-bba1-f625dc9962b8","321","20733115","ВОРД КЛАСС","нет","null","Южный административный округ","район Чертаново Северное","Варшавское шоссе, дом 122А","(495) 232-50-50","28","нет","37.6167669030004000","55.6295766720830000"
"55.787917685232","37.5795038913879","1a0c2049-d6cc-4c2c-87a3-8c220c889f4d","322","20733128","ФИТНЕС БАР ХОЛДИНГ","нет","null","Северный административный округ","район Беговой","улица Правды, дом 21, строение 2","(495) 933-71-10","15","нет","37.5795038913879000","55.7879176852320000"
"55.742125241593","37.6553460584703","6c085082-f5f1-4369-ab22-b2ffb90c3827","323","20733181","Бар «Варка»","нет","null","Центральный административный округ","Таганский район","улица Александра Солженицына, дом 1/5","(495) 979-51-17","40","нет","37.6553460584703000","55.7421252415930000"
"55.7908634186551","37.6801189409318","d9c444e8-6364-4aa6-b6b7-76a78b74169a","324","20733231","Экка","нет","null","Восточный административный округ","район Сокольники","Сокольническая площадь, дом 9","(925) 010-11-96","6","нет","37.6801189409318000","55.7908634186551000"
"55.6339971158863","37.6134469122716","2a8d2334-2701-4341-9e22-279730183796","325","20733314","Буллс бар","нет","null","Южный административный округ","район Чертаново Северное","Сумской проезд, дом 2Б","(495) 316-78-98","32","нет","37.6134469122716000","55.6339971158863000"
"55.8158550881212","37.3939822114572","d8c4edb2-0e57-46fa-b635-d7a38be58134","326","20733332","Зодиак","нет","null","Северо-Западный административный округ","район Строгино","Неманский проезд, дом 1","(926) 576-99-91","48","нет","37.3939822114572000","55.8158550881212000"
"55.7624970618866","37.657577656371","c84a52dd-5d45-4e0d-a18d-fa136eda36cc","327","20733433","Сижу курю","нет","null","Центральный административный округ","Басманный район","улица Земляной Вал, дом 7","(495) 916-24-44","40","нет","37.6575776563710000","55.7624970618866000"
"55.729078788879271","37.630874712979349","53270820-7e7c-471a-ab7e-c030781ab76f","328","20733447","Дорогая я перезвоню","да","Дорогая я перезвоню","Центральный административный округ","район Замоскворечье","Большой Строченовский переулок, дом 7","(495) 710-88-05","90","нет","37.6308747129793490","55.7290787888792710"
"55.772641381000014","37.661018607000017","f5a96dca-0a9d-4db3-bca6-06020ebb5c0a","329","20733463","Токат","нет","null","Центральный административный округ","Красносельский район","Новорязанская улица, дом 21, строение 1","(495) 784-64-75","60","нет","37.6610186070000170","55.7726413810000140"
"55.77462542334635","37.642295986792895","5facb3a8-9533-4534-8f4c-bcabbef9216b","330","20733474","НА БРУДЕРШАФТ","нет","null","Центральный административный округ","Красносельский район","Докучаев переулок, дом 3, строение 1","(495) 975-55-58","50","нет","37.6422959867928950","55.7746254233463500"
"55.769378782079279","37.635591831555566","17fe2d2f-82dd-448b-833a-71229c37fce3","331","20733476","БОББИ ДАЗЛЕР","нет","null","Центральный административный округ","Красносельский район","Костянский переулок, дом 13","(495) 608-03-83","50","нет","37.6355918315555660","55.7693787820792790"
"55.770247464606364","37.6558953234074","4acc60b9-8663-403d-a68c-524a8362db1f","332","20733484","Кони А.Ф.","нет","null","Центральный административный округ","Красносельский район","Новая Басманная улица, дом 9, строение 1","(499) 265-78-08","30","нет","37.6558953234074000","55.7702474646063640"
"55.7833135751876","37.626446399837342","0b3a5a52-9551-4ff2-9400-59eeccf4fa94","333","20733510","Бар «Буфет (при бассейне)»","нет","null","Центральный административный округ","Мещанский район","Олимпийский проспект, дом 16, строение 2","(495) 688-60-66","4","нет","37.6264463998373420","55.7833135751875990"
"55.7598655307914","37.6214359014642","e95faad7-b3d0-4f2d-8539-54e12ca03ad2","334","20733540","Бар «Консерватория» при гостинице «Арарат Парк отель Хайят»)","нет","null","Центральный административный округ","Мещанский район","Неглинная улица, дом 4","(495) 783-12-34","50","нет","37.6214359014642000","55.7598655307914000"
"55.7598047758738","37.6214643941947","a512f9ba-beda-46f6-8657-e61e3dedc27c","335","20733541","Бар «Неглинка» (при гостинице «Арарат Парк Хаятт»)","нет","null","Центральный административный округ","Мещанский район","Неглинная улица, дом 4","(495) 783-12-34","33","нет","37.6214643941947000","55.7598047758738000"
"55.886660139000014","37.659445372999983","0ba4d804-580a-41f3-888d-29c30e9cb19e","336","20733961","БАР","нет","null","Северо-Восточный административный округ","район Северное Медведково","Широкая улица, дом 12","(499) 479-58-56","80","нет","37.6594453729999830","55.8866601390000140"
"55.863855966322078","37.701685604640787","f94c7c24-ad03-4b85-a01e-8b84fc539c65","337","20733979","КАФЕ-БАР ПРИ Г-ЦЕ СЛАВИЯ","нет","null","Северо-Восточный административный округ","Ярославский район","Ярославское шоссе, дом 44","(499) 182-28-47","85","нет","37.7016856046407870","55.8638559663220780"
"55.7518173720149","37.8199907766411","859947c4-af79-4234-b7e5-a314a81ebdd8","338","20734011","КИРГИЗИЯ","нет","null","Восточный административный округ","район Новогиреево","Зелёный проспект, дом 81","(495) 301-42-46","180","нет","37.8199907766411000","55.7518173720149000"
"55.7854403492807","37.7193972097469","2faf766c-25b4-4657-84ee-14499d5e94a0","339","20734048","КАФЕ-БАР «Тарзан»","нет","null","Восточный административный округ","район Соколиная Гора","Ткацкая улица, дом 1","(495) 962-94-30","30","нет","37.7193972097469000","55.7854403492807000"
"55.7815912613861","37.7145263181762","bb42c53a-ef2a-40f0-aa4d-0aad68058b83","340","20734074","КАФЕ-БАР «РОДНИК»","нет","null","Восточный административный округ","район Соколиная Гора","Большая Семёновская улица, дом 49, корпус 1","(495) 365-07-77","20","нет","37.7145263181762000","55.7815912613861000"
"55.7836546128398","37.7214260113195","6c75a7aa-8ea7-4207-9ccc-79976f8f561a","341","20734078","Кафе «Кружка»","да","Кружка","Восточный административный округ","район Соколиная Гора","Семёновская площадь, дом 7, корпус 17","(495) 937-81-95","98","нет","37.7214260113195000","55.7836546128398000"
"55.710803236276369","37.770624926541025","965e5164-2592-44e6-9960-7e872c3d54ca","342","20734124","Бар «Фараон»","нет","null","Юго-Восточный административный округ","район Кузьминки","Зеленодольская улица, дом 30, корпус 3","(499) 722-63-51","34","нет","37.7706249265410250","55.7108032362763690"
"55.717776408939208","37.786688699344921","c25cd7d3-3cee-41d1-8dd2-0ae3bbf54169","343","20734262","ТРИ КАБАНА","нет","null","Юго-Восточный административный округ","Рязанский район","Рязанский проспект, дом 34, корпус 2","(495) 174-98-78","60","нет","37.7866886993449210","55.7177764089392080"
"55.595736960626034","37.60264015407715","bdfd4311-e59b-4ca2-ab6d-c517f1737bcf","344","20734505","МиГ-ХХI","нет","null","Южный административный округ","район Чертаново Южное","Варшавское шоссе, владение 135А","(495) 388-75-53","20","нет","37.6026401540771500","55.5957369606260340"
"55.6561253602385","37.5978180395194","45379972-49fa-457c-93e1-d0793f307187","345","20734547","НИАГАРА","нет","null","Юго-Западный административный округ","район Зюзино","Азовская улица, дом 18","(499) 933-64-30","88","нет","37.5978180395194000","55.6561253602385000"
"55.659847234571252","37.515747691458742","53229b5d-2c8e-4f65-88bd-4d65460a5c9d","346","20734587","СТОЙ-КА - БАР","нет","null","Юго-Западный административный округ","Обручевский район","улица Обручева, дом 11","(495) 935-03-00","56","нет","37.5157476914587420","55.6598472345712520"
"55.984565","37.160116","cef8b075-09ee-43a5-9162-44ecb84e5f2e","347","20734678","Бар «ДЖАНГО»","нет","null","Зеленоградский административный округ","район Крюково","город Зеленоград, корпус 1456","(909) 152-99-66","50","нет","37.1601160000000020","55.9845650000000030"
"55.7587000397128","37.6325794683543","3e666ac4-5462-4a56-a060-f14cbb29df90","348","20734690","БУРБОН","нет","null","Центральный административный округ","Басманный район","Большой Златоустинский переулок, дом 7, строение 1","(495) 246-53-54","40","нет","37.6325794683543000","55.7587000397128000"
"55.750248752307492","37.593340950738259","b5c4ac88-e1e0-4e46-9efe-c79f1d6e22ad","349","20734769","ДУЛИН ПАБ","нет","null","Центральный административный округ","район Арбат","улица Арбат, дом 20","(495) 202-92-06","50","нет","37.5933409507382590","55.7502487523074920"
"55.750287001754472","37.664708836152911","9efceee3-8ff5-4def-af87-9b6cae37cf85","350","20734882","Vaport","нет","null","Центральный административный округ","Таганский район","Краснохолмская набережная, дом 1, строение 3","(929) 526-09-12","50","нет","37.6647088361529110","55.7502870017544720"
"55.8789824065798","37.5236480815682","15b5771d-93ae-4bb7-800c-bda396f9c9ba","351","20734943","ХОЛЬГАРТ ФС БАР-БИЛЬЯРДНАЯ","нет","null","Северный административный округ","Дмитровский район","Ангарская улица, дом 37/18","(495) 486-71-09","25","нет","37.5236480815682000","55.8789824065798000"
"55.7970564179406","37.7161330785771","74610d59-f816-4672-985b-dd65562710a4","352","20734995","Бар","нет","null","Восточный административный округ","район Преображенское","Большая Черкизовская улица, дом 3, корпус 1","(495) 964-39-46","48","нет","37.7161330785771000","55.7970564179406000"
"55.6543094889929","37.7584287153313","74d55439-c986-4366-a403-60232263bb07","353","20735044","Бар «Пивная партия»","нет","null","Юго-Восточный административный округ","район Марьино","Новомарьинская улица, дом 14/15","(495) 347-78-00","55","нет","37.7584287153313000","55.6543094889929000"
"55.763496603035655","37.635396880978256","b1230c55-2ed0-43c0-b52d-3e34e6bcf2a7","354","20735182","Дрим Бар","нет","null","Центральный административный округ","Красносельский район","Мясницкая улица, дом 17, строение 1","(495) 621-77-68","80","нет","37.6353968809782560","55.7634966030356550"
"55.8455495380339","37.6664074884468","fe75b3f3-6fd5-4118-a994-38c9707e4186","355","20735237","ПИВНАЯ STREET СУШИ ROOM","нет","null","Северо-Восточный административный округ","район Свиблово","проспект Мира, дом 211, корпус 2","(495) 665-14-44","48","нет","37.6664074884468000","55.8455495380339000"
"55.7825867516062","37.7054711805412","82624ca8-c96a-4448-99c4-bf202f7eb231","356","20735244","БУФЕТ","нет","null","Восточный административный округ","район Соколиная Гора","Большая Семёновская улица, владение 15А, строение 1","(926) 527-45-50","85","нет","37.7054711805412000","55.7825867516062000"
"55.7743629993173","37.5881512518203","8227743a-6e9d-4ce0-b0b3-49363ec46947","357","20735449","Пиано","нет","null","Центральный административный округ","Тверской район","1-я Тверская-Ямская улица, дом 19","(495) 938-28-34","80","нет","37.5881512518203000","55.7743629993173000"
"55.88344720040832","37.567301976421248","da978350-ce1f-43d5-8379-71ff0c9d06af","358","20735486","Терем","нет","null","Северный административный округ","район Восточное Дегунино","Керамический проезд, дом 8А","(499) 481-14-62","30","нет","37.5673019764212480","55.8834472004083200"
"55.734626285261825","37.831942051202638","c592470f-5264-489d-b3f6-ad5c90fe70cd","359","20735530","КАФЕ «ПИТ СТОП»","нет","null","Восточный административный округ","район Вешняки","Вешняковская улица, дом 17Б","(495) 370-06-01","36","нет","37.8319420512026380","55.7346262852618250"
"55.7834744700219","37.7212109903558","5ba40c71-03af-48ef-8b55-dd57d30e64d5","360","20735690","BIRGER bar & restaurant","нет","null","Восточный административный округ","район Соколиная Гора","Семёновская площадь, дом 7","(495) 780-72-47","100","нет","37.7212109903558000","55.7834744700219000"
"55.8623834178871","37.697257733688922","4bdb0e4d-db36-4696-ab2d-a11152c462d3","361","20735758","БАР ПРИ ТЦ БОРИСХОФ","нет","null","Северо-Восточный административный округ","Ярославский район","Ярославское шоссе, дом 36","(495) 745-11-11","20","нет","37.6972577336889220","55.8623834178871020"
"55.6535589042769","37.7665826307372","f594468b-a140-43c6-9e67-c2558c129414","362","20735912","Ночной клуб «Жажда»","нет","null","Юго-Восточный административный округ","район Марьино","Братиславская улица, дом 29, корпус 1","(495) 345-06-35","150","нет","37.7665826307372000","55.6535589042769000"
"55.6535753331849","37.766617884569","9c5fe5cc-65a0-4937-9950-243fb14aa997","363","20735922","Кафе «Территория»","да","Территория","Юго-Восточный административный округ","район Марьино","Братиславская улица, дом 29, корпус 1","(495) 345-30-61","100","нет","37.7666178845690000","55.6535753331849000"
"55.7262865626094","37.6811810956993","d5599e98-35dd-45a5-9923-8c43b7507a5d","364","20735926","Версаль","нет","null","Юго-Восточный административный округ","Южнопортовый район","Волгоградский проспект, дом 26, строение 1","(495) 544-46-38","120","нет","37.6811810956993000","55.7262865626094000"
"55.75720244412112","37.626348246033004","a34e1305-9dad-47d5-b79c-e361b8b14f8c","365","20735946","Th Old Shool Pab","нет","null","Центральный административный округ","Тверской район","Большой Черкасский переулок, дом 15-17, строение 1","(495) 625-65-94","90","нет","37.6263482460330040","55.7572024441211200"
"55.7509318353905","37.5658707524941","88be168c-e566-4bfa-ac94-6c168d9801ab","366","20735954","БИФ - БАР ДЖУНИОР","нет","null","Западный административный округ","район Дорогомилово","Кутузовский проспект, дом 2/1, корпус 1А","(495) 229-55-55","75","нет","37.5658707524941000","55.7509318353905000"
"55.751319957918007","37.584382620722387","8e0017a7-6456-43c6-b918-6febaec301c7","367","20735961","КАЛИНА-БАР","нет","null","Центральный административный округ","район Арбат","Новинский бульвар, дом 8","(495) 229-55-16","150","нет","37.5843826207223870","55.7513199579180070"
"55.7928691563389","37.4954516902978","f2bb320b-ff04-4bba-b264-67aca1094619","368","20735979","ПИВНОЙ БАР ПОСТОЯЛЫЙ ДВОР","нет","null","Северо-Западный административный округ","район Щукино","улица Маршала Бирюзова, дом 10, корпус 1","(499) 198-19-94","45","нет","37.4954516902978000","55.7928691563389000"
"55.773470422704591","37.643962822519974","c2810985-d777-453e-90d1-9819bfe6bd6c","369","20736007","Бюргер","нет","null","Центральный административный округ","Красносельский район","Докучаев переулок, дом 6, строение 2","(495) 608-16-77","60","нет","37.6439628225199740","55.7734704227045910"
"55.664188215160905","37.545488626341509","4c466b32-a1b6-4e81-ae7b-2d9d23e2af6e","370","20736257","Бизон","да","Бизон","Юго-Западный административный округ","Обручевский район","Профсоюзная улица, дом 66, строение 2","(495) 410-55-65","90","нет","37.5454886263415090","55.6641882151609050"
"55.7326968384083","37.5616601726554","fd50d440-cdbf-47f5-b705-b79fd47e4bdc","371","20736406","СОХО-РУМС","нет","null","Центральный административный округ","район Хамовники","Большой Саввинский переулок, дом 12, строение 8","(499) 246-04-58","100","нет","37.5616601726554000","55.7326968384083000"
"55.7317840032865","37.593859129267","a6347541-3b53-4ebe-86e0-5f94bf251478","372","20736408","Клуб Фитиль","нет","null","Центральный административный округ","район Хамовники","Фрунзенская набережная, дом 12","(495) 287-02-11","52","нет","37.5938591292670000","55.7317840032865000"
"55.748271222734353","37.583487406786993","c57682a7-0ee4-496d-9cfb-023da267ac00","373","20736548","ДЖОН БУЛЛ ПАБ","нет","null","Центральный административный округ","район Арбат","Карманицкий переулок, дом 9","(495) 241-06-44","80","нет","37.5834874067869930","55.7482712227343530"
"55.747369762863258","37.588484818637255","c6105a1c-0bda-4926-8ee8-869e0d615cc1","374","20736551","ПЛОТНИКОВ ПАБ","нет","null","Центральный административный округ","район Арбат","Плотников переулок, дом 20/21","(495) 241-62-02","90","нет","37.5884848186372550","55.7473697628632580"
"55.746777393898967","37.599012868371034","7bb3cc0e-6a14-4604-a151-888fd12e1840","375","20736626","Винный кофейный бар 45","нет","null","Центральный административный округ","район Хамовники","Гоголевский бульвар, дом 17, строение 1","(495) 697-79-89","20","нет","37.5990128683710340","55.7467773938989670"
"55.7417244738958","37.6165354090692","2605a544-9145-408b-816e-696250c1f72b","376","20736632","САЛЛИ О БРАЙЕНС","нет","null","Центральный административный округ","район Якиманка","улица Большая Полянка, дом 1/3","(495) 959-01-82","46","нет","37.6165354090692000","55.7417244738958000"
"55.751826873638031","37.596499349076268","91ba7ae1-d34e-429f-854b-5551aab31615","377","20736679","ПИВНОЙ ЗАЛ ЖИГУЛИ","нет","null","Центральный административный округ","район Арбат","улица Новый Арбат, дом 11, строение 2","(495) 691-41-44","100","нет","37.5964993490762680","55.7518268736380310"
"55.7944963638262","37.70583361605","7fcb0440-3156-40d1-9577-2455c03558ab","378","20736684","Lock Stock","нет","null","Восточный административный округ","район Преображенское","Преображенская улица, дом 2","(495) 964-33-01","70","нет","37.7058336160500000","55.7944963638262000"
"55.75194504895255","37.588546006697669","dc67eba8-6488-429a-a78a-dfc45fc4b914","379","20736718","Честерфилд","нет","null","Центральный административный округ","район Арбат","улица Новый Арбат, дом 19","(495) 697-47-07","150","нет","37.5885460066976690","55.7519450489525500"
"55.770130284219661","37.596774557163712","f7e4fead-bd6f-4b3d-a72b-32e6c7952e05","380","20736861","PIVBAR","нет","null","Центральный административный округ","Тверской район","1-я Тверская-Ямская улица, дом 2, строение 1","(495) 343-08-56","48","нет","37.5967745571637120","55.7701302842196610"
"55.7831478348864","37.7359410749507","8e67d1f5-6112-45d8-8831-6ed9027927c4","381","20736919","Территория","да","Территория","Восточный административный округ","район Соколиная Гора","Щербаковская улица, дом 53, корпус 1","(919) 965-95-60","15","нет","37.7359410749507000","55.7831478348864000"
"55.749523671027887","37.645089633540408","5d4b0401-ef7f-4d82-933c-d0ad272d479e","382","20737755","Клуб ДИЧ","нет","null","Центральный административный округ","Таганский район","Яузская улица, дом 5","(916) 366-45-47","5","нет","37.6450896335404080","55.7495236710278870"
"55.7314890567767","37.616019998561647","d65190b5-8bdf-4a82-8a30-204d9c245d42","383","20737769","фито-бар «Х&Cj green lain» (закрытое)","нет","null","Центральный административный округ","район Якиманка","Житная улица, дом 14, строение 2","(495) 755-95-91","37","нет","37.6160199985616470","55.7314890567767020"
"55.721520488115658","37.613192690089846","3f9f9ace-ac98-45b5-9d47-1dd667724519","384","20737771","ФИТО-БАР (закрытое)","нет","null","Центральный административный округ","район Якиманка","Конный переулок, дом 4","(495) 502-91-91","10","нет","37.6131926900898460","55.7215204881156580"
"55.739090802721421","37.622404284507546","253b54ac-1eca-4dc9-bd8c-8f7c7ffe51f5","385","20737773","Бар (закрытое)","нет","null","Центральный административный округ","район Якиманка","Пыжевский переулок, дом 5, строение 1","(499) 239-99-63","30","нет","37.6224042845075460","55.7390908027214210"
"55.707693423579833","37.654347160458741","1a48d234-8ff2-4137-8c00-0e47ea9db1b6","386","20738723","ДИСКО ЗОНА","нет","null","Южный административный округ","Даниловский район","улица Ленинская Слобода, дом 19, строение 4","(495) 508-16-53","60","нет","37.6543471604587410","55.7076934235798330"
"55.810412755635433","37.656140904755567","77c91803-3973-4e97-9cfd-25b1b3242a11","387","20738724","КАФЕ-БАР МОНАКЛАБ","нет","null","Северо-Восточный административный округ","Алексеевский район","улица Павла Корчагина, дом 2","(903) 544-74-81","20","нет","37.6561409047555670","55.8104127556354330"
"55.7417105029232","37.630997752385383","5bf69777-ed70-4dd6-9993-443d170e79b8","388","20738725","Бага Бар","нет","null","Центральный административный округ","район Замоскворечье","Пятницкая улица, дом 25, строение 1","(495) 532-53-20","80","нет","37.6309977523853830","55.7417105029231980"
"55.744755424216912","37.6303965948921","3761c9c1-2df7-489f-bd58-4885c92bad5a","389","20738726","Боттел Бар","нет","null","Центральный административный округ","район Замоскворечье","Средний Овчинниковский переулок, дом 8, строение 1","(495) 544-58-92","80","нет","37.6303965948920980","55.7447554242169120"
"55.743345943150437","37.656137311960691","8f628338-d416-4c94-b482-ca981efa24ed","390","20738727","Кафе при Фитнес клубе","нет","null","Центральный административный округ","Таганский район","улица Земляной Вал, дом 77","(495) 911-11-22","15","нет","37.6561373119606910","55.7433459431504370"
"55.733690068897","37.5879249395828","9c9a1954-3cef-4e19-87a2-034b530226ed","391","20738728","ФФ-Бар","нет","null","Центральный административный округ","район Хамовники","улица Льва Толстого, дом 16","(926) 857-21-71","130","нет","37.5879249395828000","55.7336900688970000"
"55.768891433272884","37.6338345126714","d8167ff2-7c8d-4b61-8162-22b93f7f78da","392","20738729","Шандра","нет","null","Центральный административный округ","Красносельский район","Просвирин переулок, дом 7","(495) 608-09-82","55","нет","37.6338345126713990","55.7688914332728840"
"55.748313220883","37.7762600398624","8742ca5b-0e1c-4e1f-bedc-98abb8ecb614","393","20738731","«СОВА»","нет","null","Восточный административный округ","район Перово","Зелёный проспект, дом 8Б","(495) 368-46-60","80","нет","37.7762600398624000","55.7483132208830000"
"55.704593891804016","37.571598516901986","fb5ac60e-fc2a-452f-8606-1345f7838785","394","20738751","СПУТНИК","нет","null","Юго-Западный административный округ","Гагаринский район","Ленинский проспект, дом 38","(495) 930-32-76","32","нет","37.5715985169019860","55.7045938918040160"
"55.709407573651731","37.595581472896271","386cc4b0-4388-4e81-8011-c663102b0adb","395","20738752","Главклуб","нет","null","Южный административный округ","Донской район","улица Орджоникидзе, дом 11, строение 1","(495) 230-10-30","95","нет","37.5955814728962710","55.7094075736517310"
"55.7520624200726","37.5923677908004","41dcb62b-aaaf-4fc9-a113-897d083edb48","396","20738754","Букмекер Паб","нет","null","Центральный административный округ","район Арбат","улица Новый Арбат, дом 15","(985) 227-08-07","65","нет","37.5923677908004000","55.7520624200726000"
"55.7418232673937","37.6096734033645","ae163e0f-9e07-424b-b2cf-fbb8c70674ab","397","20738755","JOYS BAR","нет","null","Центральный административный округ","район Якиманка","Берсеневский переулок, дом 3/10, строение 8","(495) 775-35-36","95","нет","37.6096734033645000","55.7418232673937000"
"55.7400355322706","37.609136961562","02ac97ad-c9a8-430e-aad2-1491555ae16f","398","20738756","Белка","нет","null","Центральный административный округ","район Якиманка","Болотная набережная, дом 3, строение 2","(495) 721-52-99","70","нет","37.6091369615620000","55.7400355322706000"
"55.8040620286272","37.7601882444447","e19b9fde-49c3-47f4-86a0-e7de7f4af901","399","20738757","Бар «АУРА»","нет","null","Восточный административный округ","район Северное Измайлово","Щёлковское шоссе, дом 6","(499) 165-10-80","35","нет","37.7601882444447000","55.8040620286272000"
"55.802184","37.582861","ca57e009-1abe-4d61-863a-eee048130a8f","400","20974899","4 комнаты","нет","null","Северный административный округ","Савёловский район","Бутырская улица, дом 67, строение 1","(495) 532-67-61","40","нет","37.5828610000000000","55.8021840000000000"
"55.767351","37.677621","1ef055c3-4177-4bdd-ac00-2b15d0ab5d15","401","20974914","Хилл Фиш","нет","null","Центральный административный округ","Басманный район","Денисовский переулок, дом 30, строение 1","(495) 624-45-67","80","нет","37.6776210000000000","55.7673510000000000"
"55.77691911886852","37.585354996836948","9f1ad5a3-3692-41c4-9fee-84ea0e3a7177","402","58839181","БАР «БЕЛОЧКА»","нет","null","Центральный административный округ","Тверской район","Лесная улица, дом 1/2","(499) 251-77-00","48","нет","37.5853549968369480","55.7769191188685200"
"55.761695","37.662731","d6383cd1-88ef-4bf7-a969-0c9490396ed8","403","58839188","Завод","нет","null","Центральный административный округ","Басманный район","Нижний Сусальный переулок, дом 4, строение 3","(499) 265-55-52","40","нет","37.6627310000000000","55.7616950000000000"
"55.862155413596945","37.612967560035585","3e801f27-a91b-4269-817a-5896684ada0f","404","58839246","ПАБ-БАР 999","нет","null","Северо-Восточный административный округ","район Отрадное","улица Пестеля, дом 1А","(916) 342-35-61","50","нет","37.6129675600355850","55.8621554135969450"
"55.79481665417677","37.711173070431144","ca13774e-4bb8-4db6-83e4-17871bfcecce","405","58839277","Старая школа","нет","null","Восточный административный округ","район Преображенское","Преображенская площадь, дом 6","нет телефона","65","нет","37.7111730704311440","55.7948166541767700"
"55.741565188188936","37.651371386647938","1d8b982b-7451-42f5-8f11-73a378b35b82","406","58839282","Бар «Холостяк»","нет","null","Центральный административный округ","Таганский район","1-й Гончарный переулок, дом 4, строение 3","(499) 991-15-05","30","нет","37.6513713866479380","55.7415651881889360"
"55.733208126213889","37.562808771876412","6969ed70-1ba8-4ef3-9fa8-64d3a6bb463d","407","58839457","Hunters","нет","null","Центральный административный округ","район Хамовники","Большой Саввинский переулок, дом 12, строение 7","(926) 535-50-56","116","нет","37.5628087718764120","55.7332081262138890"
"55.74256978890984","37.609255760739245","c93c1291-7a97-4bd4-9402-a49404ee1518","408","58839477","Стрелка","нет","null","Центральный административный округ","район Якиманка","Берсеневская набережная, дом 14, строение 5","(499) 771-74-17","80","нет","37.6092557607392450","55.7425697889098400"
"55.758606975031654","37.750257869856789","3d2c42f0-981d-40d5-9278-d077ceee18d8","409","58839598","ГРИЛЬ ХАУС дисконт бар","нет","null","Восточный административный округ","район Соколиная Гора","шоссе Энтузиастов, дом 31","(964) 644-49-21","70","нет","37.7502578698567890","55.7586069750316540"
"55.732993940365553","37.637379772106826","cf31cd30-1842-4160-a508-933e56934eb1","410","58839640","Попкорн Бар","нет","null","Центральный административный округ","район Замоскворечье","улица Бахрушина, дом 25","(495) 916-92-20","12","нет","37.6373797721068260","55.7329939403655530"
"55.782307703170048","37.599387237597043","9362e9ab-c5af-43ee-a1fd-fcd7ddb8f739","411","58839783","СПОРТ-БАР «ЛАРЕС»","нет","null","Центральный административный округ","Тверской район","Новослободская улица, дом 18","(499) 972-05-05","70","нет","37.5993872375970430","55.7823077031700480"
"55.855748244311378","37.585812774177832","c50ced8d-0782-492d-8684-50e937738c42","412","58839852","Кальян-Хаус","нет","null","Северо-Восточный административный округ","район Отрадное","Алтуфьевское шоссе, дом 14","нет телефона","36","нет","37.5858127741778320","55.8557482443113780"
"55.618547725836933","37.592734929153444","06567f93-ab8b-48dd-9905-3afa68d4f0fb","413","58839874","Монро","нет","null","Южный административный округ","район Чертаново Центральное","Чертановская улица, дом 32, строение 5","(905) 583-42-66","40","нет","37.5927349291534440","55.6185477258369330"
"55.768178954412228","37.623457194501079","2845766f-a197-4c30-8e42-9866f0e1523b","414","58839906","Бар «ПОРТ»","нет","null","Центральный административный округ","Мещанский район","Цветной бульвар, дом 2","(495) 201-53-22","96","нет","37.6234571945010790","55.7681789544122280"
"55.76369260381454","37.594161545087779","69004c63-4827-4aa4-bfca-5ead5fd05169","415","58839916","Бар «Киану»","нет","null","Центральный административный округ","Пресненский район","Малая Бронная улица, дом 28","(495) 228-18-84","20","нет","37.5941615450877790","55.7636926038145400"
"55.897394043197913","37.389700176456437","7f57e3b8-da1c-4ca9-8b91-267c667ff8ae","416","58839964","Бильярд «Седьмая луза»","нет","null","Северо-Западный административный округ","район Куркино","Соколово-Мещерская улица, дом 16/114","(495) 973-67-16","25","нет","37.3897001764564370","55.8973940431979130"
"55.740097559119249","37.8610947073799","cc6b1a7c-3db9-4788-917a-553139f14ec6","417","58840033","Суши-бар","нет","null","Восточный административный округ","район Новокосино","Новокосинская улица, дом 22","(495) 703-29-51","20","нет","37.8610947073798980","55.7400975591192490"
"55.755767008867139","37.63362292469013","1a19703b-9cbb-492f-a677-fdb60450b325","418","58840140","Строганина бар","нет","null","Центральный административный округ","Басманный район","Лубянский проезд, дом 19, строение 1","(495) 775-60-75","50","нет","37.6336229246901300","55.7557670088671390"
"55.763274899954965","37.654807756761755","4549dd27-04e7-4e1f-936c-490d460d215c","419","58877144","Бутылка, Кружка и Котел","нет","null","Центральный административный округ","Басманный район","улица Покровка, дом 48, строение 1","нет телефона","65","нет","37.6548077567617550","55.7632748999549650"
"55.781901164611462","37.670045020923027","3c7b5fbc-89cb-4bba-b677-2718e0eb59fd","420","58877722","Killlfish Discount Bar","да","Killlfish Discount Bar","Центральный административный округ","Красносельский район","Русаковская улица, дом 1","(903) 003-70-13","80","нет","37.6700450209230270","55.7819011646114620"
"55.826752289264448","37.444926408329046","5cdf2575-76fd-4f62-98ff-ea5c74bb864d","421","58877726","Killlfish Discount Bar","да","Killlfish Discount Bar","Северо-Западный административный округ","район Покровское-Стрешнево","Тушинская улица, дом 17","(800) 333-09-77","90","нет","37.4449264083290460","55.8267522892644480"
"55.769838","37.632889","87f89a53-3c26-4f4f-8ef3-d1c549227836","422","64727714","Beer Happens","нет","null","Центральный административный округ","Красносельский район","улица Сретенка, дом 24/2, строение 1","(985) 776-87-37","80","нет","37.6328890000000000","55.7698380000000000"
"55.641761436811535","37.52353803149753","9858e7e8-243c-4f23-8c01-99ce47b30bf9","423","64727715","КилФиш Бар","нет","null","Юго-Западный административный округ","район Коньково","Профсоюзная улица, дом 104","(925) 702-00-00","80","нет","37.5235380314975300","55.6417614368115350"
"55.756574","37.607175","5a083e16-49e8-4e91-9eb7-35abb3adadba","424","64727725","Бар «Стабильная линия»","нет","null","Центральный административный округ","Пресненский район","Большая Никитская улица, дом 12, строение 2","(495) 221-54-15","5","нет","37.6071750000000000","55.7565740000000000"
"55.4441","37.3358","66c448c9-9020-466c-9692-14dbee5fec20","425","64727729","ИГРОМАКС","нет","null","Западный административный округ","район Дорогомилово","площадь Киевского Вокзала, дом 2","(495) 921-44-44","1","нет","37.3358000000000000","55.4441000000000000"
"55.729331","37.622612","89509a83-9919-4120-8ed1-16a09db2a729","426","64727776","Бар в гостинице","нет","null","Центральный административный округ","район Замоскворечье","улица Коровий Вал, дом 1","(495) 728-78-23","0","нет","37.6226120000000000","55.7293310000000000"
"55.773024971413818","37.601049761970266","ee6936d3-5c0a-4a01-9b0f-cd0e8b9698ad","427","64727780","Сирокко","нет","null","Центральный административный округ","Тверской район","Оружейный переулок, дом 25, строение 1","(906) 082-72-72","46","нет","37.6010497619702660","55.7730249714138180"
"55.779955","37.720537","e58cc989-53d2-4edd-84cf-c02fe430c18a","428","64727785","Hookah Place Semenovskaya","нет","null","Восточный административный округ","район Соколиная Гора","Измайловское шоссе, дом 3А","(916) 028-53-11","26","нет","37.7205370000000000","55.7799550000000000"
"55.7836275854597","37.71923193043154","3119fc65-2c84-4a31-ac9d-434e39f746de","429","64727788","Бар клуба «Голодная кошка»","нет","null","Восточный административный округ","район Соколиная Гора","улица Измайловский Вал, дом 2","(499) 369-71-91","50","нет","37.7192319304315400","55.7836275854596980"
"55.758615","37.639024","2b406aec-65ea-4751-b920-fe339327cd88","430","64727798","Лора Крафт","нет","null","Центральный административный округ","Басманный район","улица Покровка, дом 1/13/6, строение 2","(929) 681-58-78","50","нет","37.6390240000000000","55.7586150000000000"
"55.890117","37.538465","aa7e8b8d-5d17-48d8-81a5-7bad19526f17","431","64727822","КАВА","нет","null","Северный административный округ","Дмитровский район","Лобненская улица, дом 4А","(499) 682-74-38","72","нет","37.5384650000000000","55.8901170000000000"
"55.7637320692844","37.609861671776528","8939f7e7-c8ad-4dbc-beb7-20664b4d08f3","432","64727829","Dyhless bar","нет","null","Центральный административный округ","Тверской район","Тверская улица, дом 12, строение 25","(495) 122-20-00","48","нет","37.6098616717765280","55.7637320692844010"
"55.851894225611744","37.49201932643669","48ee29f6-5151-48f6-b145-24f3c20b7c73","433","64727833","Лагуна Бич","нет","null","Северный административный округ","район Левобережный","Флотская улица, дом 5, корпус В","(495) 748-16-40","35","нет","37.4920193264366900","55.8518942256117440"
"55.78812","37.635323","e4e6fb32-9056-4474-9edd-86eddb0cf06c","434","64727839","Свинья и мышь","нет","null","Центральный административный округ","Мещанский район","проспект Мира, дом 70","(905) 567-35-25","15","нет","37.6353230000000000","55.7881200000000000"
"55.65268320158988","37.646495300716929","41dfe44b-78d9-4144-8767-327f872bd16a","435","64727883","FanZone","нет","null","Южный административный округ","район Москворечье-Сабурово","Каширское шоссе, дом 26","(495) 966-00-02","60","нет","37.6464953007169290","55.6526832015898800"
"55.7644189563908","37.78560118797305","d0fa167e-9df4-4548-926a-e488f781f626","436","64727901","КАЛЬЯННАЯ","нет","null","Восточный административный округ","район Перово","шоссе Энтузиастов, дом 76/1","(499) 304-35-24","12","нет","37.7856011879730500","55.7644189563907990"
"55.635035","37.436903","af853786-fc24-446f-b502-5800f3dd985e","437","64727938","Кальянная Siroccoclub","нет","null","Новомосковский административный округ","поселение Московский","Киевское шоссе, 22-й километр, домовладение 4, строение 2","(495) 741-37-70","24","нет","37.4369030000000000","55.6350350000000000"
"55.624652","37.304204","93c159d2-9d9d-433a-8a40-af11d70ef534","438","64727959","Пивной салон ПАБ","нет","null","Новомосковский административный округ","поселение Внуковское","улица Лётчика Ульянина, дом 2","(985) 345-62-82","16","нет","37.3042040000000000","55.6246520000000000"
"55.811998","37.728353","a726b6e0-2893-48ed-a344-05c153cbdd7e","439","64727974","ТОРТУГА","нет","null","Восточный административный округ","район Богородское","бульвар Маршала Рокоссовского, дом 8, корпус 4","(985) 876-46-96","24","нет","37.7283530000000000","55.8119980000000000"
"55.852846868991378","37.585854174229553","2c20cb57-37a3-45e6-a8f0-dd7fb650b210","440","64727977","ТК АЛТУФЬЕВСКИЙ КАФЕ ШАШЛЫЧНЫЙ ДВОРИК","нет","null","Северо-Восточный административный округ","район Отрадное","Алтуфьевское шоссе, дом 8","(926) 814-29-65","70","нет","37.5858541742295530","55.8528468689913780"
"55.708389","37.625487","23738e0e-f196-438a-a3c4-341f461c78e2","441","64728009","Диско-бар","нет","null","Южный административный округ","Даниловский район","Холодильный переулок, дом 3","(495) 952-22-27","150","нет","37.6254870000000000","55.7083890000000000"
"55.826752289264448","37.444926408329046","1e008e7f-36e8-496d-826b-ee7df0ce1b6b","442","64728040","Кружка","да","Кружка","Северо-Западный административный округ","район Покровское-Стрешнево","Тушинская улица, дом 17","(495) 663-37-43","90","нет","37.4449264083290460","55.8267522892644480"
"55.783089","37.734201","e747c271-0913-40d1-bc78-ab1dd57ce838","443","64728711","Дискаунт-бар «KILLFISH»","да","KillFish Discount Ваг","Восточный административный округ","район Соколиная Гора","Щербаковская улица, дом 53, корпус 15","(800) 333-09-77","80","нет","37.7342010000000000","55.7830890000000000"
"55.7622255827563","37.613107015750515","992525b0-65a6-4922-b07c-abb7f76dae4d","444","169373336","Гадкий кайот","нет","null","Центральный административный округ","Тверской район","улица Большая Дмитровка, дом 13","(903) 728-84-43","120","нет","37.6131070157505150","55.7622255827563010"
"55.306107","37.197713","ebca89fa-1c63-4af1-8a02-79da516be5b8","445","169373494","Бар «Ракета»","нет","null","Троицкий административный округ","поселение Вороновское","вблизи посёлка ЛМС, дом 1Б/Н","(495) 676-85-55","30","нет","37.1977130000000000","55.3061070000000000"
"55.760552722188585","37.647149355205542","79512da8-d8cf-45f1-80da-c92db45d38cd","446","169373538","Alchemic ночной клуб","нет","null","Центральный административный округ","Басманный район","Чистопрудный бульвар, дом 23, строение 2","(903) 724-81-08","80","нет","37.6471493552055420","55.7605527221885850"
"55.822980739025645","37.524945467434613","e2df14b6-30e8-4acc-b81b-af067188a27a","447","169373830","ГазГарант","нет","null","Северный административный округ","район Коптево","Большая Академическая улица, дом 13А","(495) 450-37-75","10","нет","37.5249454674346130","55.8229807390256450"
"55.306107","37.197713","22503160-4af7-41ff-9059-67642c421e80","448","169373841","Бар столовой № 1","нет","null","Троицкий административный округ","поселение Вороновское","вблизи посёлка ЛМС, дом 1Б/Н","(495) 676-85-55","36","нет","37.1977130000000000","55.3061070000000000"
"55.759149044867691","37.580833879039623","cdc7dca4-de7f-482a-9731-3c3f4dbc4f09","449","169374059","Бар «Крафт»","нет","null","Центральный административный округ","Пресненский район","Кудринская площадь, дом 1","нет телефона","40","нет","37.5808338790396230","55.7591490448676910"
"55.757942694896094","37.636713612663172","3bb0f27b-2f01-4d4b-bc7c-8357b272a4ef","450","169374111","Hardy pub","нет","null","Центральный административный округ","Басманный район","улица Маросейка, дом 15","(499) 963-83-84","45","нет","37.6367136126631720","55.7579426948960940"
"55.77131093188946","37.632111795165571","28c37b50-e9cb-4c7a-906d-cc8757f104da","451","169374226","Кальянная","нет","null","Центральный административный округ","Мещанский район","улица Сретенка, дом 27, строение 1","(495) 607-12-20","30","нет","37.6321117951655710","55.7713109318894600"
"55.774279","37.724966","9b0be37a-4ffd-46fa-8214-1c8511e1631b","452","169374310","Кальянная","нет","null","Восточный административный округ","район Соколиная Гора","проспект Будённого, дом 17","(925) 937-44-83","28","нет","37.7249660000000000","55.7742790000000000"
"55.764693445919271","37.621947667915776","43e5eb34-6a88-482f-b654-400fdc005b6c","453","169374365","Бар","нет","null","Центральный административный округ","Мещанский район","Звонарский переулок, дом 5","(903) 139-64-96","30","нет","37.6219476679157760","55.7646934459192710"
"55.869849","37.660314","337051ab-0647-447d-bab8-a2adb6fa8526","454","169374384","ПАБ БАТЛ КРАФТ","нет","null","Северо-Восточный административный округ","Бабушкинский район","улица Менжинского, дом 23, корпус 1","(926) 010-88-55","20","нет","37.6603140000000000","55.8698490000000000"
"55.741742838077073","37.626100717696566","93eb975b-8096-4940-9da4-4b918c449914","455","169374488","Бургер герой пивной бар","нет","null","Центральный административный округ","район Замоскворечье","улица Большая Ордынка, дом 19, строение 1","(499) 399-35-96","30","нет","37.6261007176965660","55.7417428380770730"
"55.7638999909895","37.618481560515143","fcd6a410-689b-4c4a-9dd0-902c1caa3829","456","169374696","Клуб Аврора","нет","null","Центральный административный округ","Тверской район","улица Петровские Линии, дом 2","(495) 621-15-61","50","нет","37.6184815605151430","55.7638999909895010"
"55.65794465622659","37.7561617162172","d9cbc060-fd5b-4528-af86-86abf95c411c","457","169374734","Бар «Пивная»","нет","null","Юго-Восточный административный округ","район Марьино","Братиславская улица, дом 16, корпус 2","нет телефона","20","нет","37.7561617162172000","55.6579446562265900"
"55.729331","37.622612","fdac2086-7434-4478-be71-23b8c87a345d","458","169374818","Бар","нет","null","Центральный административный округ","район Замоскворечье","улица Коровий Вал, дом 1","(495) 123-45-67","0","нет","37.6226120000000000","55.7293310000000000"
"55.656008416157633","37.59771885420448","2ac24144-0433-420a-8a27-647f25266c77","459","169374935","Другой Бар","нет","null","Юго-Западный административный округ","район Зюзино","Азовская улица, дом 18","(977) 801-77-18","55","нет","37.5977188542044800","55.6560084161576330"
"55.701114629246767","37.638228500803905","0a7829d6-ed9a-47d8-a26b-8ff11471322d","460","169375059","Спорт бар «Красная машина»","нет","null","Южный административный округ","Даниловский район","Автозаводская улица, дом 23, строение 1","(905) 795-15-84","450","нет","37.6382285008039050","55.7011146292467670"
"55.771051366278158","37.629345066742744","b19be28a-d4e2-4d43-9326-f18c8bbdcaf1","461","169375075","Кальянная 25 00","нет","null","Центральный административный округ","Мещанский район","Большой Сухаревский переулок, дом 17, строение 2","(495) 625-66-04","30","нет","37.6293450667427440","55.7710513662781580"
"55.741053076734779","37.626693141934624","660b56d2-c7af-4149-883b-734954b85e81","462","169375096","ПАБ АНДЕРДОГ","нет","null","Центральный административный округ","район Замоскворечье","Климентовский переулок, дом 14","(926) 013-54-34","20","нет","37.6266931419346240","55.7410530767347790"
"55.763404406391771","37.607886408427845","76353573-7257-4d91-a4dd-e15507917d33","463","169375180","Голову с плеч","нет","null","Центральный административный округ","Тверской район","Тверская улица, дом 12, строение 1","(915) 070-09-60","20","нет","37.6078864084278450","55.7634044063917710"
"55.703420871914112","37.583160517727109","504c0fb7-e61e-4257-ae47-5303fd9a4f05","464","169375184","БИР-ТАЙМ","нет","null","Юго-Западный административный округ","Академический район","улица Вавилова, дом 13А","(985) 368-38-12","28","нет","37.5831605177271090","55.7034208719141120"
"55.767909992260485","37.629299465884706","f804baa8-7907-42a2-adff-28ddbfe145a8","465","169375264","Арт-кальянная Shishasity","нет","null","Центральный административный округ","Мещанский район","Колокольников переулок, дом 22, строение 5","(915) 066-36-91","30","нет","37.6292994658847060","55.7679099922604850"
"55.879010319832382","37.579525714788637","2d3a02a1-1e42-4fb7-b92f-fc6b00a86a90","466","169375424","Кафе-бар","нет","null","Северо-Восточный административный округ","Алтуфьевский район","Инженерная улица, дом 5","(926) 273-01-64","20","нет","37.5795257147886370","55.8790103198323820"
"55.772755","37.626996","30504e1f-22c1-47d0-beb4-29af966dca1f","467","169375527","Кальянная Argela Lounge","нет","null","Центральный административный округ","Мещанский район","Садовая-Сухаревская улица, дом 10/12","(965) 226-41-99","20","нет","37.6269960000000000","55.7727550000000000"
"55.6745863715415","37.504475325174333","54104947-0187-4851-8bb6-9c1749f23c5b","468","169375537","Караоке клуб","нет","null","Западный административный округ","район Проспект Вернадского","проспект Вернадского, дом 41, строение 3","нет телефона","50","нет","37.5044753251743330","55.6745863715415010"
"55.815283645832309","37.730778675696889","626b2e41-bbe1-4077-bd69-49fdba162663","469","169375546","НИКА","нет","null","Восточный административный округ","район Богородское","Ивантеевская улица, дом 32, корпус 1","нет телефона","20","нет","37.7307786756968890","55.8152836458323090"
"55.726974184915079","37.62601388260812","696e7aa6-2a7a-4633-9d79-c8ff5e8b7517","470","169375681","Бар Глоу сабс","нет","null","Центральный административный округ","район Замоскворечье","Большая Серпуховская улица, дом 17, строение 1","(926) 823-49-31","10","нет","37.6260138826081200","55.7269741849150790"
"55.647832044127931","37.741812867317947","1a088400-9bcb-4af9-8a87-37cc6b6ae967","471","169375708","Ночной клуб «Орфей»","нет","null","Юго-Восточный административный округ","район Марьино","Новочеркасский бульвар, дом 57, корпус 1","нет телефона","1000","нет","37.7418128673179470","55.6478320441279310"
"55.6592569999999","37.7556429999999","0a3f2db1-ac89-459c-bd44-d2b4e35a4c12","472","169375787","Бар «Пират»","нет","null","Юго-Восточный административный округ","район Марьино","Братиславская улица, дом 14","(495) 347-98-10","44","нет","37.7556429999999000","55.6592569999999000"
"55.870481","37.638009","1ffb222f-b066-4dfa-bd32-8d258d6ac19b","473","169375879","Караоке Маяк","нет","null","Северо-Восточный административный округ","район Южное Медведково","проезд Дежнёва, дом 21","нет телефона","50","нет","37.6380090000000000","55.8704810000000000"
"55.770617522478524","37.625165430279871","512a3c26-8499-432e-8199-87eb17aa019c","474","169375924","Бар ГЕРОИ","нет","null","Центральный административный округ","Мещанский район","Трубная улица, дом 21","(985) 969-69-33","40","нет","37.6251654302798710","55.7706175224785240"
"55.936654281561005","37.552532881069112","38e7f43d-04f0-4b8f-a417-814f6aaf022f","475","169376022","Капитан Конрад","нет","null","Северо-Восточный административный округ","район Северный","9-я Северная линия, дом 3А","нет телефона","30","нет","37.5525328810691120","55.9366542815610050"
"55.630933084699947","37.515630455798274","7640ef92-ef1f-4354-ac7d-b70d4bb98145","476","169376031","Бар «4х4»","нет","null","Юго-Западный административный округ","район Тёплый Стан","Профсоюзная улица, дом 128, корпус 1","(965) 326-34-34","60","нет","37.5156304557982740","55.6309330846999470"
"55.888119","37.509846","c4466472-aed3-4d7e-b7f5-7f70d6226d93","477","169376149","Бар - пиццерия","нет","null","Северный административный округ","район Западное Дегунино","Ижорская улица, владение 8Б, строение Б/Н","(925) 188-88-88","40","нет","37.5098460000000000","55.8881190000000000"
"55.688460860969684","37.569884753746457","62962f93-644c-4e83-b984-4e63ff8829be","478","169376229","ПИВНОЙ БУТИК","нет","null","Юго-Западный административный округ","Академический район","улица Дмитрия Ульянова, дом 16, корпус 1","(963) 777-46-66","16","нет","37.5698847537464570","55.6884608609696840"
"55.741509472231485","37.628289227239542","4f91e505-4efd-4b08-b860-aa3eb36d3840","479","169376311","Пивной бар Парка","нет","null","Центральный административный округ","район Замоскворечье","Пятницкая улица, дом 22, строение 1","(499) 750-89-92","45","нет","37.6282892272395420","55.7415094722314850"
"55.687946483291071","37.57149056723442","f949de10-60f6-44b3-8fb2-64dffde62d20","480","169376929","KillFish Discount Ваг","да","KillFish Discount Ваг","Юго-Западный административный округ","Академический район","улица Дмитрия Ульянова, дом 20, корпус 1","(967) 055-59-89","70","нет","37.5714905672344200","55.6879464832910710"
"55.612043164173365","37.732718176918112","f3d7d025-a42a-4297-a017-2d71956d9c29","481","169377224","Кофе Хаус","да","Кофе хауз","Южный административный округ","район Зябликово","Ореховый бульвар, дом 22А","нет телефона","20","нет","37.7327181769181120","55.6120431641733650"
