,distr,address,phone,fullname,form,head,latitude,longitude
0,Таганский район,"109029, г. Москва, Большая Калитниковская ул., д.42/5",(495) 911-06-25,Государственное бюджетное образовательное учреждение города Москвы кадетская школа № 1785 «Таганский кадетский корпус»,бюджетное,Авдеева Елена Владимировна,37.6914901652,55.7360085677
1,район Зюзино,"117218, г. Москва, ул. Большая Черемушкинская, д.38",(495) 318-19-63,Государственное бюджетное образовательное учреждение дополнительного образования города Москвы «Дворец творчества детей и молодежи «Севастополец»,бюджетное,Исхаков Александр Искандарович,37.580764169,55.6789038015
2,Пресненский район,"123022, г. Москва, ул.Б.Декабрьская., д.9, стр.1",(499) 253-00-71,Государственное автономное учреждение города Москвы «Московский центр образовательного права»,автономное,Фатхуллин Руслан Зуфарович,37.5634564665,55.7645564704
3,район Текстильщики,"109390, г. Москва, 1-ая Текстильщиков ул., д. 5/8",(499) 178-02-16,Государственное бюджетное общеобразовательное учреждение города Москвы «Специальная (коррекционная) школа № 482»,бюджетное,Обухова Елена Владимировна,37.7367313473,55.7019101396
4,Пресненский район,"125009, г. Москва, Хлыновский туп., д.3, стр.5",(495) 690-20-12,Государственное бюджетное общеобразовательное учреждение города Москвы «Школа с углубленным изучением предметов художественно-эстетического цикла средствами театрального искусства № 123»,бюджетное,Голова Татьяна Леонидовна,37.6028155335,55.7581469292
5,район Некрасовка,"111674, г. Москва, проспект Защитников Москвы, д. 9, корп.2",(499) 588-00-50,Государственное бюджетное образовательное учреждение города Москвы средняя общеобразовательная школа № 2051 «Педагогический комплекс»,бюджетное,Семенова Елена Николаевна,37.9222921098,55.7041666784
6,Ярославский район,"129337, г. Москва, Ярославское шоссе, д. 5строение 2",(499) 188-21-47,Государственное бюджетное профессиональное образовательное учреждение города Москвы «Московский издательско-полиграфический колледж имени Ивана Федорова»,бюджетное,Татаренкова Татьяна Ивановна,37.6765126802,55.8528026151
7,район Измайлово,"105043, г. Москва, 7-я Парковая, дом 1-а",(499) 165-56-53,Государственное бюджетное образовательное учреждение города Москвы центр образования № 1483,бюджетное,Усова Ольга Ивановна,37.7939029337,55.7908040688
8,район Выхино-Жулебино,"109153, г. Москва, ул.Маршала Полубоярова, д.22",(495) 705-79-50,Государственное бюджетное общеобразовательное учреждение города Москвы «Школа № 1905»,бюджетное,Сарбеева Яна Юрьевна,37.8593692018,55.6813112371
9,район Новокосино,"111672, г. Москва, ул.Новокосинская, д. 40 А",(495) 702-32-83,Государственное бюджетное общеобразовательное учреждение города Москвы «Гимназия № 1591»,бюджетное,Гольдберг Владимир Абрамович,37.8724729455,55.7446377589
10,район Чертаново Центральное,"115404, г. Москва, ул.6-ая Радиальная, д.10",(495) 389-17-27,Государственное бюджетное профессиональное образовательное учреждение города Москвы «Пищевой колледж № 33»,бюджетное,Молчанов Павел Викторович,37.6650163723,55.6084996166
11,район Тропарёво-Никулино,"119602, г. Москва, ул. Академика Анохина, д.48",(495) 438-67-00,Государственное бюджетное образовательное учреждение города Москвы средняя общеобразовательная школа с углубленным изучением информатики и английского языка № 1307,бюджетное,Судницына Марина Вячеславовна,37.4689133612,55.6526592611
12,район Матушкино,"124498, г. Москва, Зеленоград Березовая аллея д.8А",(499) 710-23-53,Государственное бюджетное общеобразовательное учреждение города Москвы «Школа с углубленным изучением английского языка № 1353 имени генерала Д.Ф. Алексеева»,бюджетное,Дороничева Светлана Владимировна,37.2025988557,55.995230595
13,район Северное Бутово,"117216, г. Москва, ул.Грина, д.18 б",(495) 711-37-90,Государственное бюджетное образовательное учреждение города Москвы средняя общеобразовательная школа с углубленным изучением английского языка № 1356,бюджетное,Рослякова Лариса Эдуардовна,37.586327294,55.5669747171
14,Тимирязевский район,"127206, г. Москва, улица Вучетича, дом 30, строение 1",(495) 611-53-21,Государственное казенное общеобразовательное учреждение города Москвы «Кадетская школа-интернат № 1 «Первый Московский кадетский корпус»,казённое,Крымский Владимир Яковлевич,37.559714914,55.8153892629
15,Бескудниковский район,"127247, г. Москва, Бескудниковский проезд, дом 4 Б",(499) 489-73-20,Государственное бюджетное общеобразовательное учреждение города Москвы «Гимназия № 1592»,бюджетное,Богданов Антон Валерьевич,37.5508575678,55.877233754
16,Тверской район,"125167, г. Москва, Авиационный пер., д. 6",(495) 692-48-51,Государственное автономное образовательное учреждение высшего профессионального образования города Москвы «Московский институт открытого образования» (средняя общеобразовательная школа № 179),автономное,Якушкин Павел Алексеевич,37.6144773972,55.7594732346
17,район Москворечье-Сабурово,"115522, г. Москва, Пролетарский пр-т, д.6, корп.3",(499) 324-29-21,Государственное бюджетное образовательное учреждение города Москвы лицей № 1511 при «Национальном исследовательском ядерном университете «МИФИ»,бюджетное,Елютин Сергей Олегович,37.6526623689,55.6484199123
18,район Проспект Вернадского,"119454, г. Москва, ул.Лобачевского, д.92",(495) 932-87-09,Государственное бюджетное общеобразовательное учреждение города Москвы «Школа с углубленным изучением отдельных предметов № 1973»,бюджетное,Макарова Людмила Эдуардовна,37.4848614802,55.6808911294
19,район Преображенское,"107553, г. Москва, ул.Большая Черкизовская, д.15",(499) 161-15-06,Государственное бюджетное образовательное учреждение дополнительного образования города Москвы «Дворец творчества детей и молодежи «Преображенский»,бюджетное,Коминова Елена Борисовна,37.7333454693,55.8027895398
20,район Орехово-Борисово Северное,"115569, г. Москва, Шипиловская ул., д. 17, к. 1, стр. 1",(495) 392-89-00,Государственное бюджетное профессиональное образовательное учреждение города Москвы «Юридический колледж»,бюджетное,Самойлов Георгий Владимирович,37.7081098523,55.6200842761
21,район Ново-Переделкино,"119634, г. Москва, ул. Чоботовская, д. 5, корп.1",(495) 731-99-34,Государственное бюджетное образовательное учреждение города Москвы центр детского творчества «Ново-Переделкино»,бюджетное,Шатова Елена Леонидовна,37.352424777,55.6425659476
22,Мещанский район,"105094, г. Москва, Госпитальный вал, д.1А, стр.1",(495) 288-57-87,Государственное бюджетное учреждение дополнительного образования города Москвы «Детский образовательный центр «Центральный»,бюджетное,Николаичева Инесса Михайловна,37.7032336876,55.7705030034
23,район Косино-Ухтомский,"111621, г. Москва, Муромская ул., д.1А",(926) 557-77-16,Государственное бюджетное общеобразовательное учреждение города Москвы «Школа № 1022»,бюджетное,Куляшова Юлия Николаевна,37.8580641399,55.7112776842
24,район Чертаново Северное,"117208, г. Москва, Сумской пр. д.6 Б",(495) 311-81-18,Государственное бюджетное образовательное учреждение дополнительного образования города Москвы «Центр внешкольной работы «На Сумском»,бюджетное,Абрамова Елена Ивановна,37.6025707088,55.6289040174
25,район Солнцево,"119619, г. Москва, ул.Наро-Фоминская, д.1",(495) 435-72-42,Государственное бюджетное общеобразовательное учреждение города Москвы «Школа № 1000»,бюджетное,Абродина Елена Михайловна,37.4093646185,55.6460321573
26,Таганский район,"109029, г. Москва, ул.Б.Калитниковская, д.36, стр.1",(495) 670-50-81,Государственное бюджетное профессиональное образовательное учреждение города Москвы «Колледж сферы услуг № 3»,бюджетное,Корчагина Маргарита Ивановна,37.6845722534,55.7368032654
27,район Тёплый Стан,"117465, г. Москва, ул. Теплый Стан, дом 13, корпус 3",(495) 337-30-77,Государственное бюджетное общеобразовательное учреждение города Москвы «Гимназия № 1532»,бюджетное,Бутырская Маргорита Афанасьевна,37.4934652946,55.6179427518
28,район Богородское,"107370, г. Москва, ул. Бойцовая, д. 6, кор. 8А",(499) 160-86-16,Государственное бюджетное общеобразовательное учреждение города Москвы «Школа № 386»,бюджетное,Клюхина Александра Игоревна,37.720629531,55.8094665503
29,район Южное Бутово,"117041, г. Москва, ул. Адмирала Лазарева, д. 77",(499) 793-70-30,Государственное бюджетное общеобразовательное учреждение города Москвы «Гимназия № 1786»,бюджетное,Гладик Владимир Адамович,37.4964304756,55.5347285903
30,район Орехово-Борисово Северное,"115563, г. Москва, Борисовский пр., д.40, корп.3",(495) 394-02-54,Государственное бюджетное общеобразовательное учреждение города Москвы «Школа № 438»,бюджетное,Отке Наталья Вячеславовна,37.7225279234,55.617577357
31,район Крылатское,"121609, г. Москва, Осенний б-р, д.10, корп.3",(495) 415-98-55,Государственное бюджетное общеобразовательное учреждение города Москвы «Школа № 1440»,бюджетное,Миняйло Ирина Николаевна,37.3963554149,55.7701503027
32,район Ново-Переделкино,"119634, г. Москва, ул. Чоботовская, д.19",(495) 733-14-67,Государственное бюджетное общеобразовательное учреждение города Москвы «Школа с углубленным изучением английского языка № 1238»,бюджетное,Савельева Анна Владимировна,37.3457044171,55.6453883289
33,Войковский район,"125212, г. Москва, Ленинградское шоссе, д. 30",(495) 123-67-01,Государственное бюджетное общеобразовательное учреждение города Москвы «Школа № 744 имени Петра Николаевича Еремеева»,бюджетное,Ганьшина Елена Валентиновна,37.4910812707,55.8293555692
34,район Лианозово,"127572, г. Москва, Алтуфьевское ш., д.97, корп.3",(499) 200-87-38,Государственное бюджетное общеобразовательное учреждение города Москвы «Школа № 166»,бюджетное,Шпакова Виктория Юрьевна,37.5821953355,55.9009657722
35,район Ясенево,"121357, г. Москва, ул. Кременчугская д. 13",(495) 427-51-98,Государственное бюджетное общеобразовательное учреждение города Москвы «Школа-интернат «Интеллектуал»,бюджетное,Тихорский Юрий Борисович,37.4615299486,55.7168642436
36,район Тропарёво-Никулино,"119571, г. Москва, Вернадского пр-т, д.127, корп.2",(495) 434-31-04,Государственное бюджетное общеобразовательное учреждение города Москвы «Образовательный центр на проспекте Вернадского»,бюджетное,Беспалова Светлана Анатольевна,37.4901835654,55.6566239176
37,район Проспект Вернадского,"119607, г. Москва, ул. Удальцова, д.40",(499) 432-39-01,Государственное бюджетное образовательное учреждение города Москвы центр образования № 1953 «Москва-98»,бюджетное,Барановский Александр Петрович,37.4942729622,55.6853217898
38,район Северное Измайлово,"105215, г. Москва, ул. 5-я Парковая, дом 60",(499) 163-91-32,Государственное бюджетное образовательное учреждение города Москвы центр развития творчества детей и юношества имени А.В. Косарева,бюджетное,Королева Татьяна Ивановна,37.7893075704,55.8063752696
39,район Восточное Дегунино,"127591, г. Москва, Керамический проезд, дом 55, корпус 3",(499) 900-08-50,Государственное бюджетное общеобразовательное учреждение города Москвы «Центр образования № 1296»,бюджетное,Громовая Ирина Николаевна,37.5626574849,55.8788212097
40,район Раменки,"119192, г. Москва, ул. Столетова, д. 3",(499) 665-85-26,Государственное бюджетное общеобразовательное учреждение города Москвы «Школа № 37»,бюджетное,Баринова Татьяна Юрьевна,37.5003038239,55.7031327203
41,район Нагатинский Затон,"115470, г. Москва, пр-т Андропова, д.17, корп.5",(499) 612-00-55,Государственное бюджетное общеобразовательное учреждение города Москвы «Гимназия № 1527»,бюджетное,Кадыкова Елена Владимировна,37.6694429384,55.6828070357
42,район Беговой,"125040, г. Москва, ул.Расковой, д.20А, стр.1",(495) 612-40-41,Государственное казенное общеобразовательное учреждение города Москвы «Специальная (коррекционная) общеобразовательная школа-интернат № 52»,бюджетное,Подвальная Елена Владимировна,37.574139694,55.787686516
43,район Вешняки,"111395, г. Москва, ул. Красный Казанец, д.3А",(499) 373-36-96,Государственное бюджетное общеобразовательное учреждение города Москвы «Школа № 810»,бюджетное,Филипов Виктор Владимирович,37.8114888317,55.7240730988
44,Нагорный район,"117638, г. Москва, Нахимовский пр-т, д.6",(499) 794-29-45,Государственное бюджетное общеобразовательное учреждение города Москвы «Центр инклюзивного образования «Южный»,бюджетное,Бурлакина Ольга Викторовна,37.6095861106,55.6645144918
45,район Марьино,"109144, г. Москва, Батайский пр., д.47",(499) 356-73-92,Государственное бюджетное общеобразовательное учреждение города Москвы «Школа № 1394 «Воспитательно-образовательный центр «На набережной»,бюджетное,Тихонов Валерий Анатольевич,37.7365196772,55.6445225981
46,Обручевский район,"117393, г. Москва, ул. Профсоюзная, дом № 62",(499) 128-76-12,Государственное бюджетное образовательное учреждение города Москвы специальная (коррекционная) общеобразовательная школа-интернат VI вида № 17,бюджетное,Игнатенко Тамара Викторовна,37.5495425348,55.6674212711
47,Басманный район,"119121, г. Москва, 1-ый Тружеников пер., д.18",(499) 261-89-07,Государственное казенное общеобразовательное учреждение города Москвы «Школа № 2124 «Центр развития и коррекции»,бюджетное,Рыжих Людмила Леонидовна,37.6717823921,55.7653935991
48,район Южное Тушино,"125364, г. Москва, ул. Свободы, д. 42, корп. 2",(499) 497-00-98,Государственное бюджетное общеобразовательное учреждение города Москвы «Гимназия № 1551»,бюджетное,Балакирева Вера Витальевна,37.4521204144,55.8491405418
49,район Южное Бутово,"117042, г. Москва, ул. Горчакова, д. 9, корп. 1",(495) 716-29-35,Государственное бюджетное образовательное учреждение города Москвы средняя общеобразовательная школа с углубленным изучением физики и математики № 2007,бюджетное,Старовойт Сергей Георгиевич,37.5325918216,55.5449361331
50,Обручевский район,"117630, г. Москва, улица Академика Челомея, дом 6а",(495) 936-30-95,Государственное бюджетное общеобразовательное учреждение города Москвы «Школа № 1100»,бюджетное,Микаелян Гарри Суренович,37.5288655154,55.6626313656
51,район Старое Крюково,"124575, г. Москва, Зеленоград, корп.921А",(499) 731-43-92,Государственное бюджетное общеобразовательное учреждение города Москвы «Школа № 719»,бюджетное,Кисетова Зульфия Максутовна,37.1866205315,55.9846626514
52,Останкинский район,"129515, г. Москва, 1-я Останкинская улица, дом 29",(495) 616-48-29,Государственное бюджетное образовательное учреждение города Москвы средняя общеобразовательная школа с углубленным изучением английского языка № 1415,бюджетное,Загородникова Галина Николаевна,37.6282683066,55.8236519251
53,Даниловский район,"115114, г. Москва, ул.Дербеневская, д.13",(495) 959-77-38,Государственное бюджетное общеобразовательное учреждение города Москвы «Лицей № 1553 имени В.И. Вернадского»,бюджетное,Калачихина Ольга Данииловна,37.6491079696,55.7212491729
54,Войковский район,"125130, г. Москва, ул. Зои и Александра Космодемьянских, дом 3, корпус 1",(499) 150-00-32,Государственное бюджетное общеобразовательное учреждение города Москвы «Гимназия № 201 ордена Трудового Красного Знамени имени Героев Советского Союза Зои и Александра Космодемьянских»,бюджетное,Подольская Елена Викторовна,37.5135280995,55.8228924272
55,Войковский район,"125212, г. Москва, Лениградское шоссе, д. 54",(499) 159-72-61,Государственное бюджетное общеобразовательное учреждение города Москвы «Школа № 224»,бюджетное,Головлева Инна Васильевна,37.484338431,55.8380322271
56,район Сокол,"127434, г. Москва, Дмитровское шоссе, д. 11 А",(499) 198-70-43,Государственное бюджетное профессиональное образовательное учреждение города Москвы «Колледж сферы услуг № 10»,бюджетное,Теплова Галина Борисовна,37.5658901814,55.8137110638
57,район Кунцево,"121359, г. Москва, ул.Партизанская, д.45",(499) 141-01-41,Государственное бюджетное образовательное учреждение города Москвы центр внешкольной работы «Синегория»,бюджетное,Костякова Ольга Юрьевна,37.4021652011,55.7395680181
58,Басманный район,"101000, г. Москва, пер.Огородная Слобода, д.6, стр.1",(495) 621-33-70,Государственное бюджетное образовательное учреждение города Москвы дворец творчества детей и молодежи,бюджетное,Кузьмина Лариса Ивановна,37.6423645206,55.7655533562
59,район Сокольники,"107014, г. Москва, ул. Большая Остроумовская, дом 7",(495) 603-07-14,Государственное бюджетное общеобразовательное учреждение города Москвы «Прогимназия № 1752 в Сокольниках»,бюджетное,Рябинина Ирина Герольдовна,37.6855537293,55.793232589
60,Тимирязевский район,"127206, г. Москва, Астрадамская ул., д. 5В",(495) 611-41-33,Государственное бюджетное образовательное учреждение города Москвы детский сад присмотра и оздоровления № 766,бюджетное,Андрианова Юлия Сергеевна,37.5621946821,55.8108533438
61,район Ивановское,"111531, г. Москва, шоссе Энтузиастов, дом 100 А",(495) 307-38-01,Государственное бюджетное общеобразовательное учреждение города Москвы «Школа № 400»,бюджетное,Осипова Александра Анатольевна,37.8358945496,55.7734762177
62,район Очаково-Матвеевское,"119361, г. Москва, ул. Б. Очаковская, д. 25",(495) 430-63-35,Государственное бюджетное образовательное учреждение города Москвы специальная (коррекционная) общеобразовательная школа VIII вида № 571,бюджетное,Зацепина Любовь Васильевна,37.4535666488,55.6802767633
63,район Беговой,"125124, г. Москва, ул.Правды, д.3А",(495) 614-01-18,Государственное бюджетное образовательное учреждение города Москвы центр творческого развития и гуманитарного образования «Поликультурный центр»,бюджетное,Варданян Давид Назарович,37.5756875,55.7846282893
64,Пресненский район,"123056, г. Москва, ул.Зоологическая, д.28, стр.1",(499) 254-96-97,Государственное бюджетное общеобразовательное учреждение города Москвы «Школа с углубленным изучением отдельных предметов № 1950»,бюджетное,Паршина Екатерина Александровна,37.5855746719,55.7720227444
65,район Нагатино-Садовники,"115201, г. Москва, Старокаширское ш., д.2, корп.11",(499) 612-03-39,Государственное бюджетное общеобразовательное учреждение города Москвы «Школа с углубленным изучением отдельных предметов № 1073»,бюджетное,Ларионова Евгения Иосифовна,37.6272097732,55.6601519524
66,район Очаково-Матвеевское,"121359, г. Москва, улица Бобруйская, дом 23",(495) 446-42-54,Государственное бюджетное профессиональное образовательное учреждение города Москвы «Образовательный комплекс сферы услуг»,бюджетное,Мирошкин Кирилл Петрович,37.4106198471,55.7366450065
67,район Некрасовка,"111674, г. Москва, ул.1-я Вольская, д. 9, к.3",(499) 211-20-07,Государственное бюджетное общеобразовательное учреждение города Москвы «Школа № 2089»,бюджетное,Артемьев Александр Николаевич,37.9175156608,55.6822066124
68,район Хорошёво-Мнёвники,"123154, г. Москва, улица Маршала Тухачевского, дом 20, корп. 1",(499) 197-51-23,Государственное бюджетное образовательное учреждение дополнительного образования города Москвы «Дворец творчества детей и молодежи «Хорошево»,бюджетное,Ледовская Татьяна Леонидовна,37.4796289705,55.7841842879
69,район Выхино-Жулебино,"109444, г. Москва, Ташкентская улица, дом 23, корпус 4, строение 1",(495) 376-84-67,Государственное бюджетное образовательное учреждение города Москвы специальная (коррекционная) общеобразовательная школа VIII вида № 895,бюджетное,Гурина Светлана Александровна,37.8136260594,55.7004351407
70,район Куркино,"125465, г. Москва, ул. Соколово-Мещерская, д.27",(499) 501-28-61,Государственное бюджетное общеобразовательное учреждение города Москвы «Школа с углубленным изучением иностранных языков № 1387»,бюджетное,Андреева Марина Геннадьевна,37.3816764033,55.9034266303
71,район Зябликово,"115580, г. Москва, Шипиловская ул., д.59, корп.2",(495) 395-12-12,Государственное бюджетное общеобразовательное учреждение города Москвы «Специальная (коррекционная) школа № 991»,бюджетное,Акацевич Наталья Васильевна,37.7497971701,55.6249480083
72,район Аэропорт,"125315, г. Москва, Коптевский Б. пр., д. 5",(499) 152-72-66,Государственное казенное общеобразовательное учреждение города Москвы «Специальная (коррекционная) общеобразовательная школа-интернат № 2»,бюджетное,Суворов Павел Андреевич,37.5355900132,55.8100380706
73,район Строгино,"123458, г. Москва, ул.Таллинская, д.16, корп.4",(495) 756-62-90,Государственное бюджетное общеобразовательное учреждение города Москвы «Школа № 1155»,бюджетное,Федулов Константин Владимирович,37.4003064426,55.796415791
74,район Новогиреево,"111558, г. Москва, Зеленый пр-кт, д. 75 стр. 1",(495) 302-33-03,Государственное бюджетное общеобразовательное учреждение города Москвы «Гимназия № 1798 «Феникс»,бюджетное,Урман Елена Евгеньевна,37.8047308195,55.7541581091
75,район Черёмушки,"117246, г. Москва, ул. Херсонская, дом 27 А",(495) 332-64-22,Государственное бюджетное общеобразовательное учреждение города Москвы «Школа № 15»,бюджетное,Белов Андрей Владимирович,37.5579671326,55.6520938829
76,район Раменки,"119192, г. Москва, Мичуринский пр-т, д.5, корп.1",(495) 544-53-85,Государственное бюджетное общеобразовательное учреждение города Москвы «Шуваловская гимназия № 1448»,бюджетное,Дмитриева Ольга Александровна,37.5133076205,55.7020588439
77,район Зябликово,"115580, г. Москва, ул.Мусы Джалиля, д.25",(495) 396-83-65,Государственное бюджетное общеобразовательное учреждение города Москвы «Гимназия № 1552»,бюджетное,Авилова Оксана Григорьевна,37.7451021499,55.6247067738
78,Рязанский район,"109377, г. Москва, 12-я Новокузьминская улица, дом 6, корпус 2",(495) 379-63-47,Государственное бюджетное образовательное учреждение города Москвы центр развития творчества детей и юношества «Технорама на Юго-Востоке»,бюджетное,Барышев Андрей Юрьевич,37.7804702949,55.7148835657
79,район Зюзино,"117461, г. Москва, ул.Каховка, д.19, корп.2",(499) 122-84-70,Государственное бюджетное общеобразовательное учреждение города Москвы «Школа № 538 имени С.В. Гришина»,бюджетное,Белянин Алексей Александрович,37.5770280463,55.6524039542
80,район Перово,"111123, г. Москва, 3-я Владимирская улица дом 5",(495) 303-31-50,Государственное бюджетное общеобразовательное учреждение города Москвы «Московская международная гимназия»,бюджетное,Шкуренко Елена Васильевна,37.7864616558,55.7625370326
81,район Чертаново Центральное,"117525, г. Москва, Днепропетровская улица, дом 25 корпус 1",(495) 315-28-71,Государственное бюджетное учреждение города Москвы «Московский городской дом учителя»,бюджетное,Минько Нина Григорьевна,37.5855228163,55.6216085522
82,район Восточное Дегунино,"127591, г. Москва, ул. 800-летия Москвы, д. 7а",(495) 485-97-32,Государственное бюджетное общеобразовательное учреждение города Москвы «Школа № 222»,бюджетное,Баскакова Наталья Анатольевна,37.560959408,55.8861627569
83,Ярославский район,"129337, г. Москва, Ярославское шоссе, дом ( владение) 8, корп. 6",(499) 188-47-47,Государственное бюджетное общеобразовательное учреждение города Москвы «Гимназия № 1577»,бюджетное,Юрова Алла Геннадьевна,37.6884727508,55.8519186569
84,район Строгино,"123458, г. Москва, ул. Твардовского, д. 10, корп. 1",(495) 756-30-60,Государственное бюджетное профессиональное образовательное учреждение города Москвы «Техникум малого бизнеса № 67»,бюджетное,Комолова Татьяна Ивановна,37.394849094,55.793716336
85,район Некрасовка,"111674, г. Москва, ул. 2-я Вольская, д.7, корп.2",(499) 211-24-40,Государственное бюджетное образовательное учреждение города Москвы гимназия № 1595,бюджетное,Силина Лада Владимировна,37.9220561818,55.688056802
86,район Ивановское,"105568, г. Москва, ул. Челябинская, д. 20",(499) 308-00-29,Государственное бюджетное образовательное учреждение города Москвы гимназия № 1476,бюджетное,Ионова Ирина Валерьевна,37.8357421345,55.7782281563
87,район Ново-Переделкино,"119634, г. Москва, ул.Лукинская, д.12, корп.1",(499) 739-09-26,Государственное бюджетное общеобразовательное учреждение города Москвы «Школа с углубленным изучением естественных наук № 1376»,бюджетное,Ильина Наталья Владимировна,37.3413465348,55.648953251
88,Нагорный район,"117638, г. Москва, Нахимовский пр-т, д.6",(499) 613-17-22,Государственное казенное общеобразовательное учреждение города Москвы «Специальная (коррекционная) общеобразовательная школа-интернат № 73»,казённое,Зимнухова Ирина Владимировна,37.6094472348,55.6651248255
89,Басманный район,"105005, г. Москва, Госпитальный переулок, д. 3",(499) 267-20-48,Государственное бюджетное общеобразовательное учреждение города Москвы «Школа № 1247 имени Юргиса Балтрушайтиса»,бюджетное,Валаткайте Солвейга Прановна,37.6877108277,55.7710207801
90,район Богородское,"105037, г. Москва, ул. 1-я Парковая, д. 12",(499) 160-88-10,Государственное бюджетное профессиональное образовательное учреждение города Москвы «Колледж автоматизации и информационных технологий № 20»,бюджетное,Набатова Анна Юрьевна,37.7883129827,55.8049032472
91,район Хорошёво-Мнёвники,"123423, г. Москва, ул. Народного Ополчения, д. 16, корп. 4",(499) 191-25-94,Государственное бюджетное образовательное учреждение города Москвы гимназия № 1522,бюджетное,Воробьева Вера Владимировна,37.4820334028,55.7729245171
92,район Южное Тушино,"125371, г. Москва, Волоколамское шоссе, дом 112, корп. 3",(499) 497-65-87,Государственное бюджетное профессиональное образовательное учреждение города Москвы «Политехнический техникум № 47 имени В.Г. Федорова»,бюджетное,Сынгаевский Дмитрий Алексеевич,37.4230033515,55.8304736373
93,Даниловский район,"115093, г. Москва, 1-й Павловский пер., д.7",(495) 952-60-81,Государственное казенное общеобразовательное учреждение города Москвы «Специальная (коррекционная) общеобразовательная школа-интернат № 79»,бюджетное,Тураносова Вера Николаевна,37.6320017581,55.7167304599
94,район Кунцево,"121351, г. Москва, ул. Партизанская, д.30, корп.2, стр.2",(499) 141-72-23,Государственное бюджетное общеобразовательное учреждение города Москвы «Школа № 64»,бюджетное,Яшина Галина Алексеевна,37.419183779,55.73601379
95,район Соколиная Гора,"105187, г. Москва, ул. Щербаковская, д. 36А",(495) 366-68-00,Государственное бюджетное общеобразовательное учреждение города Москвы «Школа № 1947»,бюджетное,Голованова Лариса Евгеньевна,37.7269983504,55.7811494062
96,район Митино,"125368, Москва, ул. Митинская, д. 45, к. 3",(495) 751-60-49,Государственное бюджетное профессиональное образовательное учреждение города Москвы «Педагогический колледж № 18 Митино»,бюджетное,Сергеева Татьяна Сергеевна,37.349584035,55.8501702274
97,Можайский район,"121471, г. Москва, ул.Гжатская, д.6",(495) 443-82-85,Государственное бюджетное общеобразовательное учреждение города Москвы «Школа № 391»,бюджетное,Неверова Лариса Васильевна,37.4406601386,55.7158959554
98,район Перово,"111401, г. Москва, 3-я Владимирская ул., д.26А",(495) 306-54-20,Государственное бюджетное общеобразовательное учреждение города Москвы «Школа с углубленным изучением немецкого языка № 1269»,бюджетное,Курнышева Екатерина Владимировна,37.7865694027,55.7541728595
99,район Щукино,"123298, г. Москва, ул. Маршала Бирюзова, д. 5",(499) 198-09-92,Государственное автономное учреждение дополнительного образования города Москвы «Детский музыкальный театр «Домисолька»,бюджетное,Жиганов Иван Назибович,37.4973722852,55.7904385017
100,район Печатники,"109548, г. Москва, ул. Гурьянова, д.6, к.2",(495) 357-54-11,Государственное бюджетное образовательное учреждение города Москвы лицей № 1524,бюджетное,Басевская Ольга Борисовна,37.7203481726,55.6910992911
101,Обручевский район,"119421, г. Москва, Ленинский проспект, дом 97, корпус 1",(499) 132-32-56,Государственное бюджетное общеобразовательное учреждение города Москвы «Центр образования № 1311 «Тхия»,бюджетное,Проценко Ирина Александровна,37.5240466264,55.6715465999
102,район Коптево,"125239, г. Москва, Соболевский проезд, дом 17а",(499) 153-91-21,Государственное бюджетное образовательное учреждение города Москвы специальная общеобразовательная школа № 1,бюджетное,Гусев Борис Борисович,37.5258316593,55.8339929198
103,район Чертаново Южное,"117535, г. Москва, ул.Дорожная, д.20А",(495) 382-04-65,Государственное бюджетное общеобразовательное учреждение города Москвы «Гимназия № 1526»,бюджетное,Болдина Тамара Герасимовна,37.6207148291,55.6028332109
104,район Люблино,"109559, г. Москва, ул. Белореченская, д. 19, корп. 2",(495) 359-57-47,Государственное бюджетное общеобразовательное учреждение города Москвы «Школа с этнокультурным татарским компонентом образования № 1186 имени Мусы Джалиля»,бюджетное,Гирфанова Лемма Исхаковна,37.7674862618,55.6721963248
105,район Зюзино,"117303, г. Москва, ул. Одесская, д. 12А",(495) 318-04-67,"Государственное бюджетное образовательное учреждение дополнительного образования города Москвы «Московский детско-юношеский центр экологии, краеведения и туризма»",бюджетное,Моргун Дмитрий Владимирович,37.5588631131,55.8008530013
106,Нагорный район,"117452, г. Москва, Черноморский б-р, д.8",(499) 610-19-30,Государственное бюджетное общеобразовательное учреждение города Москвы «Специальная (коррекционная) школа № 567»,бюджетное,Мухина Ирина Федоровна,37.6127624827,55.6461308704
107,Нижегородский район,"109202, г. Москва, ул. Басовская, д. 7",(499) 171-03-60,Государственное бюджетное общеобразовательное учреждение города Москвы «Школа № 439 «Инженерный лицей «Интеллект»,бюджетное,Рототаева Нина Алексеевна,37.7472804606,55.7353904827
108,район Северное Медведково,"127282, г. Москва, ул. Широкая, д.1А",(499) 798-32-03,Государственное бюджетное общеобразовательное учреждение города Москвы «Гимназия № 1506»,бюджетное,Коротких Виктория Петровна,37.6571075292,55.8918971821
109,Гагаринский район,"119333, г. Москва, улица Фотиевой, дом 18",(499) 137-17-69,Государственное бюджетное образовательное учреждение города Москвы лицей «Вторая школа»,бюджетное,Овчинников Владимир Федорович,37.5557234665,55.6979815241
110,район Строгино,"123592, г. Москва, ул. Кулакова, д. 25, кор. 2",(495) 758-67-00,Государственное бюджетное общеобразовательное учреждение города Москвы «Школа № 705»,бюджетное,Калинина Людмила Андреевна,37.3941894736,55.8015958843
111,район Коптево,"125008, г. Москва, ул. Михалковская, д. 22",(499) 154-50-03,Государственное бюджетное образовательное учреждение города Москвы центр творческого развития и музыкально-эстетического образования детей и юношества «Радость»,бюджетное,Жданова Татьяна Арамовна,37.5288660554,55.8398219672
112,район Бирюлёво Восточное,"115404, г. Москва, ул.Бирюлевская, д.28",(495) 326-37-29,Государственное бюджетное образовательное учреждение среднего профессионального образования города Москвы Педагогический колледж № 15,бюджетное,Шалашов Владимир Васильевич,37.6709226104,55.5857527437
113,район Нагатинский Затон,"115407, г. Москва, ул.Судостроительная, д.31, корп.2",(499) 618-55-55,Государственное бюджетное общеобразовательное учреждение города Москвы «Школа № 1055»,бюджетное,Майоров Николай Николаевич,37.6810325482,55.6842460209
114,район Хамовники,"119034, г. Москва, Хилков пер., д.3А",(499) 766-93-12,Государственное бюджетное образовательное учреждение города Москвы Лингвистический лицей № 1555,бюджетное,Родина Надежда Александровна,37.5978514964,55.7374944161
115,Басманный район,"109028, г. Москва, Покровский б-р, д.10",(495) 917-81-28,Государственное бюджетное образовательное учреждение города Москвы центр эстетического воспитания детей,бюджетное,Кондратьева Антонина Викторовна,37.6467235257,55.7567084272
116,район Перово,"111123, г. Москва, Владимирская 1-я улица, дом 20",(495) 672-67-72,Государственное бюджетное образовательное учреждение дополнительного образования города Москвы «Дворец творчества детей и молодежи «Восточный»,бюджетное,Краюшкина Елена Вячеславовна,37.8931827559,55.7169147876
117,Пресненский район,"123242, г. Москва, ул.Дружинниковская, д.9, стр.2",(495) 605-74-15,Государственное бюджетное образовательное учреждение дополнительного образования города Москвы «Центр развития творчества детей и юношества «Пресня»,бюджетное,Хорец Владислав Анатольевич,37.5722085365,55.7571299299
118,Академический район,"117218, г. Москва, Кржижановского ул., д. 30",(499) 129-78-00,Государственное бюджетное образовательное учреждение города Москвы средняя общеобразовательная школа с углубленным изучением английского языка № 1280,бюджетное,Рыженко Татьяна Соломоновна,37.5786919905,55.6759698423
119,район Выхино-Жулебино,"109145, г. Москва, Пронская ул., д.4, корп.1",(495) 705-61-96,Государственное бюджетное общеобразовательное учреждение города Москвы «Школа с углубленным изучением английского языка № 1359 имени авиаконструктора М.Л.Миля»,бюджетное,Новикова Галина Вячеславовна,37.8542959594,55.6982554972
120,район Чертаново Южное,"117545, г. Москва, ул. Подольских Курсантов, д. 16 А",(495) 381-85-28,Государственное бюджетное общеобразовательное учреждение города Москвы «Школа № 657»,бюджетное,Советова Елена Викторовна,37.6121691899,55.6058531175
121,район Строгино,"123592, г. Москва, ул. Маршала Катукова, д. 12, к. 3",(495) 750-35-56,Государственное бюджетное общеобразовательное учреждение города Москвы «Лицей № 86 имени М.Е. Катукова»,бюджетное,Самсонов Павел Иванович,37.4033094879,55.8086239338
122,район Дорогомилово,"121165, г. Москва, ул. Студенческая, д.29, 27.",(000) 000-00-00,Государственное бюджетное общеобразовательное учреждение города Москвы «Гимназия № 710 им. Народного учителя СССР В.К. Жудова»,бюджетное,Сомов Денис Сергеевич,37.5447229646,55.7403187283
123,район Выхино-Жулебино,"109156, г. Москва, ул. Привольная, 41",(495) 704-52-06,Государственное бюджетное общеобразовательное учреждение города Москвы «Школа № 1908»,бюджетное,Трофимовская Анжелика Валерьевна,37.8556816768,55.688998525
124,Таганский район,"109029, г. Москва, ул.Средняя Калитниковская, д.9/11, стр.1",(495) 912-56-10,Государственное бюджетное общеобразовательное учреждение города Москвы «Открытая (сменная) школа № 88»,бюджетное,Маслова Валентина Михайловна,37.6810701733,55.7368488966
125,Таганский район,"105120, г. Москва, Б.Полуярославский пер., д.7/4, стр.1-1А",(495) 916-18-86,Государственное бюджетное общеобразовательное учреждение города Москвы «Лицей № 1581»,бюджетное,Тверской Александр Сергеевич,37.6624272107,55.7530353541
126,район Старое Крюково,"124575, г. Москва, Зеленоград, площадь Колумба, д. 1",(499) 731-14-61,Государственное бюджетное образовательное учреждение дополнительного образования города Москвы «Зеленоградский дворец творчества детей и молодежи»,бюджетное,Сурначева Маргарита Александровна,37.1888768041,55.9882147671
127,район Дорогомилово,"121170, г. Москва, ул.Дениса Давыдова, д.5",(000) 000-00-00,Государственное бюджетное общеобразовательное учреждение города Москвы «Школа № 1726»,бюджетное,Золотарева Ольга Анатольевна,37.5208313032,55.7422784983
128,район Ново-Переделкино,"119634, г. Москва, ул.Шолохова, д.20",(495) 733-52-10,Государственное бюджетное общеобразовательное учреждение города Москвы «Школа № 1018»,бюджетное,Головин Алексей Дмитриевич,37.3526624792,55.6434519871
129,Красносельский район,"101000, г. Москва, Уланский пер., д.8",(495) 625-24-53,Государственное бюджетное общеобразовательное учреждение города Москвы «Школа с углубленным изучением английского языка № 1284»,бюджетное,Артемова Светлана Юрьевна,37.6375325104,55.7696037686
130,район Люблино,"109387, г. Москва, ул. Краснодарская, дом 9",(495) 350-86-62,Государственное бюджетное общеобразовательное учреждение города Москвы «Школа № 1143»,бюджетное,Стельмах Надежда Федоровна,37.7426958323,55.6788421921
131,район Марьино,"109451, г. Москва, ул. Белореченская, д. 45, к. 2",(495) 654-98-82,Государственное бюджетное общеобразовательное учреждение города Москвы «Школа № 1989 «Центр образования»,бюджетное,Серегина Ирина Викторовна,37.778384672,55.663498696
132,Ломоносовский район,"119313, г. Москва, ул. Вавилова, д. 84, корп. 2",(499) 134-30-07,Государственное бюджетное общеобразовательное учреждение города Москвы «Школа № 58»,бюджетное,Ветрова Ольга Игоревна,37.5407294058,55.6786916561
133,район Вешняки,"111538, г. Москва, ул. Косинская, д.24А",(495) 375-70-02,Государственное бюджетное общеобразовательное учреждение города Москвы «Гимназия № 1512»,бюджетное,Комзолов Павел Вячеславович,37.8241955682,55.7178129777
134,Тимирязевский район,"127206, г. Москва, ул. Вучетича, д.6",(495) 611-00-43,Государственное бюджетное общеобразовательное учреждение города Москвы «Школа № 216»,бюджетное,Жарикова Наталья Владимировна,37.5604876721,55.8086378644
135,район Новокосино,"111673, г. Москва, ул. Суздальская, д. 12В, стр. 1.",(495) 702-66-20,Государственное бюджетное общеобразовательное учреждение города Москвы «Школа № 2128 «Энергия»,бюджетное,Фролов Константин Александрович,37.8524585302,55.7391727344
136,район Бибирево,"127543, г. Москва, Белозерская ул., д.12",(499) 207-23-00,Государственное бюджетное общеобразовательное учреждение города Москвы «Государственная столичная гимназия»,бюджетное,Патрикеева Ирина Джолдошевна,37.5904884227,55.9006542597
137,Басманный район,"105064, г. Москва, Б. Казенный пер., д. 9",(495) 624-77-68,Государственное бюджетное общеобразовательное учреждение города Москвы «Школа № 2095 «Покровский квартал»,бюджетное,Новокрещенов Илья Владимирович,37.6357861034,55.7599337625
138,район Соколиная Гора,"107023, г. Москва, Нижний Журавлёв переулок, д.3",(499) 369-09-55,Государственное бюджетное общеобразовательное учреждение города Москвы «Школа с углубленным изучением экологии № 446»,бюджетное,Шахурина Ирина Ивановна,37.7058790498,55.7839631725
139,район Лефортово,"111024, г. Москва, Авиамоторная ул., д. 30а корп.1",(495) 673-32-03,Государственное бюджетное общеобразовательное учреждение города Москвы «Школа № 1321 «Ковчег»,бюджетное,Реуэль Роман Абрамович,37.7189981488,55.7508628817
140,район Матушкино,"124460, г. Москва, Зеленоград, проспект Генерала Алексеева, дом 38",(499) 736-56-03,Государственное бюджетное профессиональное образовательное учреждение города Москвы «Политехнический колледж № 50»,бюджетное,Бучкин Андрей Владимирович,37.1969160176,55.9747507679
141,Таганский район,"109240, г. Москва, ул. Солянка, д. 14 А",(495) 623-74-93,Государственное бюджетное общеобразовательное учреждение города Москвы «Школа межкультурных коммуникаций № 1650»,бюджетное,Цацурова Тереза Агасиевна,37.6373516996,55.7523968097
142,район Нагатинский Затон,"115142, г. Москва, Кленовый б-р, д.21",(499) 614-50-94,Государственное бюджетное образовательное учреждение города Москвы лицей № 1523,бюджетное,Пастухов Андрей Борисович,37.6816801101,55.6771590752
143,Донской район,"121151, г. Москва, Резервный проезд, д. 10",(495) 954-47-47,Государственное бюджетное общеобразовательное учреждение города Москвы «Центр образования «Технологии обучения»,бюджетное,Ездов Александр Анатольевич,37.601546536,55.7015977899
144,район Вешняки,"111395, г. Москва, ул. Молдагуловой, дом 6 А",(499) 374-11-31,Государственное казенное общеобразовательное учреждение города Москвы «Специальная (коррекционная) общеобразовательная школа-интернат № 31»,казённое,Бегун Виталий Викторович,37.8097030132,55.7267734464
145,район Косино-Ухтомский,"111625, г. Москва, ул. Златоустовская, д. 3",(495) 700-45-40,Государственное бюджетное общеобразовательное учреждение города Москвы «Центр образования № 1602»,бюджетное,Аникина Ирина Леонидовна,37.8650211105,55.7044857868
146,Нагорный район,"117452, г. Москва, Чонгарский б-р, д.17",(499) 610-04-69,Государственное бюджетное общеобразовательное учреждение города Москвы «Школа № 2016»,бюджетное,Черникова Светлана Алексеевна,37.6085833229,55.6523006644
147,район Аэропорт,"125319, г. Москва, ул.Усиевича, д.6",(499) 151-99-82,Государственное бюджетное общеобразовательное учреждение города Москвы «Лицей № 1575»,бюджетное,Боброва Ирина Ивановна,37.5466247534,55.8015101455
148,район Москворечье-Сабурово,"115409, г. Москва, Пролетарский пр-кт, д.7, корп.3",(499) 324-94-87,Государственное бюджетное общеобразовательное учреждение города Москвы «Гимназия № 1579»,бюджетное,Кудинова Марина Феликсовна,37.6594316065,55.6467909356
149,район Царицыно,"115516, г. Москва, ул. Бехтерева, д.51",(495) 321-96-10,Государственное бюджетное общеобразовательное учреждение города Москвы «Специальная (коррекционная) школа № 869»,бюджетное,Фомичева Наталья Алексеевна,37.64728084,55.6157521733
150,Тверской район,"125047, г. Москва, ул.Александра Невского, д.4",(499) 251-90-21,Государственное бюджетное образовательное учреждение дополнительного образования города Москвы «Дворец творчества детей и молодёжи на Миуссах»,бюджетное,Новикова Елена Викторовна,37.5922813631,55.7771546455
151,район Марфино,"127276, г. Москва, ул. Малая Ботаническая, д. 24б",(495) 618-81-56,Государственное бюджетное общеобразовательное учреждение города Москвы «Кадетская школа-интернат № 6 «Московский Георгиевский кадетский корпус»,бюджетное,Закирова Татьяна Михайловна,37.5830598304,55.8326200615
152,Головинский район,"125413, г. Москва, ул. Зеленоградская, д. 9",(495) 453-01-50,Государственное бюджетное общеобразовательное учреждение города Москвы «Кадетская школа № 1702 «Петровский кадетский корпус»,бюджетное,Збойкова Маргарита Васильевна,37.5150121218,55.8647648246
153,район Арбат,"121002, г. Москва, Сивцев Вражек пер., д.18",(499) 978-97-58,Государственное бюджетное общеобразовательное учреждение города Москвы «Школа № 1331 «Молодая Иверия»,бюджетное,Перекрест Екатерина Павловна,37.5940771912,55.7482006816
154,Южнопортовый район,"115088, г. Москва, ул. Новоостаповская, д. 10",(495) 674-46-11,Государственное бюджетное образовательное учреждение дополнительного образования города Москвы «Центр творческого развития и гуманитарного образования «Экономика-культура-образование»,бюджетное,Рукавишникова Елена Валентиновна,37.6697749689,55.7180040391
155,Рязанский район,"109125, г. Москва, Васильцовский переулок, д. 1",(499) 796-22-60,Государственное бюджетное общеобразовательное учреждение города Москвы «Школа с углубленным изучением предметов социального профиля № 1386»,бюджетное,Брылева Ирина Юрьевна,37.7487955308,55.7165334266
156,Басманный район,"107078, г. Москва, Новорязанская ул., д. 14, стр. 1",(499) 267-81-74,Государственное бюджетное профессиональное образовательное учреждение города Москвы колледж легкой промышленности,бюджетное,Прохорова Татьяна Викторовна,37.6885425181,55.7780489463
157,район Солнцево,"119618, г. Москва, ул.Главмосстроя, д.28",(495) 435-87-52,Государственное бюджетное общеобразовательное учреждение города Москвы «Школа с углубленным изучением иностранного языка и информационных технологий № 1347»,бюджетное,Задорожная Елена Анатольевна,37.4049902185,55.6549447109
158,район Митино,"125430, г. Москва, Пятницкое шоссе, д. 25, корп. 3",(495) 753-18-11,Государственное бюджетное общеобразовательное учреждение города Москвы «Школа № 1190»,бюджетное,Аниканова Елена Михайловна,37.366279289,55.8470981104
159,район Люблино,"109382, г. Москва, ул. Краснодонская, д. 40",(495) 351-00-00,Государственное бюджетное общеобразовательное учреждение города Москвы «Школа № 1877 «Люблино»,бюджетное,Ибрагимова Ирина Юрьевна,37.7458627733,55.6678940246
160,Дмитровский район,"127411, г. Москва, Дмитровское шоссе, дом 137А",(499) 489-30-76,Государственное бюджетное общеобразовательное учреждение города Москвы «Школа № 1631»,бюджетное,Нилова Вера Андреевна,37.5392436858,55.896479696
161,район Текстильщики,"109129, г. Москва, 11-я ул. Текстильщиков, дом 6",(499) 178-15-12,Государственное бюджетное общеобразовательное учреждение города Москвы «Школа № 484 имени дважды Героя Советского Союза В.И.Попкова»,бюджетное,Федечкина Светлана Петровна,37.7418443232,55.7062978149
162,район Марьино,"109469, г. Москва, ул. Белореченская, д. 47, корп. 1",(495) 346-30-01,Государственное бюджетное общеобразовательное учреждение города Москвы «Лицей № 1547»,бюджетное,Баринов Андрей Юрьевич,37.7769141014,55.6621737884
163,Таганский район,"109544, г. Москва, ул.Рабочая, д.30, стр.1",(495) 678-00-94,Государственное бюджетное образовательное учреждение дополнительного образования города Москвы «Дом детского творчества на Таганке»,бюджетное,Богачева Алла Ивановна,37.6849896119,55.7424112909
164,район Люблино,"109559, г. Москва, ул. Верхние поля, д. 47, корпус 1",(499) 741-78-40,Государственное бюджетное общеобразовательное учреждение города Москвы «Школа № 2012 «Миротворец»,бюджетное,Мягкова Анна Павловна,37.7793317132,55.6674649857
165,район Орехово-Борисово Северное,"115563, г. Москва, Борисовский пр., д.40, корп.2",(495) 394-23-00,Государственное бюджетное общеобразовательное учреждение города Москвы «Школа № 939»,бюджетное,Сухоносова Елена Николаевна,37.7258991228,55.6165636223
166,район Выхино-Жулебино,"109507, г. Москва, Ферганский проезд, д. 10, корпус 5",(495) 377-47-06,Государственное бюджетное общеобразовательное учреждение города Москвы «Школа с углубленным изучением отдельных предметов № 1393 «Школа РОСТ»,бюджетное,Субботина Ирина Николаевна,37.8199836052,55.6979541194
167,район Сокол,"125080, г. Москва, ул. Врубеля, д.6",(499) 198-54-51,Государственное бюджетное общеобразовательное учреждение города Москвы «Школа № 149 имени Героя Советского Союза Ю.Н. Зыкова»,бюджетное,Ларин Алексей Николаевич,37.5005904926,55.8008462953
168,район Восточное Измайлово,"105203, г. Москва, улица 14-я Парковая, д. 4 Б",(495) 465-45-53,Государственное бюджетное профессиональное образовательное учреждение города Москвы «Экономико-технологический колледж № 22»,бюджетное,Барышев Алексей Сергеевич,37.8138703426,55.7939460614
169,район Щукино,"123098, г. Москва, ул. Гамалеи, д. 17, корп. 1",(499) 196-64-18,Государственное бюджетное общеобразовательное учреждение города Москвы «Школа с углубленным изучением английского языка № 1210»,бюджетное,Сехин Сергей Сергеевич,37.4572079313,55.8003788243
170,район Коптево,"125239, г. Москва, ул.Михалковская, д.13А",(499) 154-63-51,Государственное бюджетное общеобразовательное учреждение города Москвы «Школа № 1223 «Лингвистический центр»,бюджетное,Романова Людмила Васильевна,37.5269561172,55.8386239947
171,Головинский район,"125413, г. Москва, Солнечногорский проезд, д. 7",(000) 000-00-00,Государственное бюджетное общеобразовательное учреждение города Москвы «Школа № 1159»,бюджетное,Дубовицкая Людмила Николаевна,37.5101929431,55.8623111829
172,Можайский район,"121471, г. Москва, Можайское ш., д.18, корп.2",(495) 446-26-75,Государственное бюджетное общеобразовательное учреждение города Москвы «Школа № 587»,бюджетное,Тихомирова Екатерина Сергеевна,37.4287829716,55.7218152616
173,район Чертаново Северное,"117587, г. Москва, ул.Кировоградская, д.8Г",(495) 312-92-90,Государственное бюджетное общеобразовательное учреждение города Москвы «Школа № 851»,бюджетное,Ляликова Надежда Константиновна,37.6102677125,55.62979135
174,район Щукино,"123060, г. Москва, ул. Маршала Рыбалко, д. 14",(499) 194-11-44,Государственное бюджетное общеобразовательное учреждение города Москвы «Немецкая школа № 1212»,бюджетное,Ким Мария Валерьевна,37.4869079539,55.7993442066
175,район Филёвский Парк,"121601, г. Москва, Филевский бульвар, д.3, стр.1",(495) 738-60-64,Государственное бюджетное общеобразовательное учреждение города Москвы «Школа № 1114»,бюджетное,Ястребова Александра Петровна,37.4846347397,55.7648469384
176,район Крылатское,"121614, г. Москва, ул.Крылатская, д.25",(495) 413-33-32,Государственное бюджетное общеобразовательное учреждение города Москвы «Школа № 1471»,бюджетное,Шушковская Алла Абрамовна,37.413960631,55.7709766454
177,район Ясенево,"117574, г. Москва, улица Голубинская, дом 5, корпус 4",(495) 421-47-88,Государственное бюджетное образовательное учреждение города Москвы средняя общеобразовательная школа № 2103,бюджетное,Ильина Наталья Павловна,37.5209324818,55.6074893697
178,район Южное Тушино,"125363, г. Москва, ул. Аэродромная, д. 9",(495) 948-63-00,Государственное бюджетное общеобразовательное учреждение города Москвы «Школа № 2097»,бюджетное,Пискарева Галина Викторовна,37.4212360679,55.8475656645
179,район Покровское-Стрешнево,"125362, г. Москва, ул. Вишневая, д. 20, корп. 1",(495) 490-28-81,Государственное бюджетное общеобразовательное учреждение города Москвы «Школа с углублённым изучением английского языка № 1285»,бюджетное,Алпатова Ярослава Дмитриевна,37.4503815353,55.8261988032
180,район Очаково-Матвеевское,"119361, г. Москва, ул. Б.Очаковская, д.42, корпус 2.",(495) 430-66-18,Государственное бюджетное общеобразовательное учреждение города Москвы «Школа № 2025»,бюджетное,Малахова Ирина Алексеевна,37.4556478125,55.6756689741
181,Пресненский район,"123056, г. Москва, Б.Кондратьевский пер., д.3",(499) 252-26-24,Государственное бюджетное общеобразовательное учреждение города Москвы «Школа № 1240 «Мультипрофильный образовательный комплекс «Пресненский»,бюджетное,Щипкова Татьяна Юрьевна,37.5693318843,55.767556976
182,район Вешняки,"111402, г. Москва, ул. Кетчерская, д.8А",(495) 370-56-10,Государственное бюджетное общеобразовательное учреждение города Москвы «Вешняковская лингвистическая гимназия № 1389»,бюджетное,Кругляков Константин Михайлович,37.8280901824,55.7427569664
183,Алтуфьевский район,"127410, г. Москва, Путевой проезд, дом 10 ""А""",(499) 900-90-30,Государственное бюджетное образовательное учреждение города Москвы средняя общеобразовательная школа № 305,бюджетное,Иванова Ольга Владимировна,37.5731377912,55.881879139
184,район Филёвский Парк,"121096, г. Москва, ул. Кастанаевская, д.10",(499) 142-05-84,Государственное бюджетное общеобразовательное учреждение города Москвы «Школа № 590»,бюджетное,Беспалов Алексей Викторович,37.495949209,55.7406956764
185,район Ясенево,"117593, г. Москва, Литовский бульвар, дом 17, корпус 4",(495) 426-85-01,Государственное бюджетное общеобразовательное учреждение города Москвы «Школа № 1103 имени Героя Российской Федерации А.В. Соломатина»,бюджетное,Сокур Мария Евгеньевна,37.5523023077,55.6043059014
186,район Хамовники,"119121, г. Москва, ул.Тимура Фрунзе, д.28",(499) 246-77-62,Государственное бюджетное профессиональное образовательное учреждение города Москвы «Политехнический техникум № 2»,бюджетное,Петрушкевич Алексей Вадимович,37.5672649416,55.7344537292
187,район Царицыно,"115304, г. Москва, ул.Ереванская, д.20, к.2",(499) 320-48-27,Государственное бюджетное общеобразовательное учреждение города Москвы «Школа с углубленным изучением отдельных предметов № 1466 имени Надежды Рушевой»,бюджетное,Чугунова Татьяна Станиславовна,37.6768453536,55.6320126068
188,Гагаринский район,"119296, г. Москва, Университетский проспект, дом 5",(495) 930-62-30,Государственное бюджетное общеобразовательное учреждение города Москвы «Школа № 2086»,бюджетное,Орлова Елена Владиславовна,37.5459372852,55.6906884052
189,Ломоносовский район,"119311, г. Москва, ул.Крупской, д.12",(499) 133-67-77,Государственное бюджетное образовательное учреждение города Москвы гимназия № 1514,бюджетное,Белова Анна Викторовна,37.5270225898,55.6850460659
190,район Раменки,"119285, г. Москва, ул.Пырьева, д.11",(499) 143-09-95,Государственное бюджетное образовательное учреждение города Москвы средняя общеобразовательная школа № 74,бюджетное,Афанасьев Александр Николаевич,37.5228755271,55.7282480165
191,район Кунцево,"121552, г. Москва, ул.Оршанская, д. 14, строения 1,2,3",(499) 141-45-01,Государственное казенное общеобразовательное учреждение города Москвы «Кадетская школа-интернат № 11 «Московский дипломатический кадетский корпус»,бюджетное,Бацюсь Василий Тимофеевич,37.4084479799,55.7417070954
192,район Северное Тушино,"125481, г. Москва, ул. Фомичевой, д. 1, корп. 1",(000) 000-00-00,Государственное бюджетное общеобразовательное учреждение города Москвы «Лицей № 1571»,бюджетное,Варгамян Марина Викторовна,37.4386661767,55.8601333987
193,район Савёлки,"124482, г. Москва, Зеленоград, корп. 314",(499) 734-16-54,Государственное бюджетное общеобразовательное учреждение города Москвы «Школа № 609»,бюджетное,Шкутова Светлана Викторовна,37.2163782237,55.9945999698
194,район Фили-Давыдково,"121352, г. Москва, ул.Кременчугская, д.46",(499) 445-06-64,Государственное бюджетное общеобразовательное учреждение города Москвы «Школа № 97»,бюджетное,Мальчевская Ирина Витальевна,37.4580000191,55.6943414838
195,Нижегородский район,"109052, г. Москва, ул.Нижегородская, д.64",(495) 676-78-61,Государственное бюджетное общеобразовательное учреждение города Москвы «Школа № 1222 имени Маршала Советского Союза И.Х. Баграмяна»,бюджетное,Пузанова Надежда Даниловна,37.7203580101,55.7335459935
196,район Лефортово,"111024, г. Москва, Авиамоторная ул, д.42",(495) 673-10-64,Государственное бюджетное общеобразовательное учреждение города Москвы «Школа с углубленным изучением английского языка № 1228»,бюджетное,Зинкевич Ирина Витальевна,37.70799348,55.7637955558
197,район Метрогородок,"107143, г. Москва, Открытое шоссе, д. 23А",(499) 167-60-45,Государственное бюджетное общеобразовательное учреждение города Москвы «Лицей № 1795 «Лосиноостровский»,бюджетное,Сетежева Валентина Валериевна,37.7545583679,55.8265110789
198,район Люблино,"109559, г. Москва, ул. Белореченская, д. 8",(495) 359-67-01,Государственное бюджетное общеобразовательное учреждение города Москвы «Лицей № 2010 имени Героя Советского Союза М.П. Судакова»,бюджетное,Бронзес Татьяна Евгеньевна,37.7502203748,55.671001142
199,район Богородское,"107258, г. Москва, ул. 3-я Гражданская, д.64",(495) 964-88-01,Государственное бюджетное общеобразовательное учреждение города Москвы «Гимназия № 1797 «Богородская»,бюджетное,Евдокимов Евгений Олегович,37.7091583527,55.8074581764
200,Обручевский район,"119421, г. Москва, ул.Новаторов, д.34, корп.1",(499) 739-84-89,Государственное бюджетное общеобразовательное учреждение города Москвы «Школа № 9»,бюджетное,Сахарова Ирина Николаевна,37.5231480418,55.6633747587
201,Донской район,"109443, г. Москва, Есенинский бульвар, дом 12, корпус 2",(499) 127-14-65,Государственное бюджетное учреждение города Москвы «Городской психолого-педагогический центр Департамента образования города Москвы»,бюджетное,Олтаржевская Любовь Евгеньевна,37.5162805388,55.6089576256
202,район Кузьминки,"109457, г. Москва, ул. Федора Полетаева, д.2, корп.7",(499) 175-83-16,Государственное бюджетное профессиональное образовательное учреждение города Москвы «Педагогический колледж № 10»,бюджетное,Зимнухова Татьяна Юрьевна,37.7701240958,55.7136160034
203,район Марьино,"109369, г. Москва, ул. Перерва, дом 44",(495) 349-12-61,Государственное бюджетное общеобразовательное учреждение города Москвы «Школа № 2087 «Многопрофильный образовательный комплекс «Открытие»,бюджетное,Спиридонова Елена Сергеевна,37.7360566832,55.6521359613
204,район Раменки,"119607, г. Москва, Мичуринский проспект, д. 23",(495) 931-36-36,Государственное бюджетное общеобразовательное учреждение города Москвы «Школа № 1498 «Московская Международная Школа»,бюджетное,Лукьянова Наталья Геннадьевна,37.5067604195,55.6948175836
205,район Чертаново Центральное,"117519, г. Москва, ул.Чертановская, д.27",(495) 314-62-42,Государственное бюджетное общеобразовательное учреждение города Москвы «Школа № 1173»,бюджетное,Родина Ирина Алексеевна,37.6022625095,55.6156060234
206,район Матушкино,"124482, г. Москва, Зеленоград, корп. 142",(499) 736-00-26,Государственное бюджетное общеобразовательное учреждение города Москвы «Школа № 842»,бюджетное,Макарова Ольга Евгеньевна,37.2119815211,56.0062752268
207,район Люблино,"109380, г. Москва, ул. Степана Шутова, д. 8, кор. 3",(499) 784-02-60,Государственное бюджетное общеобразовательное учреждение города Москвы «Школа № 913 имени Героя Советского Союза С.Ф. Шутова»,бюджетное,Клочихин Михаил Станиславович,37.8102345869,55.6749454434
208,Войковский район,"105425, г. Москва, ул. 5-я Парковая, дом 51",(495) 452-27-84,Государственное бюджетное образовательное учреждение дополнительного профессионального образования города Москвы «Центр военно-патриотического и гражданского воспитания»,бюджетное,Мельниченко Игорь Иннокентьевич,37.6067110973,55.7194166484
209,район Коньково,"117437, г. Москва, ул. Профсоюзная, дом 118-Б",(495) 335-92-77,Государственное бюджетное образовательное учреждение города Москвы средняя общеобразовательная школа № 113,бюджетное,Сухорукова Нина Леонидовна,37.5192772196,55.6405765105
210,район Орехово-Борисово Южное,"115583, г. Москва, ул. Воронежская, д.26, корп.4",(495) 398-50-89,Государственное бюджетное общеобразовательное учреждение города Москвы «Школа № 896»,бюджетное,Матвеенкова Елена Николаевна,37.7345809414,55.6081651794
211,район Левобережный,"125565, г. Москва, ул. Ленинградское шоссе, д. 94а",(499) 457-70-71,Государственное бюджетное общеобразовательное учреждение города Москвы «Школа № 167 имени Маршала Л.А. Говорова»,бюджетное,Момот Карина Робертовна,37.4780280705,55.8619020215
212,район Измайлово,"105043, г. Москва, Первомайская улица, 65",(495) 465-28-11,Государственное бюджетное общеобразовательное учреждение города Москвы «Измайловская гимназия № 1508»,бюджетное,Меламуд Вадим Эмильевич,37.8018974953,55.7964926591
213,район Люблино,"109263, г. Москва, ул. Шкулева, д. 13/25, корп. 2",(499) 178-56-61,Государственное бюджетное профессиональное образовательное учреждение города Москвы «Многопрофильный центр образования»,бюджетное,Востриков Сергей Петрович,37.7422739963,55.6718293762
214,Ярославский район,"129337, г. Москва, ул.Федоскинская, д.4",(499) 182-08-10,Государственное бюджетное общеобразовательное учреждение города Москвы «Школа с углубленным изучением английского языка № 1374»,бюджетное,Бриткевич Маргарита Сергеевна,37.7039575226,55.8706840878
215,район Крюково,"124683, г. Москва, Зеленоград, корп. 1555",(499) 717-92-44,Государственное бюджетное общеобразовательное учреждение города Москвы «Школа № 1739»,бюджетное,Прусакова Татьяна Николаевна,37.1569411877,55.9796355294
216,Академический район,"117036, г. Москва, ул. Гримау, д.8",(499) 126-21-58,Государственное бюджетное общеобразовательное учреждение города Москвы «Гимназия № 45 имени Л.И. Мильграма»,бюджетное,Шнейдер Михаил Яковлевич,37.5863290972,55.6919246775
217,район Крюково,"124683, г. Москва, Зеленоград, корп. 1556",(499) 717-03-67,Государственное бюджетное общеобразовательное учреждение города Москвы «Школа № 1194»,бюджетное,Ващилин Анатолий Сергеевич,37.1571479068,55.982201096
218,район Нагатинский Затон,"115407, г. Москва, ул.Затонная, д.7, корп.3",(499) 618-91-35,Государственное бюджетное общеобразовательное учреждение города Москвы «Школа № 492»,бюджетное,Разоренова Жанна Николаевна,37.6808171635,55.6795729163
219,район Хорошёво-Мнёвники,"123308, г. Москва, ул. Мневники, д. 4",(967) 070-72-98,Государственное бюджетное профессиональное образовательное учреждение города Москвы «Колледж малого бизнеса № 48»,бюджетное,Радов Виктор Петрович,37.5006645129,55.7781894097
220,район Чертаново Северное,"117208, г. Москва, ул.Чертановская, д.1А, корп.3",(495) 316-11-36,Государственное бюджетное общеобразовательное учреждение города Москвы «Школа № 1179»,бюджетное,Холопова Анастасия Николаевна,37.6136124865,55.638191323
221,район Черёмушки,"119421, г. Москва, Ленинский пр-т, д.97, корп.2,3",(499) 120-61-96,Государственное бюджетное общеобразовательное учреждение города Москвы «Специальная (коррекционная) школа-интернат VIII вида № 108»,бюджетное,Бажанова Галина Павловна,37.5249535707,55.6714681014
222,район Арбат,"121069, г. Москва, Большая Молчановка, д. 26-28",(495) 691-64-41,Государственное бюджетное общеобразовательное учреждение города Москвы «Школа с углубленным изучением отдельных предметов № 1234»,бюджетное,Волошко Ирина Григорьевна,37.590129592,55.7537294295
223,район Перово,"111524, г. Москва, ул.Плющева, д.11А",(495) 309-58-47,Государственное бюджетное общеобразовательное учреждение города Москвы «Школа № 2126 «Перово»,бюджетное,Щеголева Наталия Борисовна,37.7589857418,55.743239177
224,район Зябликово,"115573, г. Москва, Ореховый пр., д.17, корп.2",(495) 395-03-77,Государственное бюджетное общеобразовательное учреждение города Москвы «Школа № 534»,бюджетное,Шестакова Дина Валентиновна,37.7387023914,55.6232495017
225,район Марьино,"107341, г. Москва, Перервинский бульвар, д. 16, корп. 1",(495) 346-45-51,Государственное бюджетное общеобразовательное учреждение города Москвы школа № 1959 «Дети мира»,бюджетное,Асирян Михаил Армаисович,37.7686080446,55.6556269044
226,район Печатники,"109548, г. Москва, ул. Полбина, д. 18",(495) 353-50-38,Государственное бюджетное общеобразовательное учреждение города Москвы «Школа № 773 «Центр образования «Печатники»,бюджетное,Соловьев Андрей Сергеевич,37.7293088246,55.6882615634
227,Нагорный район,"117452, г. Москва, Черноморский б-р, д.6",(499) 610-77-66,Государственное бюджетное общеобразовательное учреждение города Москвы «Школа № 1862»,бюджетное,Ульянов Александр Ильич,37.6177019279,55.6508094721
228,район Нагатинский Затон,"115470, г. Москва, Судостроительная ул., д.10, корп.1",(499) 612-34-19,Государственное бюджетное общеобразовательное учреждение города Москвы «Школа № 463 имени Героя Советского Союза Д.Н.Медведева»,бюджетное,Рузина Лидия Владимировна,37.6739547616,55.6781147638
229,Пресненский район,"123100, г. Москва, ул.2-я Черногрязская, д.7",(499) 256-37-65,Государственное бюджетное общеобразовательное учреждение города Москвы «Школа № 2055 имени Героев Советского Союза Анатолия Живова и Юрия Костикова»,бюджетное,Шелкова Наталия Михайловна,37.5380689499,55.7635147632
230,район Котловка,"117036, г. Москва, улица Дмитрия Ульянова, дом 26",(499) 127-69-95,Государственное бюджетное профессиональное образовательное учреждение города Москвы «Образовательный комплекс «Юго-Запад»,бюджетное,Мадилов Сергей Павлович,37.5508659584,55.687717793
231,район Братеево,"115612, г. Москва, ул.Братеевская, д.8, корп.2",(495) 342-33-00,Государственное бюджетное общеобразовательное учреждение города Москвы «Школа № 1034»,бюджетное,Уколова Елена Васильевна,37.7592788474,55.6320072309
232,район Восточное Дегунино,"127540, г. Москва, Керамический пр. д. 47А",(499) 900-00-98,Государственное бюджетное общеобразовательное учреждение города Москвы «Школа с углубленным изучением отдельных предметов № 1794»,бюджетное,Грива Игорь Анатольевич,37.5652323979,55.8739378635
233,Алексеевский район,"129626, г. Москва, ул.Павла Корчагина, д.18",(495) 683-10-38,Государственное бюджетное общеобразовательное учреждение города Москвы «Гимназия № 1503»,бюджетное,Цимбалюк Стелла Николаевна,37.6623166734,55.8185772468
234,район Ясенево,"119334, г. Москва, ул. Косыгина, д.17",(495) 426-31-88,Государственное бюджетное профессиональное образовательное учреждение города Москвы «Воробьевы горы»,бюджетное,Шашков Андрей Анатольевич,37.5509937522,55.6967046906
235,район Братеево,"115408, г. Москва, ул.Алма-Атинская д.9, корп.3",(495) 341-83-77,Государственное бюджетное общеобразовательное учреждение города Москвы «Школа № 975»,бюджетное,Чинилина Ирина Викторовна,37.774141845,55.6401977519
236,район Южное Бутово,"117041, г. Москва, ул. Адмирала Лазарева, д. 62, корп.2",(495) 714-20-09,Государственное бюджетное общеобразовательное учреждение города Москвы «Школа № 1492»,бюджетное,Аникина Татьяна Ивановна,37.5049988883,55.5399225198
237,район Кузьминки,"109457, г. Москва, ул.Зеленодольская, д.32, корп.6",(499) 172-06-05,Государственное бюджетное общеобразовательное учреждение города Москвы «Лицейско-гимназический комплекс на Юго-Востоке»,бюджетное,Инглези Алла Александровна,37.7642134456,55.7119129571
238,район Выхино-Жулебино,"109542, г. Москва, Рязанский проспект, д. 82, корп. 4",(495) 372-05-22,Государственное бюджетное общеобразовательное учреждение города Москвы «Школа с углубленным изучением отдельных предметов № 1363»,бюджетное,Лавриненко Елена Валерьевна,37.8145848433,55.7095074816
239,Бескудниковский район,"127474, г. Москва, Дубнинская улица, дом 41",(499) 488-00-85,Государственное бюджетное общеобразовательное учреждение города Москвы «Школа № 183»,бюджетное,Исаева Елена Валентиновна,37.552369425,55.8754263998
240,Лосиноостровский район,"129346, г. Москва, Янтарный пр., д.2",(495) 474-27-62,Государственное бюджетное общеобразовательное учреждение города Москвы «Школа с углубленным изучением английского языка № 1381»,бюджетное,Одегова Галина Николаевна,37.704332853,55.8856475972
241,район Зюзино,"117149, г. Москва, улица Азовская, дом 2, корпус 2",(495) 123-65-15,Государственное бюджетное общеобразовательное учреждение города Москвы «Школа с углубленным изучением английского языка № 1279»,бюджетное,Анисимова Раиса Алексеевна,37.594767696,55.6577018746
242,район Преображенское,"107076, г. Москва, 1-й Зборовский переулок, д. 3",(495) 651-92-95,Государственное автономное образовательное учреждение дополнительного профессионального образования города Москвы «Московский центр технологической модернизации образования»,бюджетное,Добряков Александр Анатольевич,37.7054207525,55.8004734013
243,район Тёплый Стан,"117133, г. Москва, ул.Академика Варги, д.34",(495) 339-39-66,Государственное бюджетное общеобразовательное учреждение города Москвы «Школа № 1101»,бюджетное,Варлен Нина Витальевна,37.4725766659,55.6333113338
244,Донской район,"115419, г. Москва, ул. Академика Петровского, д.10",(499) 236-42-83,Государственное бюджетное профессиональное образовательное учреждение города Москвы «Строительный техникум № 30»,бюджетное,Востриков Сергей Петрович,37.6424822035,55.5939671253
245,район Южное Бутово,"117624, г. Москва, ул.Скобелевская, д.28",(495) 716-78-18,Государственное бюджетное общеобразовательное учреждение города Москвы «Школа № 1065»,бюджетное,Мухаметзянова Мария Алексеевна,37.5539962664,55.5449899628
246,район Арбат,"121069, г. Москва, ул. Поварская, д. 14",(000) 000-00-00,Государственное бюджетное общеобразовательное учреждение города Москвы «Школа № 91»,бюджетное,Красавина Наталия Ювенальевна,37.5962916523,55.7541416951
247,Даниловский район,"115162, г. Москва, г, Хавская ул, 5",(000) 000-00-00,Государственное бюджетное общеобразовательное учреждение города Москвы «Школа № 600»,бюджетное,Толкачева Ирина Ашеровна,37.6139559968,55.7179257298
248,район Чертаново Северное,"117648, г. Москва, микрорайон Северное Чертаново корп. 809",(495) 311-35-03,Государственное бюджетное общеобразовательное учреждение города Москвы «Лицей № 1158»,бюджетное,Киркова Татьяна Григорьевна,37.5876269427,55.6321668988
249,район Зюзино,"117303, г. Москва, ул. Одесская, дом 16, корп. 2",(499) 723-10-09,Государственное бюджетное общеобразовательное учреждение города Москвы «Школа с углубленным изучением восточных языков № 2042 имени Лазаревых»,бюджетное,Галоян Седа Вагановна,37.5884594631,55.6567414003
250,район Гольяново,"107497, г. Москва, ул. Новосибирская, д. 3 А",(495) 468-46-11,Государственное бюджетное общеобразовательное учреждение города Москвы «Школа № 1076»,бюджетное,Рощина Наталья Анатольевна,37.8187232379,55.8136595212
251,район Южное Медведково,"127642, г. Москва, улица Заповедная, дом 22",(499) 186-38-92,Государственное бюджетное общеобразовательное учреждение города Москвы «Школа № 956»,бюджетное,Балакирева Елена Натановна,37.6428996781,55.8680120258
252,район Восточный,"105173, г. Москва, пос. Акулово, д. 43А",(495) 617-63-84,Государственное бюджетное общеобразовательное учреждение города Москвы «Школа № 448»,бюджетное,Яшина Нина Владимировна,37.7927941449,56.0034099463
253,район Митино,"125368, г. Москва, ул. Барышиха, д. 17, корп. 1",(495) 754-14-61,Государственное бюджетное общеобразовательное учреждение города Москвы «Школа с углубленным изучением английского языка № 1944»,бюджетное,Соловатова Анися Хайдеровна,37.3438668438,55.8466981818
254,район Бирюлёво Восточное,"115404, г. Москва, ул.Липецкая, д.2, корп.13",(495) 327-50-91,Государственное бюджетное профессиональное образовательное учреждение города Москвы «Финансовый колледж № 35»,бюджетное,Иванова Елена Анатольевна,37.6678679523,55.6050634593
255,район Строгино,"123592, г. Москва, ул. Кулакова, д.12, к. 2",(495) 758-27-27,Государственное бюджетное общеобразовательное учреждение города Москвы «Школа № 89 имени А.П. Маресьева»,бюджетное,Докалюк Светлана Николаевна,37.3938252193,55.8095001321
256,район Отрадное,"127566, г. Москва, Северный бульвар, д. 1 а",(000) 000-00-00,Государственное бюджетное общеобразовательное учреждение города Москвы «Школа с углубленным изучением английского языка № 1411»,бюджетное,Овчинникова Нина Николаевна,37.6089222999,55.8691013391
257,Дмитровский район,"127644, г. Москва, Вагоноремонтная улица, дом 15-А",(495) 485-12-11,Государственное бюджетное общеобразовательное учреждение города Москвы «Школа № 668 имени Героя Советского Союза В.П. Кислякова»,бюджетное,Нилова Вера Андреевна,37.5272006918,55.8941916661
258,район Ховрино,"125502, г. Москва, Петрозаводская ул., д. 19А",(499) 459-58-57,Государственное бюджетное образовательное учреждение города Москвы средняя общеобразовательная школа № 597,бюджетное,Зайцева Елена Вениаминовна,37.4904862095,55.8638859276
259,район Капотня,"109649, г. Москва, Капотня, 5 Квартал, д. 28",(495) 355-41-11,Государственное бюджетное общеобразовательное учреждение города Москвы «Школа № 1996»,бюджетное,Адамич Анжела Витальевна,37.7939830652,55.6347606233
260,район Силино,"124575, г. Москва, Зеленоград, корп. 1016",(499) 731-77-01,Государственное бюджетное общеобразовательное учреждение города Москвы «Школа № 1692»,бюджетное,Ясинова Анна Владимировна,37.1742005606,55.9884167057
261,район Тропарёво-Никулино,"119602, г. Москва, ул.Никулинская, д.5",(499) 792-03-01,Государственное бюджетное общеобразовательное учреждение города Москвы «Школа № 1741»,бюджетное,Панкин Павел Павлович,37.4524931828,55.6666105339
262,район Москворечье-Сабурово,"115522, г. Москва, ул.Кантемировская, д.22, корп.6",(499) 324-61-45,Государственное бюджетное общеобразовательное учреждение города Москвы «Школа № 2000»,бюджетное,Шмачкова Татьяна Михайловна,37.6518836043,55.6433574277
263,район Сокол,"125252, г. Москва, ул. Сальвадора Альенде, д. 9",(499) 157-67-12,Государственное бюджетное общеобразовательное учреждение города Москвы «Школа с углубленным изучением французского языка № 1251 имени генерала Шарля де Голля»,бюджетное,Кравец Татьяна Викторовна,37.5069552268,55.7943770828
264,район Хамовники,"119034, г. Москва, 2-й Обыденский пер., д.9",(495) 637-76-15,Государственное бюджетное образовательное учреждение города Москвы гимназия № 1529 имени А.С.Грибоедова,бюджетное,Соловьева Марина Анатольевна,37.5955286719,55.7472744346
265,район Митино,"125464, г. Москва, Новотушинский проезд, д. 8, корп. 2",(495) 759-37-76,Государственное бюджетное общеобразовательное учреждение города Москвы «Гимназия № 1538»,бюджетное,Мухина Наталья Борисовна,37.386426946,55.8427497601
266,район Братеево,"115612, г. Москва, ул.Ключевая, д.6, корп.2",(495) 342-51-51,Государственное бюджетное общеобразовательное учреждение города Москвы «Школа № 867»,бюджетное,Островская Людмила Тихоновна,37.7559561115,55.6375018103
267,район Северное Измайлово,"105425, г. Москва, Щелковское ш., д.26А",(499) 164-47-81,Государственное бюджетное общеобразовательное учреждение города Москвы «Школа с углубленным изучением английского языка № 2033»,бюджетное,Акулова Ирина Анатольевна,37.7798317587,55.8083273471
268,район Москворечье-Сабурово,"115304, г. Москва, ул.Кошкина, д.13, корп.2",(499) 323-00-17,Государственное бюджетное общеобразовательное учреждение города Москвы школа с углубленным изучением отдельных предметов № 982 имени маршала бронетанковых войск П.П. Полубоярова,бюджетное,Мареичева Наталья Александровна,37.6825221321,55.6349330896
269,район Замоскворечье,"115054, г. Москва, ул.Дубининская, д.42",(499) 236-74-10,Государственное бюджетное общеобразовательное учреждение города Москвы «Школа № 627 имени Генерала Д.Д. Лелюшенко»,бюджетное,Павлюченко Людмила Васильевна,37.6277319184,55.7262545065
270,район Марьина Роща,"129226, г. Москва, 2-ой Сельскохозяйственный проезд, д. 4, корп. 1",(495) 618-01-00,Государственное автономное образовательное учреждение высшего образования города Москвы «Московский городской педагогический университет»,автономное,Реморенко Игорь Михайлович,37.5420717667,55.6816812158
271,район Южное Бутово,"117042, г. Москва, улица Поляны, дом 53",(495) 716-19-90,Государственное бюджетное общеобразовательное учреждение города Москвы «Школа № 1883 «Бутово»,бюджетное,Зерниченко Лариса Евгеньевна,37.5533008452,55.544394244
272,район Ново-Переделкино,"119634, г. Москва, ул.Шолохова, д.9",(495) 732-96-80,Государственное бюджетное общеобразовательное учреждение города Москвы «Школа № 1467»,бюджетное,Беляева Татьяна Владимировна,37.3431333906,55.6369989153
273,район Перово,"111141, г. Москва, ул. Перовская, д.37",(495) 306-68-40,Государственное бюджетное общеобразовательное учреждение города Москвы «Школа № 920»,бюджетное,Глушкова Ирина Кузьминична,37.7787743022,55.7486273747
274,район Текстильщики,"109125, г. Москва, ул. Васильцовский стан, д 6.",(499) 754-13-67,Государственное бюджетное общеобразовательное учреждение города Москвы «Лицей № 1367»,бюджетное,Пашков Андрей Анатольевич,37.7378565106,55.7144978954
275,район Лианозово,"127576, г. Москва, улица Угличская, дом 6 А",(499) 200-62-29,Государственное бюджетное общеобразовательное учреждение города Москвы «Центр образования № 1449 имени Героя Советского Союза М.В. Водопьянова»,бюджетное,Быховская Фаина Леонидовна,37.569891081,55.8951649009
276,район Щукино,"123098, г. Москва, ул. Маршала Новикова, д. 13",(499) 193-51-58,Государственное бюджетное общеобразовательное учреждение города Москвы «Школа № 1874»,бюджетное,Овсянникова Татьяна Михайловна,37.4713873732,55.802582806
277,Даниловский район,"115191, г. Москва, ул.Малая Тульская, д.15",(499) 235-74-62,Государственное бюджетное общеобразовательное учреждение города Москвы «Школа № 547»,бюджетное,Белоусова Ольга Андреевна,37.6164104829,55.708654115
278,район Коньково,"117485, г. Москва, Профсоюзная ул., дом 96 Б",(495) 336-65-33,Государственное бюджетное общеобразовательное учреждение города Москвы «Школа № 170 имени А.П.Чехова»,бюджетное,Киселев Виктор Евгеньевич,37.5247570246,55.6512638955
279,район Новогиреево,"111396, г. Москва, Союзный просп., д.2",(495) 303-35-12,Государственное бюджетное образовательное учреждение города Москвы средняя общеобразовательная школа № 2093 имени А.Н. Савельева,бюджетное,Бойко Римма Владимировна,37.8036931536,55.7515519352
280,район Проспект Вернадского,"119415, г. Москва, пр-т Вернадского, д.57",(495) 936-41-20,Государственное бюджетное общеобразовательное учреждение города Москвы «Школа № 323»,бюджетное,Копылова Светлана Викторовна,37.508808734,55.667268053
281,Ломоносовский район,"117335, г. Москва, улица Архитектора Власова, дом 19а",(499) 134-80-21,Государственное бюджетное общеобразовательное учреждение города Москвы «Школа с углубленным изучением иностранных языков № 1205»,бюджетное,Баскаков Андрей Николаевич,37.5585616456,55.6773275506
282,Бескудниковский район,"127474, г. Москва, Бескудниковский бульвар, д. 29",(499) 488-32-75,Государственное бюджетное общеобразовательное учреждение города Москвы «Школа № 656 имени А.С. Макаренко»,бюджетное,Минигалина Анастасия Николаевна,37.5552747357,55.8676424938
283,Таганский район,"109147, г. Москва, Нижегородская улица, дом 3",(495) 623-14-69,Государственное бюджетное учреждение города Москвы «Центр дополнительного образования «Лаборатория путешествий»,бюджетное,Шпаро Матвей Дмитриевич,37.6756053738,55.7394992543
284,район Замоскворечье,"115054, г. Москва, ул.Бахрушина, д.17, стр.1",(495) 951-01-44,Государственное бюджетное образовательное учреждение города Москвы центр детского творчества «Москворечье»,бюджетное,Колиниченко Татьяна Владимировна,37.6358663723,55.7352742993
285,Тимирязевский район,"127411, г. Москва, ул. Учинская, д. 10",(499) 977-45-91,Государственное бюджетное образовательное учреждение дополнительного образования города Москвы «Центр развития творчества детей и юношества «Гермес»,бюджетное,Лыков Алексей Алексеевич,37.5723029633,55.8422252473
286,район Кузьминки,"109462, г. Москва, Волгоградский проспект, д.66, корпус 4",(499) 178-20-71,Государственное бюджетное общеобразовательное учреждение города Москвы «Школа № 641 имени Сергея Есенина»,бюджетное,Голоднова Лариса Васильевна,37.7568069703,55.7047831882
287,Тверской район,"127055, г. Москва, Тихвинский пер., д.3",(499) 978-42-44,Государственное бюджетное общеобразовательное учреждение города Москвы «Многопрофильный лицей № 1501»,бюджетное,Рахимова Наталия Турсуновна,37.5961066181,55.7879633791
288,район Ивановское,"111555, г. Москва, улица Сталеваров, дом 10 А",(495) 300-07-04,Государственное бюджетное общеобразовательное учреждение города Москвы «Гимназия № 1504»,бюджетное,Шарай Надежда Андреевна,37.8380150732,55.7657833447
289,район Орехово-Борисово Северное,"115569, г. Москва, Шипиловский пр-д, д.37, корп.2",(495) 391-94-09,Государственное бюджетное общеобразовательное учреждение города Москвы «Школа № 878»,бюджетное,Сысоева Людмила Анатольевна,37.697836128,55.6140141728
290,Войковский район,"125171, г. Москва, ул. 3-я Радиаторская, д.8А",(499) 150-85-62,Государственное бюджетное общеобразовательное учреждение города Москвы «Школа № 2099»,бюджетное,Брянцева Оксана Николаевна,37.4971778756,55.8163131685
291,район Бирюлёво Западное,"117546, г. Москва, ул. Медынская, д. 9А",(495) 383-78-87,Государственное бюджетное общеобразовательное учреждение города Москвы «Школа № 933»,бюджетное,Абдуллаева Светлана Викторовна,37.6526597469,55.5828397527
292,район Лефортово,"111033, г. Москва, Танковый проезд, д. 3А",(495) 362-22-61,Государственное бюджетное общеобразовательное учреждение города Москвы «Школа с углубленным изучением отдельных предметов № 415»,бюджетное,Говорущенко Матвей Станиславович,37.6772654175,55.7539002418
293,Бабушкинский район,"129344, г. Москва, ул.Радужная, д.7",(495) 471-42-33,Государственное бюджетное общеобразовательное учреждение города Москвы «Школа № 281»,бюджетное,Вологина Елена Станиславовна,37.6772401251,55.8668740739
294,район Очаково-Матвеевское,"119501, г. Москва, ул.Веерная, д.5, корп.3",(495) 442-90-23,Государственное бюджетное общеобразовательное учреждение города Москвы «Школа № 814»,бюджетное,Иванцов Максим Николаевич,37.4620723433,55.7080391816
295,район Дорогомилово,"121059, г. Москва, ул.Брянская, д.10",(499) 240-52-63,Государственное бюджетное общеобразовательное учреждение города Москвы «Школа № 1465 имени адмирала Н.Г. Кузнецова»,бюджетное,Луцишин Артур Васильевич,37.5418198511,55.7420512887
296,район Ново-Переделкино,"119620, г. Москва, ул. Авиаторов, дом 8, корпус 2",(495) 732-94-27,Государственное бюджетное общеобразовательное учреждение города Москвы «Гимназия № 1542»,бюджетное,Сахарова Светлана Николаевна,37.4066601887,55.6407049781
297,район Бирюлёво Восточное,"115372, г. Москва, ул.Лебедянская, д.16",(495) 329-86-60,Государственное бюджетное общеобразовательное учреждение города Москвы «Школа № 947»,бюджетное,Кузина Марина Юрьевна,37.6754609796,55.5824374063
298,Тимирязевский район,"127238, г. Москва, ул.3-й Нижнелихоборский пр-д, д.6А",(499) 488-70-10,Государственное бюджетное общеобразовательное учреждение города Москвы «Школа с углубленным изучением английского языка № 1213»,бюджетное,Селиверстова Анна Евгеньевна,37.5766012993,55.8398036268
299,Войковский район,"125212, г. Москва, Ленинградское шоссе, д. 27",(499) 150-86-68,Государственное бюджетное общеобразовательное учреждение города Москвы «Школа с углубленным изучением английского языка № 1250»,бюджетное,Шевченко Ольга Геннадьевна,37.4853175641,55.8298486328
300,район Некрасовка,"111674, г. Москва, ул.Вольская 1-я, д.22, корп.2",(495) 706-83-33,Государственное бюджетное общеобразовательное учреждение города Москвы «Школа с углубленным изучением отдельных предметов № 1366»,бюджетное,Львова Елена Васильевна,37.9248906621,55.6827780701
301,Ломоносовский район,"117393, г. Москва, ул. Академика Пилюгина, дом 18, корпус 1",(499) 134-45-17,Государственное бюджетное общеобразовательное учреждение города Москвы «Школа № 117»,бюджетное,Бабурина Ирина Алексеевна,37.5378476771,55.6727448499
302,район Царицыно,"115516, г. Москва, ул.Веселая, д.12",(495) 321-16-77,Государственное бюджетное общеобразовательное учреждение города Москвы «Школа № 870»,бюджетное,Поморина Инна Вячеславовна,37.6662994596,55.6204920183
303,район Южное Медведково,"127081, г. Москва, ул.Заповедная, д.12",(499) 477-34-59,Государственное бюджетное образовательное учреждение города Москвы средняя общеобразовательная школа № 1482,бюджетное,Найдина Юлия Анатольевна,37.6356419902,55.8673195939
304,район Марьино,"109652, г. Москва, ул. Люблинская, д. 173А",(495) 345-58-71,Государственное бюджетное общеобразовательное учреждение города Москвы «Школа № 1566 «Марьинская гимназия с кадетскими классами памяти Героев Сталинградской битвы»,бюджетное,Смирнова Татьяна Викторовна,37.75548514,55.6507744128
305,район Митино,"125222, г. Москва, ул. Пенягинская, д. 14",(495) 794-29-90,Государственное бюджетное общеобразовательное учреждение города Москвы «Гимназия № 1544»,бюджетное,Просветова Наталия Федоровна,37.3589603874,55.8366754855
306,район Чертаново Северное,"117208, г. Москва, Сумской пр., д.12, корп.6",(495) 312-55-63,Государственное бюджетное общеобразовательное учреждение города Москвы «Школа № 856»,бюджетное,Щагина Татьяна Владимировна,37.607975873,55.6365631036
307,район Проспект Вернадского,"119415, г. Москва, Проспект Вернадского, д. 55",(499) 432-09-37,Государственное бюджетное общеобразовательное учреждение города Москвы «Гимназия № 1541»,бюджетное,Шамкаева Алла Александровна,37.514321702,55.675270563
308,район Ново-Переделкино,"199633, г. Москва, ул.Новопеределкинская, д.9, корп.1",(495) 733-54-54,Государственное бюджетное общеобразовательное учреждение города Москвы «Школа № 1015»,бюджетное,Чужмарова Тамара Ибрагимовна,37.3605469505,55.6380211803
309,Ломоносовский район,"119331, г. Москва, ул. Крупской, д.9",(499) 138-04-38,Государственное бюджетное общеобразовательное учреждение города Москвы «Специальная (коррекционная) школа № 1708»,бюджетное,Новикова Тамара Никифоровна,37.5274709296,55.6859563986
310,район Северное Бутово,"117628, г. Москва, бульвар Дмитрия Донского, дом 6, корпус 1",(495) 712-08-46,Государственное бюджетное общеобразовательное учреждение города Москвы «Школа № 2114»,бюджетное,Зинин Андрей Сергеевич,37.5666216842,55.5708882771
311,Академический район,"119296, г. Москва, Ломоносовский проспект, дом 16",(499) 125-69-97,Государственное бюджетное общеобразовательное учреждение города Москвы «Лицей № 1533 (информационных технологий)»,бюджетное,Кравчук Татьяна Петровна,37.5608033865,55.6815732109
312,Лосиноостровский район,"129336, г. Москва, ул. Стартовая, д. 27, корп. 3",(495) 474-90-60,Государственное бюджетное общеобразовательное учреждение города Москвы «Школа № 763»,бюджетное,Федорова Анна Александровна,37.6974964269,55.8845639035
313,район Кунцево,"121552, г. Москва, ул.Оршанская, д.10, корп.1",(499) 141-24-05,Государственное бюджетное общеобразовательное учреждение города Москвы «Школа с углубленным изучением иностранного языка № 1293»,бюджетное,Фураева Елена Анатольевна,37.4103828467,55.7430026033
314,район Текстильщики,"109390, г. Москва, 1-ая улица Текстильщиков, д. 16",(499) 178-50-19,Государственное бюджетное общеобразовательное учреждение города Москвы «Школа № 687»,бюджетное,Акимова Надежда Дмитриевна,37.7439337454,55.7016060174
315,район Орехово-Борисово Южное,"115597, г. Москва, ул.Тамбовская, д.10",(495) 397-64-14,Государственное бюджетное общеобразовательное учреждение города Москвы «Школа № 979»,бюджетное,Носкова Любовь Яковлевна,37.7458694639,55.6032692925
316,Таганский район,"109544, г. Москва, Новорогожская ул., д.9",(495) 678-64-89,Государственное бюджетное общеобразовательное учреждение города Москвы «Школа № 1468»,бюджетное,Волкова Елена Витальевна,37.6881168216,55.7425323214
317,район Ясенево,"117574, г. Москва, ул. Вильнюсская, д.14",(495) 423-46-22,Государственное бюджетное общеобразовательное учреждение города Москвы «Школа № 1212»,бюджетное,Добрынина Ирина Владимировна,37.5229854256,55.6021207453
318,район Дорогомилово,"121170, г. Москва, Кутузовский пр., д.10, стр.1",(000) 000-00-00,Государственное бюджетное общеобразовательное учреждение города Москвы «Гимназия № 1567»,бюджетное,Козлов Андрей Ефимович,37.5283497471,55.7370986405
319,Можайский район,"121353, г. Москва, Беловежская ул., д. 67",(495) 447-24-54,Государственное бюджетное общеобразовательное учреждение города Москвы «Школа № 384 имени Д.К. Корнеева»,бюджетное,Самойлик Елена Васильевна,37.4015538055,55.7062457526
320,район Южное Бутово,"117148, г. Москва, ул. Маршала Савицкого, дом 26, корпус 4",(499) 232-10-76,Государственное бюджетное общеобразовательное учреждение города Москвы «Школа № 2109»,бюджетное,Егорова Любовь Николаевна,37.5928008851,55.5018330002
321,район Новокосино,"111673, г. Москва, Суздальская ул, 24 Б",(495) 701-05-00,Государственное бюджетное общеобразовательное учреждение города Москвы «Школа с углубленным изучением английского языка № 1200»,бюджетное,Дьячков Виктор Максимович,37.8592108648,55.7421611753
322,район Филёвский Парк,"121309, г. Москва, ул. Б.Филевская, д.15",(499) 145-16-48,Государственное бюджетное общеобразовательное учреждение города Москвы «Школа № 72»,бюджетное,Соболева Оксана Витальевна,37.4993033766,55.7476176562
323,Останкинский район,"129223, г. Москва, Мира проспект, д. 123",(495) 682-62-34,Государственное автономное общеобразовательное учреждение города Москвы «Школа с углубленным изучением отдельных предметов «ШИК 16»,автономное,Боос Надежда Валентиновна,37.6646243263,55.8343303237
324,район Крылатское,"121614, г. Москва, ул.Крылатские холмы, д.28, корп.1",(495) 413-37-05,Государственное бюджетное общеобразовательное учреждение города Москвы «Гимназия № 1593»,бюджетное,Алексеева Светлана Дмитриевна,37.414990272,55.7651842432
325,район Чертаново Центральное,"117587, г. Москва, ул.Кировоградская, д.18, корп.4",(495) 315-01-03,Государственное бюджетное образовательное учреждение города Москвы гимназия № 1582,бюджетное,Рыбакова Евгения Валентиновна,37.6044592314,55.6186173991
326,Академический район,"117036, г. Москва, ул.Дм.Ульянова, д.15, корп.1",(499) 125-28-12,Государственное бюджетное общеобразовательное учреждение города Москвы «Школа № 199»,бюджетное,Моисеева Валентина Викторовна,37.5717011021,55.6903992143
327,район Марьино,"109469, г. Москва, Мячковский бульвар, дом 21",(495) 658-61-35,Государственное бюджетное общеобразовательное учреждение города Москвы «Школа с углубленным изучением английского языка № 1319»,бюджетное,Самсонова Вера Семеновна,37.7614575789,55.6532847777
328,район Коптево,"125130, г. Москва, 4-й Новоподмосковный пер., д. 2а",(499) 154-60-61,Государственное бюджетное общеобразовательное учреждение города Москвы «Школа № 90 «Многопрофильный образовательный комплекс» имени Героя Советского Союза Е.Г. Ларикова»,бюджетное,Волосков Виктор Вадимович,37.5263787416,55.839234868
329,район Строгино,"123592, г. Москва, Строгинский бульвар, дом 7, корпус 3",(495) 756-93-57,Государственное бюджетное образовательное учреждение дополнительного образования города Москвы «Центр детского творчества «Строгино»,бюджетное,Корочина Татьяна Геннадьевна,37.455318555,55.8326739706
330,район Чертаново Центральное,"117519, г. Москва, улица Красного Маяка, 3 Г",(495) 389-27-36,Государственное бюджетное общеобразовательное учреждение города Москвы «Школа с углубленным изучением отдельных предметов № 879»,бюджетное,Мальцева Ольга Филипповна,37.5957185329,55.6099352087
331,район Ивановское,"111555, г. Москва, ул.Молостовых, д.6А",(495) 300-44-81,Государственное бюджетное образовательное учреждение города Москвы средняя общеобразовательная школа № 922,бюджетное,Дмитриева Ольга Владимировна,37.8279911291,55.7601136364
332,район Преображенское,"107553, г. Москва, ул.Большая Черкизовская, д.21, строение 2",(499) 161-42-92,Государственное бюджетное образовательное учреждение города Москвы центр дополнительного образования детей «Черкизовский парк»,бюджетное,Мостовщикова Лидия Васильевна,37.7380497441,55.800916083
333,район Ясенево,"117463, г. Москва, пр.Карамзина, д.13, корп.3",(495) 422-23-22,Государственное бюджетное общеобразовательное учреждение города Москвы «Школа № 1106»,бюджетное,Мотылева Лера Александровна,37.5479104534,55.5910174492
334,Нижегородский район,"109559, г. Москва, ул. Цимлянская, д. 7, стр. 1",(495) 361-07-00,"Государственное бюджетное профессиональное образовательное учреждение города Москвы «Колледж Архитектуры, Дизайна и Реинжиниринга № 26»",бюджетное,Афонин Константин Юрьевич,37.741524697,55.739955888
335,район Новогиреево,"111396, г. Москва, Федеративный просп., д.27",(495) 302-30-09,Государственное бюджетное общеобразовательное учреждение города Москвы «Школа с углубленным изучением английского языка № 1324»,бюджетное,Захарова Елена Сергеевна,37.8199601636,55.7492840368
336,район Измайлово,"105043, г. Москва, Нижняя Первомайская улица, дом 14",(495) 465-23-52,"Государственное бюджетное общеобразовательное учреждение города Москвы «Школа с углубленным изучением математики, информатики, физики № 444»",бюджетное,Северинец Павел Александрович,37.7965316996,55.789585215
337,район Замоскворечье,"115054, г. Москва, ул.Дубининская, д.25, стр.1",(495) 953-58-32,Государственное бюджетное профессиональное образовательное учреждение города Москвы «Колледж малого бизнеса № 4»,бюджетное,Антонова Тамара Петровна,37.6958924268,55.7771114387
338,район Отрадное,"127562, г. Москва, ул. Санникова, д.3, корп.3.",(499) 903-16-19,Государственное бюджетное общеобразовательное учреждение города Москвы «Школа № 962»,бюджетное,Полякова Лариса Александровна,37.5874489621,55.8620485673
339,район Восточный,"105173, г. Москва, ул. Главная, 9А",(499) 780-17-65,Государственное бюджетное общеобразовательное учреждение города Москвы «Школа № 1021»,бюджетное,Шемякина Елена Викторовна,37.8689474377,55.8169495112
340,район Покровское-Стрешнево,"115114, г. Москва, Дербеневская набережная, д. 3",(495) 491-57-81,Государственное бюджетное профессиональное образовательное учреждение города Москвы «Московский технологический колледж»,бюджетное,Волков Алексей Владимирович,37.4604999454,55.8075199852
341,район Восточное Дегунино,"127591, г. Москва, ул. Дубнинская, д. 46, кор. 2",(499) 480-45-48,Государственное бюджетное общеобразовательное учреждение города Москвы «Центр образования № 1678 «Восточное Дегунино»,бюджетное,Кашаева Елена Карловна,37.5611896058,55.8917921184
342,район Бирюлёво Западное,"117546, г. Москва, Харьковский пр., д.9Б",(495) 383-45-83,Государственное бюджетное общеобразовательное учреждение города Москвы «Школа № 2001»,бюджетное,Бойков Алексей Александрович,37.6502693276,55.5907104718
343,район Котловка,"117647, г. Москва, улица Академика Капицы, д.12",(499) 127-57-02,Государственное бюджетное общеобразовательное учреждение города Москвы «Школа с углубленным изучением английского языка № 1273»,бюджетное,Попов Михаил Александрович,37.5992531875,55.6435279214
344,Бабушкинский район,"129281, г. Москва, ул. Енисейская, д. 32, корпус 3",(499) 185-06-90,Государственное бюджетное общеобразовательное учреждение города Москвы «Школа с углубленным изучением французского языка № 1095»,бюджетное,Белова Надежда Сергеевна,37.6695354235,55.8708389902
345,район Силино,"124460, г. Москва, Зеленоград, корп. 1214",(499) 731-30-63,Государственное бюджетное общеобразовательное учреждение города Москвы «Школа № 718»,бюджетное,Коржова Ольга Николаевна,37.1929762185,55.9934782955
346,район Коптево,"125183, г. Москва, 4-й Новомихалковский проезд, дом № 14, строение № 3",(499) 153-86-21,Государственное казенное общеобразовательное учреждение города Москвы «Кадетская школа-интернат № 10 «Московский кадетский корпус полиции имени Героя Советского Союза А.И.Попрядухина»,бюджетное,Крымский Владимир Яковлевич,37.5450597174,55.8447747916
347,район Москворечье-Сабурово,"115211, г. Москва, Каширское ш., д.55, корп.7",(495) 344-70-84,Государственное бюджетное общеобразовательное учреждение города Москвы «Лицей № 1828 «Сабурово»,бюджетное,Архипова Елена Алексеевна,37.6997619637,55.638595262
348,Басманный район,"105082, г. Москва, Переведеновский пер., д.11",(499) 267-36-08,Государственное бюджетное общеобразовательное учреждение города Москвы «Школа № 1429 имени Героя Советского Союза Н.А. Боброва»,бюджетное,Смышляева Людмила Владимировна,37.6938741209,55.775380338
349,район Ново-Переделкино,"119634, г. Москва, ул.Шолохова, д.19",(495) 732-74-60,Государственное бюджетное образовательное учреждение города Москвы средняя общеобразовательная школа № 1432 «Новая школа»,бюджетное,Куколева Елена Николаевна,37.3402060899,55.6423687101
350,район Соколиная Гора,"105187, г. Москва, улица Лечебная, дом 20",(499) 166-99-01,Государственное бюджетное общеобразовательное учреждение города Москвы «Школа с углубленным изучением английского языка № 1362»,бюджетное,Комар Светлана Викторовна,37.7411420407,55.790099876
351,Красносельский район,"107140, г. Москва, Русаковская ул., д.10, стр.1",(499) 264-93-23,Государственное бюджетное общеобразовательное учреждение города Москвы «Школа № 315»,бюджетное,Шестакова Мария Федоровна,37.674110942,55.7834901595
352,район Москворечье-Сабурово,"115211, г. Москва, ул.Борисовские пруды, д.11, корп.1",(495) 342-25-68,Государственное бюджетное общеобразовательное учреждение города Москвы «Школа № 2017»,бюджетное,Седова Евгения Эмануиловна,37.7178864588,55.6364968022
353,район Нагатино-Садовники,"115533, г. Москва, Нагатинская наб., д.24",(000) 000-00-00,Государственное бюджетное общеобразовательное учреждение города Москвы «Школа с углубленным изучением английского языка № 1375»,бюджетное,Михарева Наталья Борисовна,37.657107828,55.6816914828
354,район Богородское,"105082, г. Москва, ул. Бакунинская, д. 81",(499) 160-26-32,Государственное бюджетное профессиональное образовательное учреждение города Москвы «Московский автомобильно-дорожный колледж им. А.А. Николаева»,бюджетное,Некрестьянова Светлана Яковлевна,37.7377314316,55.7825769061
355,район Хорошёво-Мнёвники,"123423, г. Москва, ул. Тухачевского, д. 17, корп. 3",(499) 191-10-17,Государственное бюджетное общеобразовательное учреждение города Москвы «Лицей № 1560»,бюджетное,Жданова Ирина Дмитриевна,37.4903652787,55.7747189921
356,район Чертаново Южное,"117405, г. Москва, ул. Газопровод, д.4",(000) 000-00-00,Государственное бюджетное образовательное учреждение дополнительного образования города Москвы «Детско-юношеский центр «Виктория»,бюджетное,Каневская Людмила Васильевна,37.6142368154,55.7136706751
357,район Тропарёво-Никулино,"119602, г. Москва, ул.Никулинская, д.10",(495) 651-35-98,Государственное бюджетное общеобразовательное учреждение города Москвы «Школа № 1329»,бюджетное,Бурмакина Вероника Федоровна,37.4736728979,55.6736557184
358,район Крюково,"124617, г. Москва, Зеленоград, корп. 1469",(499) 738-36-66,Государственное бюджетное общеобразовательное учреждение города Москвы «Школа № 1151»,бюджетное,Агапов Игорь Геннадьевич,37.1614268664,55.9861980814
359,Басманный район,"105005, г. Москва, Лефортовский пер., д.10",(499) 267-74-64,Государственное бюджетное общеобразовательное учреждение города Москвы «Школа № 354 имени Д.М. Карбышева»,бюджетное,Родионова Татьяна Константиновна,37.6803220622,55.7747462032
360,Хорошёвский район,"123308, г. Москва, ул. Зорге, д. 4",(499) 943-14-05,Государственное бюджетное образовательное учреждение города Москвы средняя общеобразовательная школа № 141,бюджетное,Худошин Виталий Валерьевич,37.513750675,55.7796914712
361,Молжаниновский район,"141411, г. Москва, ул. Синявинская, д.11А",(000) 000-00-00,Государственное бюджетное общеобразовательное учреждение города Москвы «Школа Перспектива»,бюджетное,Ермакова Ирина Германовна,37.3879796485,55.9263426508
362,Бабушкинский район,"129327, г. Москва, Чукотский пр., д.6",(495) 472-33-55,Государственное бюджетное образовательное учреждение города Москвы гимназия № 1558 имени Росалии де Кастро,бюджетное,Юсупова Галина Исаевна,37.6579870352,55.8682337232
363,район Фили-Давыдково,"121352, г. Москва, ул.Давыдковская, д.2, корп.6",(499) 737-68-12,Государственное бюджетное общеобразовательное учреждение города Москвы «Школа с углубленным изучением отдельных предметов № 1248»,бюджетное,Никитина Нина Ивановна,37.4668364566,55.724188703
364,Академический район,"117036, г. Москва, ул.Кедрова, д.11",(495) 718-99-29,Государственное бюджетное общеобразовательное учреждение города Москвы «Академическая гимназия № 1534»,бюджетное,Шейнина Ольга Семеновна,37.5971075286,55.6817092207
365,район Свиблово,"129343, г. Москва, ул. Амундсена, д.14, корп.1",(499) 760-01-17,Государственное бюджетное образовательное учреждение дополнительного образования города Москвы «Центр детского творчества «Свиблово»,бюджетное,Герасимова Наталья Анатольевна,37.6577073071,55.8551304131
366,район Черёмушки,"117418, г. Москва, ул. Цюрупы, д. 10, кор.3",(499) 128-56-24,Государственное бюджетное общеобразовательное учреждение города Москвы «Школа № 2115»,бюджетное,Семыкин Иван Петрович,37.5758420923,55.6697455643
367,район Савёлки,"124536, г. Москва, Зеленоград, корп. 509",(499) 734-25-20,Государственное бюджетное общеобразовательное учреждение города Москвы «Лицей № 1557»,бюджетное,Грабарник Татьяна Николаевна,37.2305724751,55.9987170388
368,район Северный,"127495, г. Москва, Дмитровское ш., д.165Е, корп.8",(499) 661-50-26,Государственное бюджетное общеобразовательное учреждение города Москвы «Школа № 2044»,бюджетное,Загоранская Ольга Анатольевна,37.5441452684,55.9282076827
369,Таганский район,"109029, г. Москва, ул.Средняя Калитниковская, д.22, стр.1",(495) 670-17-60,Государственное бюджетное общеобразовательное учреждение города Москвы «Школа № 480 им. В.В.Талалихина»,бюджетное,Гусева Елена Прокофьевна,37.6768036713,55.7344869934
370,Пресненский район,"125009, г. Москва, Леонтьевский пер., д.19/2, стр.1",(495) 690-04-35,Государственное бюджетное общеобразовательное учреждение города Москвы «Гимназия № 1520 имени Капцовых»,бюджетное,Кириченко Вита Викторовна,37.6033487706,55.7563343316
371,район Беговой,"125040, г. Москва, улица Скаковая, дом 20, стр. 1",(495) 614-14-43,Государственное бюджетное образовательное учреждение города Москвы средняя общеобразовательная школа № 1784 «Кадетская школа»,бюджетное,Кондратьева Светлана Алексеевна,37.5764160668,55.7777810625
372,район Перово,"111401, г. Москва, ул. 2-я Владимирская, дом 22 А",(495) 306-27-37,Государственное бюджетное образовательное учреждение города Москвы средняя общеобразовательная школа № 1852,бюджетное,Трушин Виталий Викторович,37.7784142277,55.7585392213
373,район Хорошёво-Мнёвники,"123103, г. Москва, ул. Живописная, д. 11, корп. 1",(499) 199-58-87,Государственное бюджетное общеобразовательное учреждение города Москвы «Гимназия № 1517»,бюджетное,Вахнеева Анна Алексеевна,37.4585248359,55.780057129
374,район Коньково,"117279, г. Москва, ул. Введенского, д.28",(495) 420-90-01,Государственное бюджетное общеобразовательное учреждение города Москвы «Школа № 17»,бюджетное,Силиванова Ксения Викторовна,37.5282504507,55.6353929848
375,район Митино,"125222, г. Москва, улица Дубравная, дом 41, корпус 3",(495) 752-69-97,Государственное бюджетное общеобразовательное учреждение города Москвы «Школа с углублённым изучением иностранных языков № 1900»,бюджетное,Нестин Сергей Александрович,37.3633816565,55.8403376743
376,район Братеево,"115211, г. Москва, ул. Борисовские пруды, д.12, корп. 2",(495) 341-59-96,Государственное бюджетное общеобразовательное учреждение города Москвы «Школа № 1929»,бюджетное,Рыбина Ирина Ивановна,37.7437395917,55.635740279
377,Головинский район,"125438, г. Москва, 3-й Лихачевский переулок, д. 2а",(495) 456-47-92,Государственное бюджетное общеобразовательное учреждение города Москвы «Школа № 727»,бюджетное,Белоусова Надежда Владимировна,37.5169051688,55.8471623341
378,район Выхино-Жулебино,"109444, г. Москва, ул. Ташкентская, д. 21, к.2",(495) 376-32-13,Государственное бюджетное общеобразовательное учреждение города Москвы «Школа лицей № 1420»,бюджетное,Николаева Антонина Ивановна,37.8112303036,55.6987719608
379,район Бирюлёво Восточное,"115404, г. Москва, ул. Ряжская, дом 11",(495) 326-16-26,Государственное бюджетное общеобразовательное учреждение города Москвы «Школа № 902 «Диалог»,бюджетное,Ильяшенко Александр Викторович,37.6681141501,55.5966646749
380,Савёловский район,"127220, г. Москва, ул. Писцовая, д. 7а",(495) 613-89-72,Государственное бюджетное общеобразовательное учреждение города Москвы «Школа № 1164»,бюджетное,Радюн Сергей Болеславович,37.5740925132,55.7974477033
381,район Северное Бутово,"117628, г. Москва, ул. Старокачаловская, владение 22",(495) 713-68-63,Государственное бюджетное общеобразовательное учреждение города Москвы «Школа № 1945 «Синяя птица»,бюджетное,Викторова Наталья Геннадиевна,37.5893893118,55.570594301
382,район Тёплый Стан,"117321, г. Москва, ул. Профсоюзная, дом 132, корп.9",(495) 338-66-11,Государственное бюджетное общеобразовательное учреждение города Москвы «Гимназия № 1507»,бюджетное,Шувалов Александр Игоревич,37.5039739476,55.6274560976
383,район Ховрино,"125475, г. Москва, ул.Клинская, д.22",(499) 975-81-59,Государственное бюджетное общеобразовательное учреждение города Москвы «Школа № 1474»,бюджетное,Курчаткина Ирина Евгеньевна,37.4985275829,55.8672238585
384,район Орехово-Борисово Северное,"115569, г. Москва, ул.Маршала Захарова, д.25, корп.2",(495) 393-22-54,Государственное бюджетное общеобразовательное учреждение города Москвы «Школа № 937 имени Героя Российской Федерации А.В. Перова»,бюджетное,Дмитриева Наталия Николаевна,37.7086259154,55.622651416
385,район Зюзино,"117321, г. Москва, ул. Профсоюзная, д. 154, корпус 7",(499) 610-33-11,Государственное бюджетное профессиональное образовательное учреждение города Москвы «Колледж градостроительства и сервиса № 38»,бюджетное,Востриков Сергей Петрович,37.5729753207,55.680156365
386,Таганский район,"109052, г. Москва, ул. Нижегородская, д. 98",(495) 670-93-86,Государственное бюджетное профессиональное образовательное учреждение города Москвы «Техникум сервиса и туризма № 29»,бюджетное,Киселев Артем Николаевич,37.6815016322,55.7334275574
387,район Текстильщики,"109129, г. Москва, ул. Юных Ленинцев, д. 35, к.2",(499) 179-74-86,Государственное бюджетное образовательное учреждение города Москвы средняя общеобразовательная школа № 654 имени А.Д. Фридмана,бюджетное,Видякин Сергей Львович,37.7496331632,55.698299069
388,район Крюково,"124365, г. Москва, Зеленоград, корп. 2031",(499) 729-32-40,Государственное бюджетное общеобразовательное учреждение города Москвы «Школа № 2045»,бюджетное,Халева Анна Федоровна,37.1902161542,55.967683866
389,Останкинский район,"129085, г. Москва, ул. Годовикова, д.4, стр. 3",(495) 687-15-24,Государственное бюджетное общеобразовательное учреждение города Москвы «Гимназия № 1531 «Лингвистическая» имени С. К. Годовикова»,бюджетное,Киракозов Юрий Вартанович,37.6316610373,55.8037859212
390,район Марьино,"109651, г. Москва, Батайский проезд, дом 21",(499) 356-30-10,Государственное бюджетное общеобразовательное учреждение города Москвы «Школа № 2110 «Многопрофильный образовательный комплекс «Марьино»,бюджетное,Баталов Антон Сергеевич,37.7145334425,55.6540884373
391,район Кузьминки,"109443, г. Москва, ул. Юных Ленинцев, д. 68, корп. 2",(903) 241-50-21,Государственное бюджетное общеобразовательное учреждение города Москвы «Школа № 479 имени дважды Героя Советского Союза Маршала В.И. Чуйкова»,бюджетное,Кремпольская Татьяна Ивановна,37.7625067244,55.69630891
392,район Отрадное,"127490, г. Москва, ул. Пестеля, д.5",(499) 203-31-33,Государственное бюджетное общеобразовательное учреждение города Москвы «Гимназия № 1554»,бюджетное,Тертухина Ольга Николаевна,37.6134147098,55.8647051459
393,Дмитровский район,"127411, г. Москва, ул. Софьи Ковалевской, д. 8 ""А""",(495) 484-90-74,Государственное бюджетное общеобразовательное учреждение города Москвы «Школа № 771»,бюджетное,Камнева Галина Дмитриевна,37.5306546085,55.8741834635
394,Таганский район,"109240, г. Москва, 1-ый Котельнический пер., д.5",(495) 915-25-29,Государственное бюджетное общеобразовательное учреждение города Москвы «Школа № 2104 на Таганке»,бюджетное,Гусев Вячеслав Борисович,37.6466585988,55.7436566951
395,район Западное Дегунино,"127486, г. Москва, ул. Дегунинская, дом 18",(499) 905-82-77,Государственное бюджетное общеобразовательное учреждение города Москвы «Школа № 2100»,бюджетное,Зиновьева Наталия Валентиновна,37.5340380311,55.8674911829
396,район Косино-Ухтомский,"111675, г. Москва, ул. Татьяны Макаровой, дом 2",(499) 797-34-10,Государственное бюджетное общеобразовательное учреждение города Москвы «Школа № 2036»,бюджетное,Иренкова Татьяна Витальевна,37.8845814961,55.7100575526
397,район Сокол,"125080, г. Москва, ул. Дубосековская, д. 3",(499) 158-16-45,Государственное бюджетное общеобразовательное учреждение города Москвы «Школа с углубленным изучением испанского языка № 1252 имени Сервантеса»,бюджетное,Анурова Ирина Владимировна,37.4964361756,55.8102182826
398,район Сокольники,"107014, г. Москва, ул. Егерская, д. 4",(499) 269-07-97,Государственное бюджетное образовательное учреждение города Москвы гимназия № 1530 «Школа Ломоносова»,бюджетное,Кузнецова Евгения Викторовна,37.6975677159,55.7863474265
399,район Соколиная Гора,"105118, г. Москва, пр-т Буденного, д.15А",(495) 366-08-38,Государственное бюджетное общеобразовательное учреждение города Москвы «Лицей № 429 «Соколиная гора»,бюджетное,Дроздов Сергей Юрьевич,37.7254401516,55.7760048606
400,Гагаринский район,"119333, г. Москва, ул. Фотиевой, 14, корп. 1",(499) 135-26-10,Государственное бюджетное общеобразовательное учреждение города Москвы «Школа с углубленным изучением французского языка № 1265»,бюджетное,Холодная Оксана Васильевна,37.5579479368,55.6996542418
401,район Чертаново Северное,"117587, г. Москва, Варшавское ш., д.126А",(495) 316-76-88,Государственное бюджетное общеобразовательное учреждение города Москвы «Школа № 1623»,бюджетное,Кускова Надежда Юрьевна,37.6138160497,55.6296357902
402,район Хамовники,"119002, г. Москва, Спасопесковский пер., д.6, стр.7",(499) 252-81-64,Государственное бюджетное общеобразовательное учреждение города Москвы «Школа с углубленным изучением иностранного языка № 1231 имени В.Д. Поленова»,бюджетное,Тиунова Виктория Викторовна,37.5747622659,55.7415970095
403,район Братеево,"115408, г. Москва, ул.Борисовские пруды, д.36, корп.2",(495) 341-36-83,Государственное бюджетное общеобразовательное учреждение города Москвы «Школа № 998»,бюджетное,Романова Ирина Викторовна,37.7692046909,55.639777763
404,район Щукино,"123182, г. Москва, ул. Авиационная, д.71, корп. 3",(499) 193-12-31,Государственное бюджетное образовательное учреждение города Москвы «Школа № 1005 «Алые паруса»,бюджетное,Кузнецова Наталья Евгеньевна,37.4531439822,55.8086881543
405,район Гольяново,"107589, г. Москва, ул. Хабаровская, д. 18А",(495) 466-92-22,Государственное бюджетное общеобразовательное учреждение города Москвы «Лицей № 1598»,бюджетное,Петров Константин Вадимович,37.8297699682,55.8227267681
406,район Чертаново Южное,"117405, г. Москва, Варшавское ш., д.156Б",(495) 386-15-48,Государственное бюджетное образовательное учреждение города Москвы средняя общеобразовательная школа № 629,бюджетное,Зайкова Светлана Леонидовна,37.596446783,55.5917959843
407,район Сокольники,"107014, г. Москва, ул. Барболина, д.1",(499) 264-56-71,Государственное бюджетное общеобразовательное учреждение города Москвы «Школа с углубленным изучением английского языка № 1282»,бюджетное,Жилина Елена Дмитриевна,37.6565283167,55.795001893
408,Таганский район,"109004, г. Москва, Товарищеский пер., д.21",(495) 911-16-01,Государственное бюджетное общеобразовательное учреждение города Москвы «Школа с углубленным изучением английского языка № 1270»,бюджетное,Кинешова Вера Павловна,37.6665227298,55.7414771158
409,район Зюзино,"117209, г. Москва, ул. Перекопская д.7, корп.3",(499) 122-70-69,Государственное бюджетное общеобразовательное учреждение города Москвы «Школа № 554»,бюджетное,Майсурадзе Майя Отариевна,37.5817106479,55.6602905923
410,район Тёплый Стан,"117198, г. Москва, ул.Саморы Машела, д.6, корп.3",(499) 737-29-52,Государственное бюджетное общеобразовательное учреждение города Москвы «Школа № 1995»,бюджетное,Норенко Елена Ивановна,37.4757745122,55.6445726087
411,Ярославский район,"129347, г. Москва, ул. Проходчиков, д.9",(499) 182-19-44,Государственное бюджетное общеобразовательное учреждение города Москвы «Лицей информационных технологий № 1537»,бюджетное,Викторов Александр Яковлевич,37.7253858083,55.8778243276
412,район Коньково,"117279, г. Москва, ул.Генерала Антонова, дом 4А",(495) 333-13-71,Государственное бюджетное общеобразовательное учреждение города Москвы «Школа № 49»,бюджетное,Лопаткина Светлана Васильевна,37.5448999822,55.6424788766
413,Тверской район,"125047, г. Москва, 1-я Миусская ул., д.4",(499) 978-32-00,Государственное бюджетное общеобразовательное учреждение города Москвы «Лицей № 1574»,бюджетное,Клоков Денис Юрьевич,37.6005161104,55.7763066558
414,район Кунцево,"121609, г. Москва, ул.Осенняя, д.8, корп.1 и 3",(499) 727-22-34,Государственное бюджетное общеобразовательное учреждение города Москвы «Школа № 1130»,бюджетное,Бодер Дмитрий Израильевич,37.36200787,55.787183257
415,район Печатники,"109338, г. Москва, улица Полбина, дом 44",(495) 354-28-07,Государственное бюджетное общеобразовательное учреждение города Москвы «Школа с углубленным изучением английского языка № 1256 имени Героя Советского Союза И.С. Полбина»,бюджетное,Шестакова Оксана Александровна,37.7250103865,55.6813392282
416,район Северное Тушино,"125480, г. Москва, ул. Планерная, д.5, корп.2",(495) 490-71-87,Государственное бюджетное общеобразовательное учреждение города Москвы «Школа № 883»,бюджетное,Куклева Людмила Александровна,37.4272634056,55.8627643865
417,район Дорогомилово,"121151, г. Москва, Кутузовский просп., д.22 корп. 1",(499) 243-63-10,Государственное бюджетное общеобразовательное учреждение города Москвы «Школа № 56 имени академика В.А. Легасова»,бюджетное,Кондратенко Вера Даниловна,37.5515954688,55.7479433605
418,район Строгино,"123181, г. Москва, ул. Маршала Катукова, д. 21, корп. 2",(495) 758-81-90,Государственное бюджетное общеобразовательное учреждение города Москвы «Гимназия № 1519»,бюджетное,Сирый Николай Иванович,37.4140449916,55.8089133521
419,Гагаринский район,"119311, г. Москва, улица Строителей, дом 15",(495) 930-02-15,Государственное бюджетное общеобразовательное учреждение города Москвы «Школа № 118»,бюджетное,Туйчиева Ирина Леонидовна,37.5359798284,55.6846875456
420,район Преображенское,"107392, г. Москва, ул. Знаменская, д.12/4",(495) 963-80-18,Государственное бюджетное общеобразовательное учреждение города Москвы «Гимназия № 1799 «Экополис»,бюджетное,Казакова Инна Владимировна,37.7275792016,55.8038246734
421,район Ивановское,"111558, г. Москва, Федеративный проспект, д.37А",(495) 302-33-12,Государственное бюджетное образовательное учреждение города Москвы средняя общеобразовательная школа № 633,бюджетное,Кондрашов Артем Вячеславович,37.8274016103,55.7547052179
422,район Солнцево,"119620, г. Москва, Солнцевский пр-т, д.12А",(495) 435-59-23,Государственное бюджетное общеобразовательное учреждение города Москвы «Школа № 1002»,бюджетное,Солодуха Ева Григорьевна,37.4026993649,55.6532474058
423,район Северное Бутово,"117216, г. Москва, улица Феодосийская, дом 11А",(495) 712-40-36,Государственное бюджетное общеобразовательное учреждение города Москвы «Школа № 1174»,бюджетное,Назарова Ольга Владимировна,37.5758247053,55.564618688
424,район Орехово-Борисово Южное,"115582, г. Москва, ул. Домодедовская, д.24, корп. 7",(495) 391-79-00,Государственное бюджетное общеобразовательное учреждение города Москвы «Школа с углубленным изучением иностранного (английского) языка № 1207»,бюджетное,Пономарчук Татьяна Германовна,37.7112201849,55.602445334
425,Мещанский район,"129110, г. Москва, Глинистый пер., д.7, стр.1",(495) 680-86-97,Государственное бюджетное общеобразовательное учреждение города Москвы «Школа с углубленным изучением английского языка № 1297»,бюджетное,Назаров Александр Ираклиевич,37.6409612384,55.7827031658
426,район Бирюлёво Восточное,"115598, г. Москва, ул.Липецкая, д.15, корп.2",(495) 329-17-11,Государственное бюджетное общеобразовательное учреждение города Москвы «Школа № 935»,бюджетное,Кутайсова Наталья Викторовна,37.6890870216,55.584111128
427,район Нагатино-Садовники,"115230, г. Москва, ул. Нагатинская, д.4, корп.1",(499) 611-15-91,Государственное бюджетное профессиональное образовательное учреждение города Москвы «Технологический колледж № 34»,бюджетное,Воронкова Нина Александровна,37.6470661548,55.7239596885
428,район Зюзино,"117452, г. Москва, ул. Азовская, д. 41",(495) 318-59-09,Государственное бюджетное общеобразовательное учреждение города Москвы «Школа № 536»,бюджетное,Хардина Юлия Владимировна,37.5969988522,55.6517839264
429,район Новогиреево,"111394, г. Москва, ул.Утренняя, д.12",(495) 368-55-74,Государственное бюджетное образовательное учреждение города Москвы гимназия № 2072,бюджетное,Валишина Лариса Николаевна,37.7922063098,55.7465795804
430,район Зябликово,"115573, г. Москва, ул. Мусы Джалиля, дом 36 корпус 2",(495) 396-97-16,Государственное бюджетное общеобразовательное учреждение города Москвы «Гимназия № 1569 «Созвездие»,бюджетное,Воропаева Алла Викторовна,37.7363060492,55.6176695385
431,район Замоскворечье,"127422, г. Москва, Тимирязевская улица, дом 36",(495) 951-50-33,Государственное автономное образовательное учреждение высшего образования города Москвы «Московский институт открытого образования»,автономное,Рытов Алексей Иванович,37.5428753039,55.681176285
432,район Хорошёво-Мнёвники,"123154, г. Москва, ул. Народного Ополчения, д. 27, корп. 2",(499) 191-83-12,Государственное бюджетное общеобразовательное учреждение города Москвы «Гимназия № 1515»,бюджетное,Мещерякова Светлана Вячеславовна,37.4732204509,55.7775886912
433,район Царицыно,"115516, г. Москва, ул.Севанская, д.13, корп.2",(495) 325-28-66,Государственное бюджетное общеобразовательное учреждение города Москвы «Школа № 868»,бюджетное,Агашкова Светлана Владимировна,37.6514202725,55.6205888601
434,район Раменки,"119330, г. Москва, ул.Дружбы, д.8",(499) 143-04-12,Государственное бюджетное общеобразовательное учреждение города Москвы «Лицей № 1586»,бюджетное,Силкина Елена Викторовна,37.5148722509,55.7141760511
435,Южнопортовый район,"115088, г. Москва, ул. 1-я Дубровская, д. 16",(495) 674-06-09,Государственное бюджетное общеобразовательное учреждение города Москвы «Гимназия № 1274 имени В.В.Маяковского»,бюджетное,Уколов Антон Альфредович,37.6665496498,55.7299396393
436,район Якиманка,"127282, г. Москва, ул. Тихомирова, д. 10, к. 1",(495) 951-87-82,Государственное бюджетное профессиональное образовательное учреждение города Москвы «Первый Московский Образовательный Комплекс»,бюджетное,Мироненко Юрий Дмитриевич,37.6511808459,55.8850803991
437,район Северное Тушино,"125373, г. Москва, ул. Героев Панфиловцев, д. 35, кор. 2",(495) 948-29-38,Государственное бюджетное общеобразовательное учреждение города Москвы «Школа № 827»,бюджетное,Огородникова Наталья Владимировна,37.40959477,55.8518303002
438,Можайский район,"121354, г. Москва, ул. Дорогобужская, д.13",(495) 446-19-15,Государственное бюджетное общеобразовательное учреждение города Москвы «Школа № 1195»,бюджетное,Евсикова Наталья Леонидовна,37.4198668123,55.7176048547
439,район Кузьминки,"109117, г. Москва, ул. Окская, д. 16, корп. 3",(499) 177-62-77,Государственное бюджетное общеобразовательное учреждение города Москвы «Школа № 825»,бюджетное,Шелухин Юрий Геннадиевич,37.7544171225,55.709939233
440,район Северное Медведково,"127642, г. Москва, Сухонская ул., д.13",(499) 477-00-72,Государственное бюджетное общеобразовательное учреждение города Москвы «Школа № 967»,бюджетное,Аракелян Армине Седраковна,37.6434901532,55.8822213985
441,район Кунцево,"121467, г. Москва, ул.Молдавская, д.6, корп.2",(000) 000-00-00,Государственное бюджетное общеобразовательное учреждение города Москвы «Школа № 887»,бюджетное,Морозов Илья Ильич,37.4249638333,55.741185472
442,район Митино,"125222, г. Москва, улица Рословка, дом 8",(495) 505-97-43,Государственное бюджетное общеобразовательное учреждение города Москвы «Лицей № 1564 имени Героя Советского Союза А.П. Белобородова»,бюджетное,Смирнова Татьяна Владимировна,37.3504942755,55.8331025032
443,район Чертаново Южное,"117534, г. Москва, Кировоградская ул., д.42, корп.2",(495) 387-22-22,Государственное бюджетное общеобразовательное учреждение города Москвы «Школа с углубленным изучением иностранного (английского) языка № 1245»,бюджетное,Кохендерфер Юлия Валерьевна,37.5935734573,55.5996511931
444,район Выхино-Жулебино,"109153, г. Москва, ул. Маршала Полубоярова, дом 12",(495) 705-62-29,Государственное бюджетное общеобразовательное учреждение города Москвы «Школа № 1909 имени Героя Советского Союза А.К. Новикова»,бюджетное,Нагорнова Лариса Валериевна,37.8625220266,55.6866934946
445,Даниловский район,"119071, г. Москва, ул.Орджоникидзе, д.15",(499) 235-13-80,Государственное бюджетное профессиональное образовательное учреждение города Москвы «Колледж сферы услуг № 32»,бюджетное,Орлова Валентина Николаевна,37.5889225874,55.7096070073
446,район Беговой,"125040, г. Москва, 5-я улица Ямского поля, д. 28/32",(495) 614-57-03,Государственное бюджетное общеобразовательное учреждение города Москвы «Гимназия № 1570»,бюджетное,Рубинская Светлана Петровна,37.5764287858,55.7866471086
447,район Марьина Роща,"127521, г. Москва, ул. Октябрьская, д. 81",(499) 978-14-78,Государственное бюджетное общеобразовательное учреждение города Москвы «Гимназия Марьина Роща имени В.Ф. Орлова»,бюджетное,Карпова Анна Ивановна,37.6140530088,55.7909639037
448,Рязанский район,"109428, г. Москва, ул. Маевок, дом 4",(499) 170-23-29,Государственное бюджетное общеобразовательное учреждение города Москвы «Школа № 777 имени Героя Советского Союза Е.В. Михайлова»,бюджетное,Савина Елена Александровна,37.7611596966,55.7280244514
449,район Чертаново Южное,"117534, г. Москва, Чертановская ул., д.62А",(495) 386-76-23,Государственное бюджетное общеобразовательное учреждение города Москвы «Школа № 932»,бюджетное,Абрамов Борис Александрович,37.5854537718,55.5993593172
450,район Покровское-Стрешнево,"125362, г. Москва, ул.Вишневая, д.5",(495) 748-83-89,Государственное бюджетное профессиональное образовательное учреждение города Москвы «Московский государственный образовательный комплекс»,бюджетное,Артемьев Игорь Анатольевич,37.4299293861,55.828201853
451,район Южное Бутово,"117042, г. Москва, ул. Бартеневская, д. 27",(495) 717-88-18,Государственное бюджетное общеобразовательное учреждение города Москвы «Школа № 1981»,бюджетное,Чермошенцев Александр Викторович,37.5359149862,55.5477140951
452,район Бибирево,"127349, г. Москва, Шенкурский проезд, дом 15",(499) 206-59-33,Государственное бюджетное общеобразовательное учреждение города Москвы «Школа № 953»,бюджетное,Волощенко Оксана Витальевна,37.5902743909,55.8941732224
453,район Орехово-Борисово Северное,"115569, г. Москва, пр.Шипиловский, д.37, корп.1",(495) 393-89-58,"Государственное бюджетное профессиональное образовательное учреждение города Москвы «Московский колледж управления, гостиничного бизнеса и информационных технологий «Царицыно»",бюджетное,Седова Наталья Николаевна,37.7156441466,55.6225343313
454,район Лефортово,"111250, г. Москва, Красноказарменная ул. , д. 11",(495) 361-13-81,Государственное бюджетное общеобразовательное учреждение города Москвы «Школа № 417»,бюджетное,Данилина Татьяна Александровна,37.7021351128,55.761369867
455,район Солнцево,"119297, г. Москва, ул.Родниковая, д.20, корп.1",(495) 435-08-80,Государственное бюджетное общеобразовательное учреждение города Москвы «Школа № 1436»,бюджетное,Караев Сергей Валентинович,37.3809289518,55.6345811866
456,район Южное Бутово,"117624, г. Москва, улица Изюмская, дом 38, корпус 1",(495) 717-12-09,Государственное бюджетное общеобразовательное учреждение города Москвы «Школа с углубленным изучением английского языка № 1354»,бюджетное,Постникова Анна Львовна,37.5629781748,55.5492937779
457,район Гольяново,"105122, г. Москва, ул. Амурская, дом 6",(495) 462-21-42,Государственное бюджетное общеобразовательное учреждение города Москвы «Школа № 319»,бюджетное,Харламова Марина Владимировна,37.7930510288,55.8121731396
458,район Матушкино,"124498, г. Москва, Зеленоград, корп. 429А",(499) 736-12-64,Государственное бюджетное общеобразовательное учреждение города Москвы «Школа № 618»,бюджетное,Быстрова Светлана Сергеевна,37.2079047194,55.9928796922
459,район Филёвский Парк,"121309, г. Москва, ул.Барклая, д.15, корп.3",(499) 145-14-87,Государственное бюджетное общеобразовательное учреждение города Москвы «Школа № 1497»,бюджетное,Обижаева Марина Юрьевна,37.5044588789,55.7522152455
460,район Перово,"129336, г. Москва, Анадырский проезд, д. 79, стр.1-2",(495) 672-31-05,Государственное бюджетное профессиональное образовательное учреждение города Москвы «Московский колледж архитектуры и градостроительства»,бюджетное,Ариончик Александр Александрович,37.7133903985,55.8845082921
461,район Фили-Давыдково,"121108, г. Москва, ул. Кастанаевская, д.59",(499) 144-79-18,Государственное казенное общеобразовательное учреждение города Москвы «Кадетская школа-интернат «Навигацкая школа»,казённое,Ястребова Александра Петровна,37.4555906093,55.7307593814
462,район Орехово-Борисово Северное,"115563, г. Москва, Борисовский проезд, д. 13",(495) 393-39-00,Государственное бюджетное общеобразовательное учреждение города Москвы «Школа № 996»,бюджетное,Любушкина Юлия Ивановна,37.7159597069,55.6271293974
463,Даниловский район,"115093, г. Москва, ул.Павловская, д.8А",(495) 952-63-70,Государственное бюджетное общеобразовательное учреждение города Москвы «Гимназия № 1257»,бюджетное,Григорьева Людмила Васильевна,37.6270334994,55.7147194834
464,Рязанский район,"109377, г. Москва, 1-я Новокузьминская ул. , д. 21",(495) 378-24-47,Государственное бюджетное общеобразовательное учреждение города Москвы «Школа № 2090»,бюджетное,Кислицина Марина Владимировна,37.7926643671,55.7092666257
465,Головинский район,"125438, г. Москва, ул. Онежская, дом 3",(499) 747-69-98,Государственное автономное профессиональное образовательное учреждение города Москвы «Колледж предпринимательства № 11»,автономное,Шептуха Вячеслав Владимирович,37.5211210696,55.8450721171
466,район Зябликово,"115682, г. Москва, Задонский пр., д.34, корп.3",(495) 395-92-64,Государственное бюджетное общеобразовательное учреждение города Москвы «Школа № 2116 «Зябликово»,бюджетное,Королев Александр Андреевич,37.7520052574,55.61827548
467,Пресненский район,"123001, г. Москва, Вспольный пер., д.6, стр.3",(495) 691-44-96,Государственное бюджетное общеобразовательное учреждение города Москвы «Школа с углубленным изучением отдельных предметов № 1239»,бюджетное,Тимашова Алена Евгеньевна,37.5887003701,55.7603373982
468,район Богородское,"107150, г. Москва, ул. Лосиноостровская, д.22а",(499) 169-19-12,Государственное казенное общеобразовательное учреждение города Москвы «Кадетская школа-интернат № 5 «Преображенский кадетский корпус»,бюджетное,Годына Владимир Васильевич,37.7100387307,55.8254020266
469,Таганский район,"115172, г. Москва, ул.Народная, д.11/2",(495) 911-84-81,Государственное бюджетное общеобразовательное учреждение города Москвы «Школа № 498»,бюджетное,Гордзейко Тамара Васильевна,37.6716273036,55.7291864719
470,район Хамовники,"119021, г. Москва, Зубовский б-р, д.5, стр.1",(499) 246-61-18,Государственное бюджетное общеобразовательное учреждение города Москвы «Школа № 1253 с углубленным изучением иностранного языка»,бюджетное,Акулова Наталья Андреевна,37.5864295008,55.7322712069
471,район Гольяново,"107589, г. Москва, ул. Хабаровская, д. 4а",(495) 469-13-21,Государственное бюджетное общеобразовательное учреждение города Москвы «Гимназия № 1516»,бюджетное,Буканова Наталья Львовна,37.8315999964,55.8193103735
472,Мещанский район,"129110, г. Москва, Б. Переяславская ул., д. 1, стр. 1",(495) 688-49-98,Государственное бюджетное образовательное учреждение города Москвы средняя общеобразовательная школа № 2107,бюджетное,Бабенко Григорий Иванович,37.6243624374,55.7872375941
473,район Ивановское,"105568, г. Москва, улица Чечулина, д. 28",(499) 308-29-54,Государственное бюджетное общеобразовательное учреждение города Москвы «Школа с углубленным изучением иностранных языков № 1373»,бюджетное,Углава Наталия Марковна,37.8337675025,55.7811513859
474,район Строгино,"125310, г. Москва, Ангелов переулок, д. 2, корп. 2",(495) 942-93-36,Государственное бюджетное образовательное учреждение дополнительного образования города Москвы «Дворец творчества детей и молодежи «Неоткрытые острова»,бюджетное,Чистякова Наталья Михайловна,37.4487246773,55.8556788624
475,район Преображенское,"109004, г. Москва, Воронцовская ул., д.6А, стр.1",(495) 963-31-97,Государственное бюджетное образовательное учреждение города Москвы дополнительного профессионального образования (повышения квалификации) специалистов Городской методический центр Департамента образования города Москвы,бюджетное,Лебедева Марианна Владимировна,37.6654955098,55.7431015048
476,Савёловский район,"127220, г. Москва, ул. Нижняя Масловка, д. 16",(495) 614-10-10,Государственное бюджетное общеобразовательное учреждение города Москвы «Центр образования № 1601 имени Героя Советского Союза Е.К. Лютикова»,бюджетное,Фиофанова Ольга Александровна,37.5614381347,55.7961099832
477,район Царицыно,"115419, г. Москва, 2-й Верхний Михайловский пр., д.9-а",(000) 000-00-00,Государственное автономное образовательное учреждение дополнительного профессионального образования города Москвы «Московский центр качества образования»,автономное,Кузьмин Павел Владимирович,37.523410391,55.8086088913
478,район Тропарёво-Никулино,"119571, г. Москва, ул.26 Бакинских комиссаров, д.3, корп.5",(495) 434-26-58,Государственное бюджетное образовательное учреждение Московская гимназия на Юго-Западе № 1543,бюджетное,Завельский Юрий Владимирович,37.486351604,55.6561929048
479,район Старое Крюково,"124527, г. Москва, Зеленоград, корп. 817",(499) 732-09-01,Государственное бюджетное общеобразовательное учреждение города Москвы «Гимназия № 1528»,бюджетное,Слесарев Андрей Сергеевич,37.1816273926,55.9801382851
480,район Преображенское,"111555, г. Москва, ул. Молостовых, д. 10А",(495) 962-19-11,Государственное бюджетное общеобразовательное учреждение города Москвы «Лицей № 1502 при МЭИ»,бюджетное,Чудов Владимир Львович,37.830748545,55.7608422687
481,район Измайлово,"105484, г. Москва, Сиреневый бульвар, 58А",(499) 463-17-69,Государственное бюджетное общеобразовательное учреждение города Москвы «Школа № 734 «Школа самоопределения»,бюджетное,Грицай Юлия Владимировна,37.8212808611,55.800149059
482,район Марьино,"109451, г. Москва, Перервинский б-р, д.5, корп.3",(495) 658-58-88,Государственное бюджетное общеобразовательное учреждение города Москвы «Школа № 1423»,бюджетное,Баталова Марина Викторовна,37.7675998976,55.6639792064
483,район Нагатинский Затон,"115142, г. Москва, Коломенская наб., д.16",(499) 615-62-69,Государственное бюджетное общеобразовательное учреждение города Москвы «Школа № 514»,бюджетное,Смирнов Дмитрий Викторович,37.6920309278,55.6760043184
484,район Котловка,"117186, г. Москва, Севастопольский просп., д. 43А",(499) 127-58-92,Государственное бюджетное общеобразовательное учреждение города Москвы «Школа № 626 имени Н.И.Сац»,бюджетное,Радзевич Валентина Юрьевна,37.5962391223,55.6754153689
485,район Люблино,"109559, г. Москва, Белореченская ул., д.11",(495) 359-99-39,Государственное бюджетное общеобразовательное учреждение города Москвы «Школа № 460 имени дважды Героя Советского Союза А.А. Головачёва»,бюджетное,Голубева Ольга Вадимовна,37.7694084857,55.673658651
486,район Фили-Давыдково,"121374, г. Москва, Кутузовский пр-т, д.80",(499) 445-06-45,Государственное бюджетное общеобразовательное учреждение города Москвы «Школа № 712»,бюджетное,Еременкова Татьяна Егоровна,37.4553388641,55.7258179546
487,район Чертаново Центральное,"117570, г. Москва, Днепропетровская ул., д.33А",(495) 313-74-10,Государственное бюджетное общеобразовательное учреждение города Москвы средняя общеобразовательная школа № 556,бюджетное,Яковлев Геннадий Сергеевич,37.5919703952,55.6213089719
488,район Орехово-Борисово Южное,"115597, г. Москва, ул.Воронежская, д.46, корп.3",(499) 782-70-47,Государственное бюджетное общеобразовательное учреждение города Москвы «Школа № 949»,бюджетное,Антонова Ирина Петровна,37.7475027775,55.6089955803
489,Южнопортовый район,"115432, г. Москва, 2-й Южнопортовый пр., д.11, стр.1",(495) 679-08-26,Государственное бюджетное общеобразовательное учреждение города Москвы «Школа № 2129» имени Героя Советского Союза П.И. Романова,бюджетное,Плахова Алла Семеновна,37.6704571049,55.7042684269
490,район Митино,"125310, г. Москва, Пятницкое шоссе, д. 45, корп. 2",(495) 751-69-72,Государственное бюджетное общеобразовательное учреждение города Москвы «Гимназия № 1358»,бюджетное,Живилин Вячеслав Владимирович,37.3492476937,55.8516935447
491,район Царицыно,"115477, г. Москва, Кавказский б-р, д.16, корп.2",(495) 325-21-33,Государственное бюджетное общеобразовательное учреждение города Москвы «Школа № 904»,бюджетное,Тишкова Елена Алексеевна,37.6651942516,55.6337878177
492,район Коптево,"125299, г. Москва, ул. Большая Академическая, д. 22а",(495) 450-77-52,Государственное бюджетное общеобразовательное учреждение города Москвы «Гимназия № 1576»,бюджетное,Маевская Инна Генриховна,37.520027574,55.8169785772
493,Басманный район,"107078, г. Москва, улица Новая Басманная, д. 4-6, стр. 4",(499) 975-16-41,Государственное бюджетное общеобразовательное учреждение города Москвы «Лицей № 1589»,бюджетное,Никитина Татьяна Павловна,37.6959145688,55.778907437
494,район Южное Бутово,"117623, г. Москва, ул. Джанкойская, д.7",(495) 712-76-33,Государственное бюджетное общеобразовательное учреждение города Москвы «Школа с углубленным изучением экономики и информатики № 1355»,бюджетное,Поручикова Светлана Николаевна,37.5772924451,55.5383943737
495,район Люблино,"109559, г. Москва, Тихорецкий бульвар, д. 8А",(495) 358-11-56,Государственное бюджетное общеобразовательное учреждение города Москвы «Школа № 572 «Возможности»,бюджетное,Жигулина Ирина Борисовна,37.7678691071,55.6780345441
496,Гагаринский район,"119334, г. Москва, Ленинский проспект, д. 34А",(499) 135-33-40,Государственное бюджетное общеобразовательное учреждение города Москвы «Школа № 192»,бюджетное,Старкова Татьяна Михайловна,37.5745547572,55.7070311701
497,район Перово,"111401, г. Москва, ул. 3-я Владимирская, дом 12 А",(495) 304-03-00,Государственное бюджетное общеобразовательное учреждение города Москвы «Гимназия № 1637»,бюджетное,Пшенина Ирина Вадимовна,37.783897319,55.7597091237
498,район Перово,"111399, г. Москва, Федеративный проспект, д. 1 А",(495) 304-01-09,Государственное бюджетное общеобразовательное учреждение города Москвы «Школа № 423»,бюджетное,Борматова Жанна Георгиевна,37.7908717385,55.7631596007
499,район Южное Бутово,"117041, г. Москва, улица Академика Понтрягина, дом 17, корпус 1",(495) 715-26-37,Государственное бюджетное общеобразовательное учреждение города Москвы «Школа с углубленным изучением информационных технологий № 1368»,бюджетное,Бобина Елена Васильевна,37.5155271324,55.5296772071
500,район Тропарёво-Никулино,"119602, г. Москва, ул.Академика Анохина, д.4, корп.5",(495) 735-66-11,Государственное бюджетное общеобразовательное учреждение города Москвы «Школа с углубленным изучением английского языка № 1317»,бюджетное,Глебова Венера Ленсовна,37.4698375546,55.6709175754
501,район Хамовники,"119146, г. Москва, 2-ая Фрунзенская ул., д.7А",(499) 246-87-09,Государственное бюджетное общеобразовательное учреждение города Москвы «Школа № 171»,бюджетное,Карпенко Лидия Петровна,37.582072722,55.723627739
502,район Новогиреево,"111141, г. Москва, ул. Перовская, д. 44а",(495) 309-36-64,Государственное бюджетное общеобразовательное учреждение города Москвы «Московский культурологический лицей № 1310»,бюджетное,Вдовин Андрей Владимирович,37.7797994615,55.7437982575
503,Гагаринский район,"107078, г. Москва, Малый Козловский пер., д.3",(495) 939-07-82,Государственное бюджетное образовательное учреждение города Москвы средняя общеобразовательная школа № 1621 «Школа лидерства Лаудер Эц Хайм»,бюджетное,Ясинская Юлия Сергеевна,37.5413015849,55.6934752304
504,район Хамовники,"119019, г. Москва, М.Знаменский пер., д.7/10, стр.5",(495) 690-15-91,Государственное бюджетное образовательное учреждение города Москвы центр образования № 57 «Пятьдесят седьмая школа»,бюджетное,Менделевич Сергей Львович,37.6045851693,55.7488601909
505,район Марьино,"109469, г. Москва, ул. Белореченская, д. 36, корп. 1",(495) 658-90-10,Государственное бюджетное общеобразовательное учреждение города Москвы «Школа № 1987 многопрофильный образовательный комплекс»,бюджетное,Май Татьяна Николаевна,37.7758228839,55.6598955232
506,район Северное Медведково,"127224, г. Москва, ул.Широкая, д.21-А",(499) 479-11-22,Государственное бюджетное общеобразовательное учреждение города Москвы «Школа № 283»,бюджетное,Воронова Ирина Сергеевна,37.6670069128,55.8917486955
507,район Крюково,"124365, г. Москва, Зеленоград, корп. 1609",(499) 717-04-93,Государственное бюджетное общеобразовательное учреждение города Москвы «Школа № 1150 имени Героя Советского Союза К.К. Рокоссовского»,бюджетное,Федотова Наталия Николаевна,37.1545378368,55.9749467313
508,район Северное Измайлово,"105215, г. Москва, ул. 11-ая Парковая, д.50",(495) 770-46-32,Государственное бюджетное общеобразовательное учреждение города Москвы «Гимназия № 2200»,бюджетное,Маркова Екатерина Николаевна,37.80614476,55.8074049876
509,район Южное Бутово,"117042, г. Москва, Чечерский пр., д.56",(495) 715-51-36,Государственное бюджетное общеобразовательное учреждение города Москвы «Школа № 1980»,бюджетное,Сибилев Игорь Вячеславович,37.5361915984,55.5361538514
510,район Орехово-Борисово Северное,"115407, г. Москва, ул.Якорная, д.6, корп.1",(495) 391-16-69,Государственное бюджетное профессиональное образовательное учреждение города Москвы «Колледж декоративно-прикладного искусства имени Карла Фаберже»,бюджетное,Никулаева Мария Ивановна,37.7085084855,55.6203721974
511,район Северное Тушино,"125480, г. Москва, ул. Героев Панфиловцев, д. 15",(495) 496-25-74,Государственное бюджетное общеобразовательное учреждение города Москвы «Школа с углубленным изучением французского языка № 1286»,бюджетное,Волкова Светлана Анатольевна,37.4306567773,55.8559172564
512,район Сокольники,"107076, г. Москва, ул. Олений вал, дом 22",(495) 964-43-61,Государственное казенное общеобразовательное учреждение города Москвы «Специальная (коррекционная) общеобразовательная школа-интернат № 30 имени К.А. Микаэльяна»,бюджетное,Павлова Любовь Ивановна,37.6918771375,55.7997596843
513,район Черёмушки,"117420, г. Москва, ул. Новочеремушкинская, дом 64, корпус 2",(495) 331-08-22,Государственное бюджетное общеобразовательное учреждение города Москвы «Школа № 1948 «Лингвист-М»,бюджетное,Семенов Виктор Иванович,37.5752039939,55.6646554312
514,район Марьино,"109451, г. Москва, Перервинский бульвар, дом 10, к. 2",(499) 784-88-71,Государственное бюджетное общеобразовательное учреждение города Москвы «Школа № 1357 «Многопрофильный комплекс «Братиславский»,бюджетное,Салтыкова Татьяна Андреевна,37.7545096944,55.6583137344
515,район Гольяново,"107207, г. Москва, Щелковское ш., д.77А",(495) 468-11-62,Государственное бюджетное общеобразовательное учреждение города Москвы «Школа с углубленным изучением английского языка № 1352»,бюджетное,Корнеева Елена Ивановна,37.8026986178,55.8159804523
516,район Ново-Переделкино,"121351, г. Москва, ул. Бобруйская, д.7",(495) 732-99-22,"Государственное бюджетное профессиональное образовательное учреждение города Москвы «Колледж градостроительства, транспорта и технологий № 41»",бюджетное,Кулаков Андрей Викторович,37.4574151175,55.72271412
517,Таганский район,"119048, г. Москва, ул.Усачева, д.50",(000) 000-00-00,Государственное бюджетное общеобразовательное учреждение города Москвы «Лицей № 1535»,бюджетное,Воробьева Татьяна Васильевна,37.5653314307,55.7264344607
518,район Бирюлёво Восточное,"115404, г. Москва, ул. Элеваторная, д. 4, корп. 2",(495) 326-63-38,Государственное бюджетное общеобразовательное учреждение города Москвы «Школа № 508»,бюджетное,Чепелкина Людмила Игоревна,37.6576076517,55.5978462506
519,район Богородское,"107150, г. Москва, ул. Ивантеевская, 32А",(499) 160-12-20,Государственное бюджетное общеобразовательное учреждение города Москвы «Школа № 362»,бюджетное,Пухова Татьяна Сергеевна,37.725118632,55.8133940588
520,район Свиблово,"129343, г. Москва, проезд Нансена, дом 14",(499) 180-45-96,Государственное казенное общеобразовательное учреждение города Москвы «Специальная (коррекционная) общеобразовательная школа-интернат № 102»,бюджетное,Васенков Геннадий Васильевич,37.6522609963,55.8538505762
521,район Восточный,"105173, г. Москва, ул. Главная, д.13",(499) 780-69-58,Государственное бюджетное общеобразовательное учреждение города Москвы «Школа № 664»,бюджетное,Демьяненко Тамара Петровна,37.8651679279,55.8198537992
522,район Северное Бутово,"117216, г. Москва, ул. Грина, дом 18, корпус 3, строение 1",(495) 713-84-01,Государственное бюджетное общеобразовательное учреждение города Москвы «Школа № 2006»,бюджетное,Илюхина Вера Алексеевна,37.5782192371,55.5674861298
523,Останкинский район,"129085, г. Москва, проспект Мира, д. 87",(495) 687-66-66,Государственное бюджетное образовательное учреждение города Москвы гимназия № 1518,бюджетное,Фирсова Марина Михайловна,37.6336764099,55.8094586084
524,район Левобережный,"124445, г. Москва, Валдайский проезд, д. 14",(499) 457-73-21,Государственное бюджетное общеобразовательное учреждение города Москвы «Школа № 158»,бюджетное,Чернышева Зоя Николаевна,37.4663347034,55.8723005844
525,район Строгино,"123181, г. Москва, ул. Исаковского, д. 29, корп. 1",(495) 942-98-10,Государственное бюджетное образовательное учреждение города Москвы средняя общеобразовательная школа с углубленным изучением иностранных языков № 1302,бюджетное,Святун Людмила Александровна,37.4155366298,55.8080480522
526,район Бирюлёво Восточное,"115598, г. Москва, Загорьевский пр., д.13",(495) 329-71-22,Государственное бюджетное общеобразовательное учреждение города Москвы «Школа № 1861 «Загорье»,бюджетное,Шлякова Елена Николаевна,37.6787808214,55.5792896618
527,район Нагатинский Затон,"115142, г. Москва, Коломенская наб., д.20",(499) 617-82-00,Государственное бюджетное общеобразовательное учреждение города Москвы «Школа № 1770»,бюджетное,Горемыкин Михаил Юрьевич,37.686857773,55.6875721239
528,район Богородское,"107564, г. Москва, Миллионная ул., д.5, корп.1",(499) 169-40-70,Государственное бюджетное общеобразовательное учреждение города Москвы «Школа № 374»,бюджетное,Шамалова Марина Олеговна,37.6951008423,55.8179860272
529,район Раменки,"119607, г. Москва, ул.Раменки, д.15, корп.1",(495) 931-04-12,Государственное бюджетное общеобразовательное учреждение города Москвы «Школа № 1434 «Раменки»,бюджетное,Карпухин Алексей Владимирович,37.4980893319,55.6907051712
530,Пресненский район,"123290, г. Москва, Мукомольный пр., д.3, стр.1",(499) 259-63-77,Государственное бюджетное общеобразовательное учреждение города Москвы «Школа № 2048»,бюджетное,Ковшов Владимир Львович,37.5235609106,55.75111528
531,район Вешняки,"111538, г. Москва, ул. Косинская, д. 10А",(499) 374-00-40,Государственное бюджетное образовательное учреждение города Москвы гимназия № 402 им. Алии Молдагуловой,бюджетное,Литвинова Юлия Сергеевна,37.8293457737,55.7211667071
532,район Тропарёво-Никулино,"119602, г. Москва, ул. Академика Анохина, д. 32",(495) 437-72-34,Государственное бюджетное общеобразовательное учреждение города Москвы «Школа № 14»,бюджетное,Семина Александра Владимировна,37.4698773359,55.657547132
533,район Кузьминки,"109443, г. Москва, ул. Зеленодольская, дом 33, корпус 3",(499) 172-59-60,Государственное бюджетное общеобразовательное учреждение города Москвы «Школа с углубленным изучением английского языка № 1208 имени Героя Советского Союза М.С. Шумилова»,бюджетное,Малышева Лариса Юрьевна,37.7757630152,55.7086563562
534,район Люблино,"109387, г. Москва, ул. Краснодонская д.2, кор.4",(495) 350-56-88,Государственное бюджетное общеобразовательное учреждение города Москвы «Школа с этнокультурным русским компонентом образования № 1148 имени Ф.М.Достоевского»,бюджетное,Абрамов Роман Юрьевич,37.739034833,55.6856410862
535,Алексеевский район,"129626, г. Москва, ул. Староалексеевская, дом 1",(495) 687-53-73,Государственное бюджетное общеобразовательное учреждение города Москвы «Гимназия № 1539»,бюджетное,Карачарова Татьяна Ивановна,37.642442317,55.8071846701
536,район Северное Бутово,"117628, г. Москва, ул. Ратная, д.6Б",(495) 711-24-54,Государственное бюджетное общеобразовательное учреждение города Москвы «Школа № 1613»,бюджетное,Зенкина Наталия Сергеевна,37.5836693644,55.5746789577
537,район Северное Измайлово,"105215, г. Москва, ул. 13-я Парковая, д. 33",(495) 468-83-37,Государственное бюджетное общеобразовательное учреждение города Москвы «Гимназия № 1563»,бюджетное,Ефимова Оксана Сергеевна,37.8089368198,55.8052980481
538,район Северное Медведково,"127349, г. Москва, улица Лескова, д.7",(000) 000-00-00,Государственное бюджетное образовательное учреждение дополнительного образования города Москвы «Центр детского и юношеского творчества «Бибирево»,бюджетное,Филиппова Евгения Александровна,37.5964750921,55.899823551
539,район Преображенское,"107061, г. Москва, улица 2-я Пугачевская, дом 6А",(499) 780-26-90,Государственное бюджетное общеобразовательное учреждение города Москвы «Гимназия № 1505 «Московская городская педагогическая гимназия-лаборатория»,бюджетное,Наумов Леонид Анатольевич,37.7231535882,55.7941016964
540,Обручевский район,"117393, г. Москва, ул. Гарибальди, дом 28, корпус 3",(499) 794-44-65,Государственное бюджетное общеобразовательное учреждение города Москвы «Школа № 121»,бюджетное,Сметлев Василий Сергеевич,37.5497415347,55.6687184375
541,район Люблино,"109382, г. Москва, ул. Мариупольская, д. 3",(495) 657-22-77,Государственное бюджетное общеобразовательное учреждение города Москвы «Школа № 338»,бюджетное,Курилина Ольга Ярославльевна,37.7416761742,55.6750508142
542,Хорошёвский район,"125167, г. Москва, проезд Аэропорта, дом 10",(499) 157-34-81,Государственное бюджетное общеобразовательное учреждение города Москвы «Школа с углубленным изучением английского языка № 1287»,бюджетное,Бохонская Инесса Евгеньевна,37.5257028041,55.800105415
543,район Вешняки,"111402, г. Москва, аллея Жемчуговой, 7",(495) 375-18-87,Государственное бюджетное общеобразовательное учреждение города Москвы «Школа № 1028»,бюджетное,Сачкова Наталья Владимировна,37.8204983935,55.7397584645
544,Можайский район,"121471, г. Москва, ул.Гвардейская, д.15, корпус 2",(495) 446-34-73,Государственное бюджетное профессиональное образовательное учреждение города Москвы «Западный комплекс непрерывного образования»,бюджетное,Трофимов Андрей Николаевич,37.3865310219,55.7236705201
545,район Люблино,"115280, г. Москва, Велозаводская ул., д.8",(495) 351-57-00,Государственное бюджетное профессиональное образовательное учреждение города Москвы «Московский многопрофильный техникум им. Л.Б. Красина»,бюджетное,Табатадзе Лиана Мурмановна,37.7432501809,55.6691149316
546,район Текстильщики,"109263, г. Москва, ул. Шкулева, дом 2",(499) 179-65-11,Государственное бюджетное образовательное учреждение дополнительного образования города Москвы «Дворец творчества детей и молодежи имени А.П. Гайдара»,бюджетное,Ляпунов Алексей Юрьевич,37.745131342,55.6922378649
547,район Южное Тушино,"125363, г. Москва, ул. Штурвальная, д. 7, корп. 2",(499) 493-18-10,Государственное бюджетное общеобразовательное учреждение города Москвы «Школа № 1056»,бюджетное,Борисова Елена Александровна,37.4430001004,55.8467496056
548,Красносельский район,"127051, г. Москва, ул.Сретенка, д.29",(495) 632-99-57,Государственное бюджетное образовательное учреждение высшего профессионального образования города Москвы «Московский городской психолого-педагогический университет»,бюджетное,Рубцов Виталий Владимирович,37.5235979202,55.7495587333
549,район Куркино,"125466, г. Москва, ул. Юровская, д. 97",(499) 401-86-04,Государственное бюджетное общеобразовательное учреждение города Москвы «Школа № 1298»,бюджетное,Ярославская Ольга Владимировна,37.3941053778,55.8975702159
550,район Богородское,"107564, г. Москва, ул. Краснобогатырская, д. 21А",(495) 964-41-10,Государственное бюджетное общеобразовательное учреждение города Москвы «Школа с углубленным изучением математики № 1360»,бюджетное,Синченко Лидия Андреевна,37.7038210975,55.8121598493
551,район Покровское-Стрешнево,"125362, г. Москва, ул. Большая Набережная, 23",(495) 491-15-93,Государственное бюджетное общеобразовательное учреждение города Москвы «Школа № 830»,бюджетное,Климова Марина Владимировна,37.4445573437,55.8241652212
552,район Крылатское,"121609, г. Москва, ул.Крылатские холмы, д.15, корп.1",(495) 413-56-25,Государственное бюджетное общеобразовательное учреждение города Москвы «Школа № 1133»,бюджетное,Кустовинова Елена Юрьевна,37.4152207583,55.7524651459
553,район Северное Измайлово,"105484, г. Москва, Сиреневый бульвар, дом 55",(499) 748-83-97,Государственное бюджетное общеобразовательное учреждение города Москвы «Школа № 356 имени Н.З. Коляды»,бюджетное,Егоров Сергей Сергеевич,37.8158414227,55.8097884454
554,район Раменки,"119192, г. Москва, Мичуринский проспект, д. 15, корп. 2, 3",(495) 932-99-58,Государственное автономное общеобразовательное учреждение города Москвы «Гимназия № 1306»,автономное,Спорышева Елена Болеславовна,37.5090779093,55.6982586867
555,район Раменки,"119192, г. Москва, Мичуринский просп., д.42",(495) 931-54-00,Государственное бюджетное образовательное учреждение города Москвы средняя общеобразовательная школа № 38,бюджетное,Сяфуков Марат Рафикович,37.4894142027,55.6969772457
556,район Северное Тушино,"125480, г. Москва, ул. Вилиса Лациса, 33-2",(495) 949-64-92,Государственное бюджетное общеобразовательное учреждение города Москвы «Школа с углубленным изучением иностранных языков № 1399»,бюджетное,Шнейдер Елена Вильгельмовна,37.4083540556,55.8584015897
557,район Орехово-Борисово Северное,"115563, г. Москва, Борисовский пр-д, д.10, к.2",(495) 394-40-33,Государственное бюджетное общеобразовательное учреждение города Москвы «Школа № 426»,бюджетное,Петрова Наталия Ивановна,37.7241652835,55.6226995666
558,Ломоносовский район,"119261, г. Москва, Ленинский пр-т, д.83А",(499) 134-13-65,Государственное бюджетное образовательное учреждение города Москвы гимназия № 1536,бюджетное,Акатова Марина Вячеславовна,37.5396411488,55.6801572003
559,район Сокольники,"107014, г. Москва, ул. Большая Оленья, д. 3",(495) 964-45-22,Государственное бюджетное общеобразовательное учреждение города Москвы «Гимназия № 1404 «Гамма»,бюджетное,Мешкова Светлана Анатольевна,37.6852020059,55.7981083952
560,район Косино-Ухтомский,"111675, г. Москва, ул.Дмитриевского, д.13",(499) 721-74-03,Государственное бюджетное общеобразовательное учреждение города Москвы «Школа № 2031»,бюджетное,Долматов Василий Николаевич,37.8943865847,55.7182753147
561,Хорошёвский район,"123007, г. Москва, Хорошевское шоссе, дом 3",(495) 941-29-22,Государственное бюджетное общеобразовательное учреждение города Москвы «Школа с углубленным изучением иностранных языков № 1288 имени Героя Советского Союза Н.В. Троян»,бюджетное,Мартынова Елена Васильевна,37.5295191921,55.7775853231
562,район Чертаново Южное,"117405, г. Москва, ул.Газопровод, д.5А",(495) 388-78-27,Государственное бюджетное общеобразовательное учреждение города Москвы «Школа № 924»,бюджетное,Бордовская Ольга Геннадьевна,37.6111009212,55.5902305715
563,район Ховрино,"125502, г. Москва, ул. Фестивальная, д. 69",(495) 455-99-03,Государственное бюджетное общеобразовательное учреждение города Москвы «Гимназия № 1590 имени Героя Советского Союза В.В. Колесника»,бюджетное,Боброва Елена Николаевна,37.4999435044,55.8578302497
564,район Силино,"124460, г. Москва, Зеленоград, корп.1115",(499) 732-25-43,Государственное бюджетное общеобразовательное учреждение города Москвы «Школа № 852»,бюджетное,Смотрова Татьяна Ивановна,37.1781032631,55.9985652585
565,район Печатники,"109388, г. Москва, ул. Гурьянова, д. 33",(495) 353-90-09,Государственное бюджетное общеобразовательное учреждение города Москвы «Школа «Спектр»,бюджетное,Виноградова Римма Александровна,37.7190029354,55.6760720799
566,район Внуково,"119027, г. Москва, ул. Большая Внуковская, д.4",(495) 436-24-25,Государственное бюджетное общеобразовательное учреждение города Москвы «Школа № 41 имени Григория Алексеевича Тарана»,бюджетное,Васильева Елена Валентиновна,37.2985395157,55.6162362116
567,район Северное Измайлово,"105425, г. Москва, ул. 5-я Парковая, д.49",(499) 164-47-90,Государственное бюджетное общеобразовательное учреждение города Москвы «Школа № 399»,бюджетное,Антонова Татьяна Неоновна,37.7677395686,55.8033924633
568,район Фили-Давыдково,"121433, г. Москва, ул.Малая Филевcкая, д.26, корп.2",(499) 144-65-63,Государственное бюджетное общеобразовательное учреждение города Москвы «Школа № 2101 «Филёвский образовательный центр»,бюджетное,Модель Дмитрий Лазаревич,37.4792392567,55.7371440504
569,район Лианозово,"129337, г. Москва, Хибинский пр-д, д.10",(495) 544-03-51,Государственное бюджетное профессиональное образовательное учреждение города Москвы «Колледж современных технологий имени Героя Советского Союза М.Ф. Панова»,бюджетное,Лунькин Александр Николаевич,37.7041598883,55.8792849062
570,район Строгино,"123181, г. Москва, ул. Кулакова, д. 2, к. 2",(495) 757-54-97,Государственное бюджетное общеобразовательное учреждение города Москвы «Школа № 69 имени Б.Ш. Окуджавы»,бюджетное,Тюрина Наталья Александровна,37.3960108755,55.8145948084
571,Басманный район,"105066, г. Москва, Елоховский пр., д.1, стр.5",(499) 267-66-76,Государственное бюджетное общеобразовательное учреждение города Москвы «Школа № 345 имени А.С. Пушкина»,бюджетное,Тверская Наталья Викторовна,37.6690439911,55.7799147692
572,район Марьино,"109651, г. Москва, Новочеркасский бульвар, дом 19",(499) 356-92-11,Государственное бюджетное общеобразовательное учреждение города Москвы «Гимназия № 491 «Марьино»,бюджетное,Баданов Александр Васильевич,37.7231766885,55.6494446908
573,район Южное Бутово,"117041, г. Москва, улица Адмирала Руднева, дом 16, корпус 1",(495) 714-21-00,Государственное бюджетное общеобразовательное учреждение города Москвы «Школа № 2009»,бюджетное,Гесслер Дмитрий Михайлович,37.5199436336,55.5358864639
574,район Крюково,"124683, г. Москва, Зеленоград, корп. 1816",(499) 738-00-55,Государственное бюджетное общеобразовательное учреждение города Москвы «Школа № 1912 имени Бауыржана Момышулы»,бюджетное,Князева Светлана Владимировна,37.166276936,55.9814239921
575,район Сокольники,"105484, г. Москва, ул. 16-я Парковая, д. 20",(499) 264-93-80,Государственное автономное профессиональное образовательное учреждение города Москвы «Технологический колледж № 24»,автономное,Судибор Ирина Васильевна,37.7990345319,55.7479488852
576,район Южное Медведково,"127081, г. Москва, Ясный пр., д.21",(499) 477-43-62,Государственное бюджетное общеобразовательное учреждение города Москвы «Школа № 285 имени В.А. Молодцова»,бюджетное,Пыканов Игорь Владимирович,37.6299675944,55.875505383
577,район Бибирево,"127560, г. Москва, улица Коненкова, д.8А",(499) 206-92-66,Государственное бюджетное общеобразовательное учреждение города Москвы «Школа «Многопрофильный комплекс Бибирево»,бюджетное,Артамонова Мария Петровна,37.6044006335,55.8871088133
578,район Южное Бутово,"117624, г. Москва, улица Изюмская, дом 35А",(495) 716-01-27,Государственное бюджетное общеобразовательное учреждение города Москвы «Школа № 1161»,бюджетное,Макаров Александр Сергеевич,37.5688686796,55.5520079995
579,район Орехово-Борисово Южное,"115583, г. Москва, Елецкая улица, дом 12 корпус3",(495) 399-40-03,Государственное бюджетное общеобразовательное учреждение города Москвы «Гимназия № 1636 «НИКА»,бюджетное,Глотова Ирина Борисовна,37.7286740042,55.61108727
580,район Лианозово,"127576, г. Москва, ул.Новгородская, д.8",(499) 409-14-40,Государственное бюджетное общеобразовательное учреждение города Москвы «Школа с углубленным изучением английского языка № 1416 «Лианозово»,бюджетное,Мерзликин Александр Юрьевич,37.5844400769,55.8926590057
581,район Соколиная Гора,"105187, г. Москва, Измайловское шосе, дом 60.",(495) 365-37-66,Государственное бюджетное общеобразовательное учреждение города Москвы «Школа с углубленным изучением экономики № 1301 имени Е.Т. Гайдара»,бюджетное,Фастовский Игорь Анатольевич,37.7306346447,55.7805064087
582,район Отрадное,"127273, г. Москва, улица Отрадная, 1А",(499) 204-24-00,Государственное бюджетное общеобразовательное учреждение города Москвы «Школа № 950»,бюджетное,Решетникова Марина Станиславовна,37.614453604,55.857460816
583,Ярославский район,"129347, г. Москва, Ярославское ш., д.147",(499) 182-55-92,Государственное бюджетное общеобразовательное учреждение города Москвы «Школа № 760 имени А.П. Маресьева»,бюджетное,Курмышова Ольга Анатольевна,37.7193002699,55.8818330402
584,Алтуфьевский район,"127549, г. Москва, ул.Костромская, д.14, корп.1",(499) 901-21-22,Государственное бюджетное общеобразовательное учреждение города Москвы «Школа с углубленным изучением английского языка № 1370»,бюджетное,Корышев Сергей Валентинович,37.5930162774,55.8856761685
585,район Лианозово,"127572, г. Москва, ул.Новгородская, д.21А",(499) 200-70-11,Государственное бюджетное общеобразовательное учреждение города Москвы «Школа № 1430 имени Героя Социалистического Труда Г.В. Кисунько»,бюджетное,Савельева Татьяна Владленовна,37.5761045073,55.900754677
586,район Аэропорт,"125319, г. Москва, ул. 1-ая Аэропортовская, д. 1",(499) 151-60-67,Государственное бюджетное общеобразовательное учреждение города Москвы «Школа № 152»,бюджетное,Болелина Нина Васильевна,37.5449004156,55.7963945209
587,район Чертаново Южное,"117535, г. Москва, улица Дорожная, дом 22А",(495) 382-24-04,Государственное бюджетное общеобразовательное учреждение города Москвы «Школа № 2113»,бюджетное,Ткач Ирина Петровна,37.6188416565,55.5996547086
588,район Якиманка,"115035, г. Москва, 1-й Кадашевский пер., дом 3, строение 1",(499) 237-40-62,Государственное бюджетное общеобразовательное учреждение города Москвы «Многопрофильный лицей № 1799»,бюджетное,Сычева Татьяна Евгеньевна,37.609999594,55.7330684567
589,район Проспект Вернадского,"119454, г. Москва, ул.Лобачевского, д.54",(499) 431-19-95,Государственное бюджетное общеобразовательное учреждение города Москвы «Школа № 324 «Жар-птица»,бюджетное,Зотова Елена Борисовна,37.4969825888,55.6788421984
590,район Капотня,"109649, г. Москва, Капотня, 5-й квартал, дом 29",(495) 355-54-61,Государственное бюджетное общеобразовательное учреждение города Москвы «Центр образования № 1858»,бюджетное,Стрельцов Владимир Николаевич,37.7944763302,55.6391331865
591,район Хамовники,"119270, г. Москва, ул. Хамовнический Вал,д.6",(499) 242-27-82,Государственное автономное образовательное учреждение дополнительного профессионального образования города Москвы «Центр педагогического мастерства»,бюджетное,Ященко Иван Валериевич,37.5761177075,55.7173657497
592,район Метрогородок,"107143, г. Москва, Открытое шоссе, д. 29 А",(499) 167-27-41,Государственное бюджетное общеобразовательное учреждение города Москвы «Школа с углубленным изучением английского языка № 1246»,бюджетное,Дручина Марина Альбертовна,37.7636813805,55.8301072146
593,район Аэропорт,"125315, г. Москва, ул. Усиевича, д. 31",(499) 151-49-07,Государственное бюджетное профессиональное образовательное учреждение города Москвы «Колледж архитектуры и строительства № 7»,бюджетное,Корсаков Сергей Владимирович,37.5193778681,55.8852415812
594,район Измайлово,"105043, г. Москва, ул. Первомайская, д.59, строение 1",(499) 165-52-42,Государственное бюджетное общеобразовательное учреждение города Москвы «Гимназия № 1290»,бюджетное,Красиков Сергей Владимирович,37.7932390488,55.7939930044
595,район Куркино,"125466, г. Москва, ул. Родионовская, д. 6/7",(499) 401-88-05,Государственное бюджетное общеобразовательное учреждение города Москвы «Школа № 2005»,бюджетное,Савчук Елена Ивановна,37.3956863921,55.894651803
596,Бескудниковский район,"127247, г. Москва, Бескудниковский бульвар, д. 50а",(499) 488-12-75,Государственное бюджетное общеобразовательное учреждение города Москвы «Центр образования «Бескудниковский»,бюджетное,Юницкая Елена Анатольевна,37.5402417371,55.8756915081
597,район Нагатино-Садовники,"115446, г. Москва, ул.Садовники, д.12",(499) 612-22-94,Государственное бюджетное общеобразовательное учреждение города Москвы «Лицей № 507»,бюджетное,Жданов Владимир Николаевич,37.6709612167,55.6763463658
598,район Беговой,"125284, г. Москва, ул.Беговая, д.19",(495) 945-33-74,Государственное бюджетное общеобразовательное учреждение города Москвы «Лицей № 1550»,бюджетное,Лосев Никита Валерьевич,37.5591411454,55.7822911895
599,район Кузьминки,"109443, г. Москва, Есенинский бульвар, дом 14, кор 2",(499) 742-65-70,Государственное бюджетное общеобразовательное учреждение города Москвы «Многопрофильный образовательный комплекс «Кузьминки»,бюджетное,Пашутина Татьяна Александровна,37.7749714177,55.7008687161
600,Гагаринский район,"107140, г. Москва, 2-й Красносельский переулок, дом 18",(495) 939-89-50,Государственное бюджетное общеобразовательное учреждение города Москвы «Лицей № 1525 «Красносельский»,бюджетное,Трегубова Елена Павловна,37.5553607778,55.7027168529
601,район Текстильщики,"109263, г. Москва, Волжский б-р, д.52/29",(499) 179-12-10,Государственное бюджетное образовательное учреждение города Москвы кадетская школа - интернат № 9 «Московский пансион государственных воспитанниц»,бюджетное,Кальченко Елена Александровна,37.7514935442,55.6961117268
602,Даниловский район,"115280, г. Москва, 1-й Кожуховский проезд, д.17",(495) 675-76-94,Государственное бюджетное общеобразовательное учреждение города Москвы «Гимназия № 1272»,бюджетное,Крыжановская Елена Игоревна,37.6636685487,55.7035697773
603,район Западное Дегунино,"125599, г. Москва, ул. Бусиновская Горка, д. 7, корп. 2",(495) 486-07-13,Государственное бюджетное общеобразовательное учреждение города Москвы «Школа № 1125 имени Я.Н. Федоренко»,бюджетное,Савин Иван Михайлович,37.4937781536,55.883713911
604,Алтуфьевский район,"127591, г. Москва, Керамический пр-д, д.59",(499) 901-48-00,Государственное бюджетное профессиональное образовательное учреждение города Москвы «Колледж автомобильного транспорта № 9»,бюджетное,Шишлов Александр Николаевич,37.5325386656,55.8120624752
605,район Косино-Ухтомский,"111675, г. Москва, ул. Медведева, дом 6",(499) 797-00-30,Государственное бюджетное общеобразовательное учреждение города Москвы «Школа № 2026»,бюджетное,Матвеева Елена Юрьевна,37.9049584676,55.7202222877
606,Бутырский район,"127254, г. Москва, ул. Яблочкова, дом 10",(495) 618-89-01,Государственное бюджетное общеобразовательное учреждение города Москвы «Школа с углубленным изучением иностранного языка № 1236»,бюджетное,Копылова Ирина Александровна,37.5942412023,55.8153985175
607,район Кунцево,"121615, г. Москва, Рублевское ш., д.24, корп.3",(495) 415-74-24,Государственное бюджетное общеобразовательное учреждение города Москвы «Гимназия № 1584»,бюджетное,Журавлева Кира Ивановна,37.4369672047,55.7397665901
608,район Тёплый Стан,"117513, г. Москва, Ленинский пр-т, дом 125, корп.4",(905) 713-91-84,Государственное бюджетное общеобразовательное учреждение города Москвы «Школа № 51»,бюджетное,Гаврилычева Наталья Анатольевна,37.482698279,55.6445960993
609,район Богородское,"107143, г. Москва, ул. Вербная, д. 4, стр. 1",(499) 160-14-43,Государственное бюджетное профессиональное образовательное учреждение города Москвы «Технологический колледж № 21»,бюджетное,Раздобаров Николай Дорофеевич,37.7758950701,55.8246712932
610,Донской район,"117639, г. Москва, Балаклавский пр-т, д.6А",(495) 954-37-93,Государственное бюджетное общеобразовательное учреждение города Москвы «Лицей № 1580 при МГТУ имени Н.Э.Баумана»,бюджетное,Граськин Сергей Сергеевич,37.6126444315,55.6419046904
611,район Нагатинский Затон,"115446, г. Москва, ул. Академика Миллионщикова, 20",(499) 617-93-44,Государственное бюджетное профессиональное образовательное учреждение города Москвы «Московский государственный колледж электромеханики и информационных технологий»,бюджетное,Кулакова Наталья Олеговна,37.6446881282,55.6661494806
612,Головинский район,"125493, г. Москва, ул. Смольная, д. 25",(495) 453-44-25,Государственное бюджетное общеобразовательное учреждение города Москвы «Гимназия № 1583 имени К. А. Керимова»,бюджетное,Дворянцева Светлана Евгеньевна,37.4944744068,55.8500305696
613,район Тропарёво-Никулино,"119526, г. Москва, просп. Вернадского, д.101, корп.5",(499) 739-56-23,Государственное бюджетное общеобразовательное учреждение города Москвы «Школа № 875»,бюджетное,Козлова Ирина Станиславовна,37.4913459282,55.6615897087
614,район Измайлово,"105264, г. Москва, Измайловский бульвар, дом 7, строение 1",(499) 463-67-81,Государственное бюджетное общеобразовательное учреждение города Москвы «Школа № 2094»,бюджетное,Рытиков Валентин Павлович,37.785186857,55.797697182
615,Пресненский район,"123022, г. Москва, Б.Трехгорный пер., д.3",(499) 256-29-39,Государственное бюджетное общеобразовательное учреждение города Москвы «Школа с углубленным изучением иностранного (английского) языка № 1241»,бюджетное,Алексеев Антон Григорьевич,37.570003084,55.7555923176
616,район Ново-Переделкино,"119633, г. Москва, ул.Приречная, д.1",(495) 731-26-99,Государственное бюджетное общеобразовательное учреждение города Москвы «Гимназия № 1596»,бюджетное,Парнов Дмитрий Андреевич,37.372108803,55.6429273901
617,Дмитровский район,"125412, г. Москва, Шоссе Коровинское, дом 24 А",(495) 483-28-75,Государственное бюджетное общеобразовательное учреждение города Москвы «Школа № 236 имени Героя Советского Союза Г. И. Щедрина»,бюджетное,Романова Елена Вячеславовна,37.5238360624,55.880890347
618,район Богородское,"107258, г. Москва, б-р Рокоссовского маршала, д. 34/2",(499) 160-29-80,Государственное бюджетное общеобразовательное учреждение города Москвы «Школа с углубленным изучением экологии № 390 имени генерала П.И. Батова»,бюджетное,Ярочкина Ирина Анатольевна,37.7275537727,55.8098830886
619,район Бирюлёво Западное,"117403, г. Москва, Востряковский пр., д.13А",(495) 383-85-11,Государственное бюджетное образовательное учреждение города Москвы средняя общеобразовательная школа № 667,бюджетное,Мартанова Юлия Валентиновна,37.6498429346,55.5777921686
620,район Чертаново Южное,"117556, г. Москва, Варшавское ш., д. 67",(499) 661-94-40,Государственное бюджетное общеобразовательное учреждение города Москвы «Лицей № 504»,бюджетное,Корягин Андрей Михайлович,37.5995249021,55.5814200662
621,Алексеевский район,"127549, г. Москва, ул.Бибиревская, д.6, корп.1",(495) 901-56-38,Государственное бюджетное профессиональное образовательное учреждение города Москвы «Политехнический колледж имени П.А. Овчинникова»,бюджетное,Селенков Николай Борисович,37.6515500299,55.823722437
622,район Ясенево,"117463, г. Москва, Новоясеневский проспект, д.38, корп.2",(495) 422-00-44,Государственное бюджетное общеобразовательное учреждение города Москвы «Лицей № 1561»,бюджетное,Пазынин Валерий Вячеславович,37.5455580222,55.6019086809
623,Нагорный район,"117556, г. Москва, ул. Фруктовая д.9",(499) 610-56-98,Государственное бюджетное общеобразовательное учреждение города Москвы «Школа № 1450 «Олимп»,бюджетное,Карташова Татьяна Семеновна,37.6123793073,55.6539326052
624,район Коптево,"125239, г. Москва, ул.Новопетровская, д.1А",(495) 459-30-64,Государственное бюджетное образовательное учреждение города Москвы центр образования «Школа здоровья» № 1679,бюджетное,Просвиркин Владимир Николаевич,37.5190442014,55.8277489101
625,район Некрасовка,"111674, г. Москва, улица Покровская, дом 35",(499) 588-01-77,Государственное бюджетное общеобразовательное учреждение города Москвы «Школа № 2053»,бюджетное,Волкова Ольга Алексеевна,37.9193002308,55.7060102983
626,район Зябликово,"115582, г. Москва, ул.Домодедовская д.35, корп.2",(495) 394-12-44,Государственное автономное общеобразовательное учреждение города Москвы «Центр образования № 548 «Царицыно»,автономное,Рачевский Ефим Лазаревич,37.7172149011,55.6020018764
627,Академический район,"117449, г. Москва, ул. Шверника, д. 17, корп. 2",(499) 126-47-70,Государственное бюджетное общеобразовательное учреждение города Москвы «Гимназия № 625»,бюджетное,Алябушева Галина Васильевна,37.5889710324,55.6894856406
628,район Ивановское,"111531, г. Москва, ул.Саянская, д.3А",(495) 300-42-61,Государственное бюджетное общеобразовательное учреждение города Москвы «Школа № 799»,бюджетное,Безрукова Галина Константиновна,37.8252207249,55.7705759372
629,район Люблино,"109559, г. Москва, ул. Марьинский парк, д. 37",(495) 654-99-33,Государственное бюджетное образовательное учреждение города Москвы средняя общеобразовательная школа № 2092 имени И.Н.Кожедуба,бюджетное,Кутузова Лариса Сергеевна,37.7896168885,55.667769168
630,Донской район,"117105, г. Москва, Варшавское шоссе, д.12",(495) 952-04-67,Государственное бюджетное общеобразовательное учреждение города Москвы «Школа № 630 «Лингвистический центр»,бюджетное,Картышова Марина Сергеевна,37.6200911377,55.6973063483
631,район Ростокино,"129128, г. Москва, ул. Ростокинская, д.3",(499) 181-16-17,Государственное бюджетное общеобразовательное учреждение города Москвы «Школа № 1499 имени Героя Советского Союза Ивана Архиповича Докукина»,бюджетное,Матвеева Тамара Александровна,37.6438918824,55.8369393701
632,район Лианозово,"127253, г. Москва, ул. Псковская: д.11",(499) 909-25-21,Государственное бюджетное общеобразовательное учреждение города Москвы «Гимназия № 1573»,бюджетное,Антипов Александр Сергеевич,37.5496070497,55.9056283223
633,район Вешняки,"119048, г. Москва, улица Савельева, дом 5",(499) 373-20-31,Государственное бюджетное профессиональное образовательное учреждение города Москвы «Образовательный комплекс дизайна и технологий»,бюджетное,Чистова Екатерина Богдановна,37.7767850888,55.8032224263
634,район Северный,"127204, г. Москва, 9-я Северная линия дом1 корпус2",(499) 761-06-01,Государственное бюджетное общеобразовательное учреждение города Москвы «Школа № 709»,бюджетное,Дружинин Владимир Петрович,37.5489733604,55.9153639972
635,район Филёвский Парк,"121096, г. Москва, ул.Кастанаевская, д.9А",(499) 144-37-82,Государственное бюджетное общеобразовательное учреждение города Москвы «Центр образования № 1816»,бюджетное,Панова Ирина Евгеньевна,37.4914245501,55.7354502553
636,Тимирязевский район,"127422, г. Москва, улица Тимирязевская, дом 14 ""А""",(495) 611-13-29,Государственное бюджетное общеобразовательное учреждение города Москвы «Школа № 1454 «Центр образования Тимирязевский»,бюджетное,Глухих Олег Александрович,37.5634654606,55.8187410824
637,Рязанский район,"109456, г. Москва, 4-й Вешняковский проезд, д, 1, стр. 2",(495) 371-63-20,Государственное бюджетное общеобразовательное учреждение города Москвы «Школа № 329»,бюджетное,Даньшина Наталья Петровна,37.7855609908,55.7222005363
638,район Сокол,"125252, г. Москва, ул.Новопесчаная, д.15",(499) 157-56-34,Государственное бюджетное общеобразовательное учреждение города Москвы «Школа с углубленным изучением математики № 1384 имени А.А. Леманского»,бюджетное,Пархоменко Нина Петровна,37.5059990807,55.7988354945
639,район Марфино,"127427, г. Москва, ул. Большая Марфинская, д. 1, корп. 5",(495) 610-79-21,Государственное бюджетное общеобразовательное учреждение города Москвы «Школа № 1494»,бюджетное,Ершова Светлана Владиславовна,37.586619178,55.8444120639
640,район Восточное Измайлово,"105203, г. Москва, Первомайская ул., 111.",(495) 465-25-00,Государственное бюджетное общеобразовательное учреждение города Москвы «Гимназия № 1811 «Восточное Измайлово»,бюджетное,Рывкин Александр Аронович,37.814363739,55.7940109484
641,район Ховрино,"125581, г. Москва, ул. Флотская, д. 11",(495) 453-65-56,Государственное бюджетное общеобразовательное учреждение города Москвы «Школа № 648»,бюджетное,Горбатых Наталья Викторовна,37.4983696839,55.8590604499
642,район Северное Измайлово,"105484, г. Москва, Сиреневый бульвар, д. 73, корп. 3",(499) 464-95-96,Государственное бюджетное общеобразовательное учреждение города Москвы «Гимназия № 1748 «Вертикаль»,бюджетное,Банчукова Татьяна Алексеевна,37.8208071299,55.8091504837
643,район Митино,"125368, г. Москва, 3-й Митинский переулок, д. 12, корп. 1",(495) 753-04-00,Государственное бюджетное общеобразовательное учреждение города Москвы «Школа № 1747»,бюджетное,Сотникова Марина Николаевна,37.348973553,55.849190908
644,район Хорошёво-Мнёвники,"123154, г. Москва, ул. Генерала Глаголева, д. 10, корп. 2",(499) 199-09-64,Государственное бюджетное общеобразовательное учреждение города Москвы «Лицей № 138»,бюджетное,Дробышева Татьяна Ивановна,37.4663353881,55.7823208685
645,район Бибирево,"127549, г. Москва, ул.Мурановская, д.4А",(499) 206-95-11,Государственное бюджетное общеобразовательное учреждение города Москвы «Школа с углубленным изучением иностранных языков № 1412»,бюджетное,Мусина Эльвира Михайловна,37.6017896927,55.89122306
646,район Кунцево,"121351, г. Москва, ул. Полоцкая, д.21",(495) 417-23-74,Государственное бюджетное общеобразовательное учреждение города Москвы «Школа № 806»,бюджетное,Вегержинская Альбина Леонидовна,37.4206040612,55.7292971744
647,район Орехово-Борисово Южное,"115582, г. Москва, Каширское ш., д.116, корп.3",(495) 398-79-81,Государственное бюджетное общеобразовательное учреждение города Москвы «Школа № 544»,бюджетное,Данилкина Татьяна Дмитровна,37.7198711584,55.59654492
648,Даниловский район,"115162, г. Москва, ул. Мытная, дом 50, корп. 3",(495) 952-25-60,Государственное бюджетное общеобразовательное учреждение города Москвы «Лицей № 1451»,бюджетное,Макарова Наталья Викторовна,37.6188969856,55.7158051095
649,район Тропарёво-Никулино,"119602, г. Москва, Мичуринский просп., Олимпийская деревня, д.23 и д.23, стр.1",(495) 735-66-08,Государственное бюджетное общеобразовательное учреждение города Москвы «Школа № 843»,бюджетное,Полуянова Татьяна Александровна,37.4572110191,55.6711185441
650,район Крылатское,"121609, г. Москва, ул. Крылатские холмы, д.23",(495) 413-06-15,Государственное бюджетное общеобразовательное учреждение города Москвы «Школа № 63»,бюджетное,Скрыпник Сергей Павлович,37.4119036445,55.7534809425
651,район Чертаново Центральное,"117570, г. Москва, ул.Чертановская, д.44А",(495) 387-35-27,Государственное бюджетное общеобразовательное учреждение города Москвы «Школа № 880»,бюджетное,Пожарова Нина Ивановна,37.5816143743,55.6108603908
652,Войковский район,"125171, г. Москва, ул. Зои и Александра Космодемьянских, д. 4а",(499) 150-26-38,Государственное бюджетное общеобразовательное учреждение города Москвы «Школа № 717»,бюджетное,Леонтьева Надежда Владимировна,37.5114607911,55.820022989
653,район Строгино,"123060, г. Москва, улица Маршала Конева, дом 10.",(495) 756-55-24,Государственное бюджетное общеобразовательное учреждение города Москвы «Курчатовская школа»,бюджетное,Сивцова Ирина Валентиновна,37.477944396,55.7900196528
654,Алексеевский район,"129301, г. Москва, ул. Ярославская, д. 27",(495) 683-45-70,Государственное бюджетное общеобразовательное учреждение города Москвы «Школа № 293 имени А.Т. Твардовского»,бюджетное,Глозман Александр Евгеньевич,37.6632199117,55.8237212878
655,район Коптево,"125284, г. Москва, 1-й Боткинский проезд, дом 7А",(495) 450-23-07,Государственное автономное профессиональное образовательное учреждение города Москвы «Политехнический колледж № 8 имени дважды Героя Советского Союза И.Ф. Павлова»,автономное,Куторго Наталья Анатольевна,37.5225880436,55.821684814
656,Ломоносовский район,"119331, г. Москва, улица Крупской, дом 17",(499) 138-38-27,Государственное бюджетное общеобразовательное учреждение города Москвы «Школа с углубленным изучением математики и информатики № 7»,бюджетное,Ровенский Артем Михайлович,37.533293669,55.6823171683
657,Головинский район,"125565, г. Москва, Конаковский проезд, д.5",(495) 708-07-01,Государственное бюджетное общеобразовательное учреждение города Москвы «Школа с углубленным изучением английского языка № 1315»,бюджетное,Харинова Ирина Васильевна,37.4872631094,55.8442922872
658,район Силино,"124575, г. Москва, Зеленоград, корп. 913А",(499) 710-72-20,Государственное бюджетное общеобразовательное учреждение города Москвы «Школа № 853»,бюджетное,Базылева Лариса Николаевна,37.188754904,55.984037354
659,район Братеево,"115211, г. Москва, Борисовские пруды, д.12, корп.3",(495) 340-83-78,Государственное бюджетное общеобразовательное учреждение города Москвы «Школа № 1998 «Лукоморье»,бюджетное,Котомина Елена Вадимовна,37.7429045962,55.6348923538
660,район Западное Дегунино,"125635, г. Москва, ул.Ангарская, д.22А",(499) 906-84-00,Государственное бюджетное общеобразовательное учреждение города Москвы «Школа № 2098 «Многопрофильный образовательный центр» имени Героя Советского Союза Л.М. Доватора»,бюджетное,Перфилова Надежда Рафаиловна,37.5144132238,55.8770052929
661,Тверской район,"127051, г. Москва, Трубная ул., д.36",(495) 621-66-50,Государственное бюджетное общеобразовательное учреждение города Москвы «Школа № 2054»,бюджетное,Бородина Ирина Юрьевна,37.6267783793,55.7724710636
662,Даниловский район,"115280, г. Москва, 1-й Автозаводский пр., д.2",(495) 674-59-30,Государственное бюджетное общеобразовательное учреждение города Москвы «Школа № 494 имени Героя Российской Федерации А.Н. Рожкова»,бюджетное,Миняев Алексей Сергеевич,37.660527333,55.7259773279
663,район Новокосино,"111672, г. Москва, ул. Салтыковская, д.13Б",(495) 701-24-70,Государственное бюджетное общеобразовательное учреждение города Москвы «Школа № 2127»,бюджетное,Буробина Станислава Сергеевна,37.8635066426,55.7376478445
664,Лосиноостровский район,"129345, г. Москва, улица Тайнинская, дом 15, корпус 3",(499) 185-18-42,Государственное бюджетное общеобразовательное учреждение города Москвы «Многопрофильная школа № 1955»,бюджетное,Климова Оксана Анатольевна,37.687638103,55.8828135819
665,район Строгино,"123458, г. Москва, ул. Таллинская, д. 20, корп. 4",(495) 750-70-45,Государственное бюджетное общеобразовательное учреждение города Москвы «Гимназия № 1619 имени М.И. Цветаевой»,бюджетное,Ждан Александр Александрович,37.3969174481,55.7973286819
666,район Крылатское,"121614, г. Москва, ул.Крылатские холмы, д.45, корп.2",(495) 412-20-44,Государственное бюджетное общеобразовательное учреждение города Москвы «Школа с углубленным изучением английского языка № 1371»,бюджетное,Бронштейн Илья Михайлович,37.4117628307,55.761532171
667,Хорошёвский район,"125252, г. Москва, Ходынский бульвар, д.7",(499) 740-51-02,Государственное бюджетное образовательное учреждение города Москвы гимназия № 1409,бюджетное,Ильичева Ирина Викторовна,37.5218233283,55.7882823758
668,район Люблино,"109386, г. Москва, ул. Ставропольская, дом 20",(495) 359-12-42,Государственное бюджетное общеобразовательное учреждение города Москвы «Школа № 2121 «Образовательный комплекс имени Маршала Советского Союза С.К. Куркоткина»,бюджетное,Чиркова Елизавета Константиновна,37.750984981,55.6745832656
669,район Нагатино-Садовники,"115230, г. Москва, 1-ый Нагатинский пр., д.16",(499) 611-53-62,Государственное бюджетное общеобразовательное учреждение города Москвы «Школа с углубленным изучением отдельных предметов № 978»,бюджетное,Хвостова Татьяна Сергеевна,37.6385505488,55.6814547281
670,Красносельский район,"101000, г. Москва, Милютинский пер., д.18, стр.2",(499) 264-30-29,Государственное бюджетное общеобразовательное учреждение города Москвы «Пушкинский лицей № 1500»,бюджетное,Щетнева Елена Евгеньевна,37.6468779358,55.7761711451
671,район Кузьминки,"109439, г. Москва, ул. Академика Скрябина, д. 36, корп. 3",(499) 175-52-75,Государственное бюджетное общеобразовательное учреждение города Москвы «Школа № 2111 «Новая волна»,бюджетное,Островская Татьяна Владимировна,37.7817305246,55.6994252144
672,район Вешняки,"111539, г. Москва, ул. Реутовская, д. 2 А",(495) 370-06-51,Государственное бюджетное общеобразовательное учреждение города Москвы средняя общеобразовательная школа № 892,бюджетное,Зуева Наталья Андреевна,37.8331380217,55.7402256063
673,район Митино,"125430, г. Москва, ул. Митинская, д.48, кор. 2",(495) 751-41-11,Государственное бюджетное общеобразовательное учреждение города Москвы «Школа № 1191»,бюджетное,Васильева Светлана Ильинична,37.3578157779,55.8511314966
674,Можайский район,"121596, г. Москва, Можайское шоссе, д.50",(495) 446-18-04,Государственное бюджетное общеобразовательное учреждение города Москвы «Школа № 809»,бюджетное,Рудовол Евгения Николаевна,37.4046354766,55.7177368716
675,район Гольяново,"107207, г. Москва, ул. Алтайская , д.10А",(495) 467-62-70,Государственное бюджетное общеобразовательное учреждение города Москвы «Школа № 1078»,бюджетное,Маньковская Екатерина Николаевна,37.821181964,55.8190681732
676,район Савёлки,"124489, г. Москва, Зеленоград, корп.603 А",(499) 762-49-86,Государственное бюджетное общеобразовательное учреждение города Москвы «Школа № 854»,бюджетное,Курсаков Андрей Викторович,37.2332132404,55.9915106657
677,район Сокол,"125057, г. Москва, Чапаевский переулок, д. 6, стр 1",(499) 157-07-04,Государственное бюджетное общеобразовательное учреждение города Москвы «Школа с углубленным изучением немецкого языка № 1249»,бюджетное,Альшванг Алла Даниловна,37.5190551505,55.8015263616
678,район Кузьминки,"109462, г. Москва, ул. Маршала Чуйкова, д. 28",(499) 175-32-83,Государственное бюджетное образовательное учреждение города Москвы кадетская школа-интернат № 7 «Московский казачий кадетский корпус» имени М.А. Шолохова,бюджетное,Ильин Станислав Геннадьевич,37.7575986568,55.6964126601
679,район Гольяново,"107065, г. Москва, ул.Уссурийская, д.12",(495) 469-36-01,Государственное бюджетное образовательное учреждение города Москвы средняя общеобразовательная школа с углубленным изучением английского языка и музыки № 368 «Лосиный остров»,бюджетное,Кузина Ольга Федоровна,37.8180837986,55.8214542516
680,район Бирюлёво Западное,"117546, г. Москва, Востряковский проезд, д.3 А",(495) 383-97-81,Государственное бюджетное общеобразовательное учреждение города Москвы «Школа с углубленным изучением иностранных языков № 1242»,бюджетное,Палехова Ирина Владимировна,37.6430076717,55.5850342832
681,район Соколиная Гора,"107564, г. Москва, Погонный проезд, д. 5",(495) 366-46-16,Государственное бюджетное профессиональное образовательное учреждение города Москвы «Колледж индустрии гостеприимства и менеджмента № 23»,бюджетное,Данилова Зоя Георгиевна,37.7054207525,55.8004734013
682,район Ясенево,"117593, г. Москва, Литовский бульвар дом 3, корпус 3",(495) 425-47-77,Государственное бюджетное общеобразовательное учреждение города Москвы «Школа с углубленным изучением английского языка № 1206»,бюджетное,Кочубей Николай Анатольевич,37.5331234783,55.6110058959
683,район Черёмушки,"117418, г. Москва, ул. Новочеремушкинская, д. 48",(499) 128-19-25,Государственное бюджетное общеобразовательное учреждение города Москвы «Школа № 19»,бюджетное,Титкова Марина Вячеславовна,37.567672786,55.6727705952
684,Рязанский район,"109117, г. Москва, ул. Васильцовский стан, д. 4",(499) 742-82-31,Государственное бюджетное общеобразовательное учреждение города Москвы «Школа с углубленным изучением отдельных предметов № 1421»,бюджетное,Солощанская Надежда Константиновна,37.7496476745,55.7155969087
685,район Бибирево,"115172, г. Москва, ул.Большие Каменщики, д.7",(499) 206-92-31,Государственное бюджетное профессиональное образовательное учреждение города Москвы «Колледж связи № 54» имени П.М. Вострухина,бюджетное,Павлюк Иван Андреевич,37.7422955096,55.7383255284
686,район Тёплый Стан,"117513, г. Москва, ул.Академика Бакулева, д.20",(495) 438-49-02,Государственное бюджетное общеобразовательное учреждение города Москвы «Школа № 109»,бюджетное,Ямбург Евгений Шоломович,37.4758880647,55.6407872808
687,район Выхино-Жулебино,"109431, г. Москва, ул. Авиаконструктора Миля, дом 18, корпус 2",(495) 704-30-00,Государственное бюджетное общеобразовательное учреждение города Москвы «Школа № 1935»,бюджетное,Аверчинкова Ольга Евгеньевна,37.8561356448,55.6794076839
688,район Текстильщики,"109518, г. Москва, Саратовская улица, дом 19",(499) 178-91-26,Государственное бюджетное образовательное учреждение города Москвы специальная (коррекционная) общеобразовательная школа-интернат I вида № 65,бюджетное,Тепаева Юлия Александровна,37.7391051995,55.7157002151
689,Тверской район,"103055, г. Москва, Новослободская ул., д.57, стр.1",(499) 978-35-84,Государственное бюджетное общеобразовательное учреждение города Москвы «Гимназия № 1540»,бюджетное,Моисеева Марина Владимировна,37.5923080445,55.7910063956
690,Тимирязевский район,"127434, г. Москва, Дмитровское шоссе, дом 5 А",(499) 977-13-40,Государственное бюджетное общеобразовательное учреждение города Москвы «Школа № 218»,бюджетное,Кочетков Константин Петрович,37.5741598909,55.811346317
691,Пресненский район,"121069, г. Москва, Столовый пер., д.10/2, стр.1",(495) 697-70-00,Государственное бюджетное общеобразовательное учреждение города Москвы «Школа № 2123 имени Мигеля Эрнандеса»,бюджетное,Архипова Татьяна Вадимовна,37.5965544203,55.7593874272
692,Войковский район,"125130, г. Москва, ул. Зои и Александра Космодемьянских, д. 19",(495) 450-03-23,Государственное бюджетное профессиональное образовательное учреждение города Москвы «Политехнический колледж им. Н.Н. Годовикова»,бюджетное,Михайлов Сергей Владимирович,37.5241330785,55.8250834275
693,Обручевский район,"119421, г. Москва, ул.Обручева, дом 28А",(495) 936-62-27,Государственное бюджетное общеобразовательное учреждение города Москвы «Школа № 46»,бюджетное,Мансуров Николай Андреевич,37.5157112475,55.6574769388
694,район Хорошёво-Мнёвники,"125363, г. Москва, улица Фабрициуса, дом 26",(000) 000-00-00,Государственное бюджетное профессиональное образовательное учреждение города Москвы «Колледж полиции»,бюджетное,Дашевский Юрий Васильевич,37.4667580658,55.7868021568
695,район Замоскворечье,"115054, г. Москва, 5-й Монетчиковский пер., д.7",(495) 959-22-17,Государственное бюджетное общеобразовательное учреждение города Москвы «Школа № 1259 с углубленным изучением иностранных языков»,бюджетное,Круглова Ольга Семеновна,37.6400744935,55.7399409209
696,район Новокосино,"111673, г. Москва, ул. Новокосинская, д.13 А",(495) 702-03-00,Государственное бюджетное образовательное учреждение города Москвы гимназия № 1925,бюджетное,Петрова Елена Владимировна,37.8484714714,55.7362730074
697,район Марьино,"109341, г. Москва, ул.Братиславская, д.4",(495) 347-57-11,Государственное бюджетное общеобразовательное учреждение города Москвы «Гимназия № 1562 имени Артема Боровика»,бюджетное,Родионов Валерий Александрович,37.745577801,55.6603587119
698,район Дорогомилово,"121165, г. Москва, Кутузовский пр-т, д.28",(499) 243-03-29,Государственное бюджетное образовательное учреждение города Москвы средняя общеобразовательная школа с углубленным изучением иностранного языка № 1232,бюджетное,Джелия Гия Автандилович,37.5242255105,55.7405156581
699,Можайский район,"121354, г. Москва, Можайское ш., д.38, корп.7",(495) 416-51-74,Государственное бюджетное общеобразовательное учреждение города Москвы «Школа № 1400»,бюджетное,Барбашина Светлана Валентиновна,37.3882014054,55.7185773122
700,район Аэропорт,"125319, г. Москва, ул.8 Марта, д.17",(499) 152-08-62,Государственное бюджетное общеобразовательное учреждение города Москвы «Инженерно-техническая школа имени дважды Героя Советского Союза П.Р. Поповича»,бюджетное,Рыбальченко Елена Александровна,37.5321318573,55.8100327524
701,Пресненский район,"123557, г. Москва, ул.Пресненский Вал, д.15, стр.1",(499) 252-11-84,Государственное бюджетное профессиональное образовательное учреждение города Москвы «Московский колледж бизнес-технологий»,бюджетное,Аверьянова Лариса Васильевна,37.5579704891,55.7657002085
702,Пресненский район,"123100, г. Москва, ул.2-ая Звенигородская, д.8",(499) 253-38-82,Государственное бюджетное общеобразовательное учреждение города Москвы «Школа № 2030»,бюджетное,Рябкова Наталья Петровна,37.5590115398,55.7651380494
703,район Богородское,"107370, г. Москва, Открытое ш., д.6, стр.12",(499) 162-62-86,Государственное бюджетное общеобразовательное учреждение города Москвы «Школа № 1349»,бюджетное,Кувшинова Татьяна Алексеевна,37.7231075882,55.8154064683
704,район Текстильщики,"109518, г. Москва, Волжский бульвар, д. 6, корпус 3",(499) 173-87-26,Государственное бюджетное общеобразовательное учреждение города Москвы «Школа № 2088 «Грайвороново»,бюджетное,Поляткова Мария Анатольевна,37.735890519,55.7175550594
705,район Коптево,"125008, г. Москва, ул. Михалковская, д. 3",(499) 154-03-31,"Государственное бюджетное общеобразовательное учреждение города Москвы «Школа № 185 имени Героя Советского Союза, Героя Социалистического Труда В.С. Гризодубовой»",бюджетное,Попова Ольга Владимировна,37.5354322534,55.8416676561
706,район Люблино,"109383, г. Москва, ул. Полбина, д. 72, стр. 1",(495) 351-84-00,Государственное автономное профессиональное образовательное учреждение города Москвы «Московский образовательный комплекс имени Виктора Талалихина»,автономное,Поляков Виктор Леонидович,37.7232444252,55.6728468191
707,район Свиблово,"129323, г. Москва, ул. Седова, д. 4, корп. 1",(499) 180-11-43,Государственное бюджетное общеобразовательное учреждение города Москвы «Гимназия «Свиблово»,бюджетное,Грабовский Андрей Иванович,37.642198456,55.8530346278
708,Донской район,"115419, г. Москва, ул.Шаболовка, д.44",(495) 954-40-02,Государственное бюджетное образовательное учреждение среднего профессионального образования города Москвы киноколледж № 40 «Московская международная киношкола»,бюджетное,Керзина Ольга Алексеевна,37.6065226092,55.7154989405
709,район Замоскворечье,"115035, г. Москва, Садовническая наб., д.37",(495) 951-50-49,Государственное бюджетное общеобразовательное учреждение города Москвы «Школа № 518»,бюджетное,Малинина Марина Геннадиевна,37.6373385134,55.7436611955
710,район Марьино,"109451, г. Москва, ул.Верхние поля, д.40, корп.2",(495) 658-49-90,Государственное бюджетное общеобразовательное учреждение города Москвы «Школа № 1716 «Эврика-Огонек»,бюджетное,Микитенко Светлана Александровна,37.7746549481,55.6655836566
711,район Ясенево,"117593, г. Москва, Литовский бульвар, дом 11, корпус 6",(495) 426-16-22,Государственное бюджетное общеобразовательное учреждение города Москвы «Школа № 1694 «Ясенево»,бюджетное,Бокарев Вячеслав Александрович,37.5470162633,55.6147742321
712,район Выхино-Жулебино,"109156, г. Москва, ул. Привольная, д. 37",(495) 704-51-11,Государственное бюджетное общеобразовательное учреждение города Москвы «Школа № 1460»,бюджетное,Швец Елена Викторовна,37.8510886539,55.6917606922
713,Красносельский район,"129090, г. Москва, ул.Каланчевская, д.26, стр.1",(495) 680-34-21,Государственное бюджетное профессиональное образовательное учреждение города Москвы «Колледж железнодорожного и городского транспорта»,бюджетное,Запорожченко Михаил Николаевич,37.7213438368,55.8100544244
714,Бескудниковский район,"127474, г. Москва, ул. Дубнинская, д. 7",(499) 488-34-44,Государственное бюджетное общеобразовательное учреждение города Москвы «Школа с углубленным изучением английского языка № 1383»,бюджетное,Решетова Хадия Идрисовна,37.5661094021,55.8593984514
715,район Выхино-Жулебино,"109431, г. Москва, Жулебинский бульвар, дом 38",(495) 705-79-68,Государственное бюджетное общеобразовательное учреждение города Москвы «Лицей № 1793 «Жулебино»,бюджетное,Герасимова Марина Александровна,37.8504495636,55.6835092396
716,район Куркино,"125466, г. Москва, ул. Ландышевая, дом 8",(000) 000-00-00,Государственное бюджетное образовательное учреждение города Москвы средняя общеобразовательная школа № 1985,бюджетное,Суковых Александр Михайлович,37.3985468571,55.8910767383
717,район Бибирево,"127543, г. Москва, Белозерская улица, дом 15",(499) 206-35-44,Государственное бюджетное общеобразовательное учреждение города Москвы «Школа с углубленным изучением английского языка № 1413»,бюджетное,Бонами Дмитрий Маркович,37.6150554715,55.8992872021
718,Останкинский район,"129075, г. Москва, Аргуновская ул., д. 12, корп. 2, стр. 1, 2, 3",(495) 615-49-46,Государственное бюджетное общеобразовательное учреждение города Москвы «Школа с углубленным изучением иностранных языков № 1220»,бюджетное,Корольков Борис Евгеньевич,37.6206754515,55.8177748904
719,район Фили-Давыдково,"121433, г. Москва, ул.Малая Филевская, д.52",(499) 146-25-11,Государственное бюджетное дошкольное образовательное учреждение города Москвы «Детский сад присмотра и оздоровления № 754 «Солнышко»,бюджетное,Мухина Ольга Михайловна,37.4518040692,55.7335206959
720,район Южное Медведково,"127221, г. Москва, проезд Шокальского, дом 7, корпус 2",(499) 477-14-18,Государственное бюджетное образовательное учреждение города Москвы лицей № 1568 имени Пабло Неруды,бюджетное,Кулешов Виктор Петрович,,
721,район Южное Медведково,"127221, г. Москва, проезд Шокальского, дом 7, корпус 2",(499) 477-03-22,Государственное бюджетное общеобразовательное учреждение города Москвы «Лицей № 1568 имени Пабло Неруды»,бюджетное,Кулешов Виктор Петрович,37.6415578756,55.8761325131
722,Басманный район,"105005, г. Москва, Кондрашевский туп., д.3А",(495) 360-83-98,Государственное бюджетное общеобразовательное учреждение города Москвы «Школа на Яузе»,бюджетное,Филатова Елена Александровна,37.7083656611,55.778526042
723,район Нагатино-Садовники,"125080, г. Москва, Светлый проезд, д. 2а",(499) 611-14-26,Государственное бюджетное профессиональное образовательное учреждение города Москвы «Технический пожарно-спасательный колледж имени Героя Российской Федерации В.М. Максимчука»,бюджетное,Манаенков Александр Митрофанович,37.6413834569,55.6762541398
724,Обручевский район,"125080, г. Москва, Светлый проезд, д. 2а",(499) 132-89-69,Государственное бюджетное образовательное учреждение среднего профессионального образования города Москвы Технический пожарно-спасательный колледж № 57 имени Героя Российской Федерации В.М. Максимчука,бюджетное,Манаенков Александр Митрофанович,37.5231628539,55.670235613
725,Басманный район,"105005, г. Москва, Кондрашевский туп., д.3А",(499) 787-04-49,Государственное бюджетное образовательное учреждение города Москвы средняя общеобразовательная школа № 2105,бюджетное,Филатова Елена Александровна,37.7104579773,55.7765673617
