,distr,address,flagw,flacg,flags,latitude,longitude,name
0,район Хамовники,"Пересечение улиц Усачёва и Трубецкой, Усачёва и Хользунова переулка",да,да,да,37.5737360338,55.729297266,Структурное подразделение Парк Усадьба Трубецких в Хамовниках
1,район Преображенское,"Расположен между стадионом Локомотив, Черкизовским прудом, зданиями по адресу Большая Черкизовская дом 21, строение 2 и Большая Черкизовская, дом 23",нет,да,да,37.737510764,55.8037774471,Черкизовский парк
2,Гагаринский район,"Главный вход в парк расположен со стороны улицы Косыгина, рельеф местности спокойный, резкопересечённый, с перепадом высот до 30 м, площадки и дорожки выложены плиткой и асфальтом, за корпусами расположен парк с многолетними деревьями",да,нет,да,37.5471251697,55.7007757035,Памятник садово-паркового искусства – «Парк Дворца творчества детей и юношества» по адресу ул.Косыгина д.17
3,район Филёвский Парк,"улица Большая Филёвская, дом 9",нет,да,да,37.5029716364,55.748214268,Структурное подразделение «Детский парк «Фили»
4,район Ясенево,Восточная часть района Ясенево,да,да,да,37.5800290074,55.6452302977,Природно-исторический парк «Битцевский лес»
5,район Куркино,"улица Вилиса Лациса, дом 18, корпус 3",да,да,да,37.4371982742,55.8768395636,Природно-исторический парк «Тушинский»
6,район Тропарёво-Никулино,"между МКАД и улицей Академика Анохина, Тропаревской улицей и Востряковским шоссе",да,да,да,37.4576472061,55.6667939766,Ландшафтный заказник «Тропарёвский»
7,район Кузьминки,"Кузьминская улица, дом 10",да,да,да,37.7656430977,55.6986720198,Природно-исторический парк «Кузьминки-Люблино»
8,район Матушкино,Зеленоград лесопарковая зона между 4 и 12 микрорайоном,нет,да,нет,37.191356155,55.996899295,Крюковский лесопарк Дунькин пруд
9,район Бирюлёво Восточное,"между Липецкой улицей, владение 5А и Шипиловским проездом, до улицы Борисовских Прудов, напротив дома 16",да,да,да,37.6884094855,55.6386271392,Природно-исторический парк «Царицыно»
10,Останкинский район,"1-я Останкинская улица, дом 1, строение 1",да,нет,нет,37.5919510773,55.8459382077,Природно-исторический парк «Останкино»
11,район Восточное Измайлово,лесопарк Измайловский,да,да,да,37.8386078599,55.8075995013,Природно-исторический парк «Измайлово»
12,район Косино-Ухтомский,"Черное озеро, Белое озеро, устье реки Рудневки",да,да,да,37.9228823917,55.731292306,Природно-исторический парк «Косинский»
13,район Тёплый Стан,Теплостанская возвышенность,да,да,да,37.4859444401,55.6446137531,Ландшафтный заказник «Тёплый Стан»
14,район Хорошёво-Мнёвники,"4-я линия Хорошевского Серебряного Бора, дом 74, строение 1",да,да,да,37.4444511757,55.7904006554,Памятник природы «Серебряный Бор»
15,район Покровское-Стрешнево,"Иваньковское шоссе, дом 8, строение 2",да,да,да,37.4720234106,55.8316088747,Природно-исторический парк «Покровское-Стрешнево»
16,Молжаниновский район,"Между Новосходненским шоссе, деревней Новоподрезково и рекой Сходня",нет,нет,нет,37.3418433835,55.9316271783,Ландшафтный заказник «Долина реки Сходни в районе Молжаниновский»
17,Можайский район,"между МКАД, Кутузовским проспектом, Мичуринским проспектом и третьим транспортным кольцом",да,да,да,37.5390459311,55.7319322277,Природный заказник «Долина реки Сетунь»
18,район Крылатское,"между Москвой-рекой и Молодогвардейской улицей, Большой Филевской улицей и МКАД",да,да,да,37.3958450668,55.8301725641,Природно-исторический парк «Москворецкий»
19,район Сокольники,Парк культуры и отдыха Сокольники,да,нет,нет,37.6692024826,55.8195695658,Природно-исторический парк «Сокольники»
20,район Куркино,"Родионовская улица, дом 16, строение 1",да,да,нет,37.3842408592,55.9112226923,Ландшафтный заказник «Долина реки Сходни в Куркино»
21,район Филёвский Парк,"Большая Филёвская улица, дом 22",да,да,да,37.4934751768,55.7528117744,Парк «Фили»
22,Таганский район,"Таганская улица, дом 40 - 42",нет,да,да,37.6663627165,55.7387100345,Парк Таганский (основная территория)
23,район Якиманка,"улица Крымский Вал, владение 2",нет,да,нет,37.6094721072,55.7332598952,Музеон
24,район Лефортово,"Красноказарменная улица, владение 1",да,да,да,37.690364234,55.7663811271,Усадьба «Лефортово»
25,район Измайлово,городок имени Баумана,да,нет,нет,37.7667084092,55.7905303854,Усадьба «Измайлово»
26,район Хамовники,"улица Плющиха, дом 57, строение 4",нет,да,нет,37.5768143262,55.7374044197,Сквер «Девичье поле»
27,Лосиноостровский район,"Стартовая улица, дом 10",да,да,да,37.7008668518,55.8891043248,Парк у Джамгаровского пруда
28,район Вешняки,пересечение улицы Юности и аллеи Жемчуговой,да,да,да,37.811795866,55.732414333,Парк у прудов «Радуга»
29,Тимирязевский район,"Тимирязевская улица, дом 27",да,да,да,37.5681204708,55.8218769709,Парк «Дубки»
30,Дмитровский район,пересечение улиц Ангарской и Софьи Ковалевской,да,да,да,37.5304376425,55.8849657937,Парк «Ангарские пруды»
31,район Северное Измайлово,"Щелковское шоссе, владение 10 - 12",нет,да,да,37.7682195201,55.8061707797,Парк «Сиреневый сад»
32,район Братеево,"улица Борисовские пруды, дом 1",да,да,да,37.7086643833,55.6354876679,Зона отдыха Борисовские пруды
33,район Покровское-Стрешнево,"улица Свободы, дом 2, строение 2",да,да,да,37.4535506145,55.8221108183,Парк «Долина реки Химки»
34,район Щукино,между улицами Маршала Новикова и Максимова,нет,да,нет,37.4666561787,55.8021156339,Лесной массив по улице Максимова
35,район Раменки,между улицей Дружбы и Мичуринским проспектом,да,да,да,37.5260228547,55.7115776732,Парк перед посольством КНР
36,Войковский район,парк Воровского,нет,да,да,37.5031897785,55.8215432078,Парк имени Воровского
37,район Марьино,"улица Белореченская, дом 43",да,да,да,37.7728889298,55.6622101557,Парк Дюссельдорфский
38,Донской район,"Загородное шоссе, владение 2",нет,да,да,37.6120518117,55.6975801353,Парк Детский
39,район Дорогомилово,"улица Братьев Фонченко, дом 7",нет,да,да,37.5162706998,55.7335526847,Парк Победы на Поклонной горе
40,район Лефортово,"Самокатная улица, дом 2, корпус 1",нет,да,да,37.6754720866,55.7583777675,Парк имени 1-го Мая
41,район Якиманка,"улица Крымский Вал, дом 9",да,да,да,37.6048873274,55.7275621806,ЦПКиО им. М. Горького
42,район Кузьминки,"Кузьминский парк, дом 1, строение 2",нет,да,да,37.7709745278,55.6945255624,Парк культуры и отдыха «Кузьминки» (основная территория)
43,Обручевский район,пересечение Ленинского проспекта и улицы Островитянова,нет,да,да,37.4883772353,55.650443297,Бывшая усадьба «Богородицкое»
44,район Соколиная Гора,"Измайловское шоссе, Семёновский проезд",нет,да,да,37.7166975614,55.7796088472,Семёновский парк
45,район Хамовники,"Новодевичий проезд, дом 1",да,да,нет,37.5604044714,55.7274446041,Парк «Новодевичьи пруды»
46,район Аэропорт,"Ленинградский проспект, дом 40",нет,да,нет,37.5532271717,55.7947317789,Парк «Петровский»
47,район Левобережный,парк Дружба,да,да,нет,37.4853630704,55.8559171992,Парк «Дружба»
48,район Восточное Дегунино,"Керамический поезд, дом 65-71",нет,да,да,37.5633933722,55.8911497065,Парк «Северные Дубки»
49,район Печатники,улица Гурьянова от дома 25 до 43,нет,да,да,37.7154816026,55.6850175224,Парк «Печатники»
50,район Раменки,улица Косыгина,нет,нет,нет,37.5336809998,55.7085047548,Озеленённая территория МГУ
51,район Тропарёво-Никулино,пересечение Ленинского проспекта с проспектом Вернадского,нет,да,да,37.4777213752,55.6552701517,Парк «Никулино»
52,район Лианозово,"Угличская улица, дом 13",да,да,да,37.5738222574,55.9023194549,Парк Лианозовский
53,Лосиноостровский район,"улица Менжинского, дом 6, строение 3",нет,да,да,37.6847368767,55.8695952224,Парк Бабушкинский (основная территория)
54,район Выхино-Жулебино,"Тополёвая аллея, владение 6, строение 1",нет,нет,нет,37.7857015722,55.6882978966,Музей русской усадебной культуры «Усадьба князей Голицыных «Влахернское-Кузьминки»
55,район Южное Тушино,Аэродромная улица,нет,да,да,37.425567012,55.8476905048,Парк «Дубовая роща «Маяк»
56,район Гольяново,между улицами Уральская и Алтайская,да,да,да,37.8122234187,55.821909281,«Сквер в Гольяново»
57,район Сокол,"Новопесчаная улица, дом 12",нет,да,да,37.5105216848,55.8012858442,Мемориальный парк героев Первой Мировой войны
58,район Левобережный,Парк Северный речной вокзал,нет,да,нет,37.4670777411,55.8555726052,Парк «Северного речного вокзала»
59,Хорошёвский район,"улица Куусинена, дом 8",нет,да,да,37.5148092551,55.7842103753,Парк «Берёзовая роща»
60,район Аэропорт,"Ленинградский проспект, владение 59",нет,да,да,37.5204706978,55.8028360302,Чапаевский парк
61,район Свиблово,"между Сельскохозяйственной улицей, Лазоревым проездом и проездом Серебрякова",да,да,да,37.6328263403,55.8563718665,"Сквер, прилегающий к Лазоревому проезду"
62,район Отрадное,пересечение Алтуфьевского шоссе с Нововладыкинским проездом,да,да,да,37.5876904891,55.8516290154,Парк «Долина реки Лихоборки»
63,район Лианозово,"Алтуфьевское шоссе, дом 147-149",да,да,да,37.587139375,55.908929255,Усадьба «Алтуфьево»
64,район Ивановское,"Свободный проспект, дом 2",да,да,да,37.8212375578,55.7687727466,Зона отдыха «Терлецкая Дубрава»
65,район Проспект Вернадского,пересечение Мичуринского проспекта с улицей Лобачевского,да,да,да,37.4794449575,55.6837834715,Парк «Олимпийской деревни»
66,район Митино,между улицами Пинягинская и Митинская,да,да,да,37.3723681537,55.8414163832,Ландшафтный парк «Митино»
67,район Ивановское,"Свободный проспект, владение 11-17",нет,да,да,37.8220654938,55.7626937085,Ивановский лесопарк
68,район Марьино,пересечение улиц Перерва и Братиславская,нет,да,да,37.7546441289,55.662971113,Парк «имени Артёма Боровика»
69,район Чертаново Центральное,"Чертановская улица, владение 32",да,нет,нет,37.5848284438,55.6185098772,Массив по улице Чертановская дом 32
70,район Солнцево,Боровское шоссе,да,нет,нет,37.3961854009,55.6542649654,Парк «Центральный»
71,район Измайлово,пересечение улицы Первомайской и Измайловского проезда (зона Серебряно-виноградных прудов),да,нет,нет,37.7624141103,55.7884889947,Зона Серебряно-Виноградных прудов
72,район Люблино,между улицами Краснодонская и Заречье,да,нет,нет,37.7591690279,55.6879550437,Присоединенная территория между улицами Краснодонская и Заречье
73,район Нагатино-Садовники,"проспект Андропова, дом 58А",нет,да,да,37.6479385262,55.6608236985,Парк Садовники
74,район Царицыно,"Бакинская улица, дом 24",да,да,да,37.6474782812,55.6210856111,Аршиновский парк
75,район Марьино,"Батайский проезд, дом 3 - 65, улица Поречная, дом 3 - 21",да,да,да,37.7275895245,55.643186003,Парк «850-летия Москвы» (основная территория)
76,Обручевский район,"Воронцовский парк, владения 1, 2, 5, 6, 7",да,да,да,37.5330262393,55.6681287997,Воронцовский парк
77,Дмитровский район,"Лобненская улица, дом 13А",нет,да,нет,37.5316529404,55.8891006988,Парк «Вагоноремонт»
78,район Раменки,"Воробьевская набережная, Андреевская набережная",да,да,да,37.5422777315,55.7264752528,Природный заказник «Воробьёвы горы»
79,район Измайлово,"Аллея Большого Круга, дом 7 (границы территории: 1-й и 2-й улицы Измайловского Зверинца, Электродного проезда, шоссе Энтузиастов, Главной аллеи, Измайловского проспекта - до трамвайных путей)",да,да,да,37.7661249928,55.7738622761,Измайловский парк
80,Тверской район,"улица Каретный ряд, дом 3, строение 7",нет,да,нет,37.6114309786,55.7701938,Сад «Эрмитаж»
81,Басманный район,"Старая Басманная улица, дом 15",нет,да,да,37.6588656259,55.769550168,Сад имени Н. Э. Баумана
82,Пресненский район,"Мантулинская улица, дом 5",да,да,да,37.5476718614,55.7541096075,Парк Красная Пресня (основная территория)
83,Останкинский район,"1-я Останкинская улица, дом 5",нет,нет,нет,37.6103426672,55.8237856351,Музей-усадьба «Останкино»
84,район Вешняки,"улица Юности, дом 2",да,нет,нет,37.8105560609,55.738668072,Государственный музей керамики и «Усадьба Кусково XVIII века»
85,район Орехово-Борисово Северное,"Каширское шоссе, дом 80, корпус 1",да,да,да,37.7325351921,55.6310115707,Парк по Борисовским прудам
86,район Бибирево,"Белозерская улица, дом 19",да,да,да,37.6238321152,55.8949102128,Парк «Этнографическая деревня Бибирево»
87,район Северное Медведково,от улицы Широкая до проезда Дежнёва,да,да,да,37.656757488,55.8801705479,Пойма реки Яуза вдоль улицы Широкая
88,Донской район,"Загородное шоссе, дом 2А",да,да,да,37.6141899992,55.6999286898,Парк у пруда «Бекет»
89,район Чертаново Центральное,"Кировоградская улица, дом 42",да,нет,нет,37.5946894125,55.6067604242,Каскад прудов по улице Кировоградская
90,район Нагатинский Затон,"проспект Андропова, дом 39",да,да,да,37.6780088299,55.6757773559,Усадьба «Коломенское»
91,район Люблино,"Люблинская улица, владение 53",да,да,да,37.74132163,55.6902884456,Усадьба «Люблино»
92,Бабушкинский район,"между Сухонской улицей, проездом Шокальского, улицей Осташковская, Олонецким проездом и улицей Менжинского",да,да,да,37.6676837884,55.8830536641,Сквер по Олонецкому проезду
93,район Ростокино,"проспект Мира, владение 161-163 и проспект Мира, владение 186-188",нет,да,да,37.6545343994,55.8331888787,Парк Ростокино
94,район Фили-Давыдково,рядом со станцией метро Славянский бульвар,нет,нет,нет,37.4823158178,55.7310595367,Можайский плодовый сад
95,район Проспект Вернадского,"улица Удальцова, дом 22А",да,да,да,37.5056320416,55.6878581843,Парк «50-летия Октября»
96,район Строгино,между Неманским проездом и МКАД (Плодовый сад),нет,да,да,37.3913340376,55.8105509187,Плодовый сад по Неманскому проезду
97,район Перово,пересечение Электродной улицы и шоссе Энтузиастов,да,нет,нет,37.7544046255,55.7582580896,Парк у Владимирского пруда
98,район Сокольники,"улица Сокольнический вал, дом 1",да,да,да,37.6756979784,55.817755855,Парк Сокольники
99,район Северное Тушино,"улица Свободы, владение 50-70",да,да,да,37.4479743158,55.8707141595,Парк «Северное Тушино»
100,район Перово,"улица Лазо, владение 7",да,да,да,37.776614973,55.7442910406,Парк культуры и отдыха «Перовский»
101,район Бирюлёво Восточное,"Дольская улица, дом 1",да,да,да,37.6917988922,55.6375077124,Государственный музей-заповедник «Царицыно»
102,Бутырский район,"улица Руставели, владение 7",да,да,да,37.5894389074,55.8155360088,Парк «Гончаровский»
103,Пресненский район,"Большая Грузинская улица, дом 1",да,нет,нет,37.5783866059,55.7610421257,Московский Зоопарк
104,район Ростокино,между улицей Вильгельма Пика и 1-й улицей Леонова,да,да,нет,37.644528868,55.843389007,Парк «Сад будущего»
105,Останкинский район,"улица Академика Королёва, дом 19А",нет,да,да,37.6058159536,55.82062844,Парк «Дубовая роща по Прудовому проезду»
106,район Братеево,улица Наташинская,нет,да,да,37.7400161706,55.632497278,Парк «Пойма реки Городни»
107,район Северное Медведково,вдоль улицы Северодвинская,да,да,да,37.6840198834,55.8932743398,Озелененная территория в пойме рики Яуза
108,район Марьино,"Новомарьинская улица, дом 7",да,да,да,37.752968972,55.6556980459,Парк Братиславский
109,район Марьино,"улица Верхние Поля, дом 8",нет,да,да,37.7437218223,55.6628434578,Парк героев Отечественной Войны 1812 года
110,район Солнцево,"между улицей Богданова, дом 32 и Боровским шоссе",нет,да,да,37.395252545,55.6554549024,Парк «60-летия Октября» в районе Солнцево
111,район Зюзино,"Внутри квартала жилого комплекса между домом 2А по Симферопольскому бульвару, домом 16 по Фруктовой улице и домом 7, корпус 2 по Нахимовскому проспекту",нет,да,нет,37.6092808075,55.6633621243,"Территория, прилегающая к Симферопольскому бульвару, дом 2А"
112,Ломоносовский район,"Ленинский проспект, дома 82-86",нет,да,да,37.5321768384,55.6801241182,Сквер по Ленинскому проспекту
113,район Котловка,"Нахимовский проспект, владение 6",да,да,нет,37.5975886768,55.6665656828,Сквер по Нахимовскому проспекту
114,Академический район,"улица Шверника, дома 7-11",нет,да,нет,37.5889190648,55.693610688,Зона отдыха «Новые Черёмушки 10С»
115,район Зюзино,"улица Каховка, дома 9-13",да,да,нет,37.5882818859,55.6486429569,Парк «Зюзино»
116,район Южное Бутово,"вдоль линии легкого метро, станция Бунинская аллея",нет,нет,нет,37.5142843346,55.5377245766,Парковая зона вдоль линии легкого метро «Бутовской линии»
117,район Коньково,улица Академика Арцимовича,да,да,да,37.5175784106,55.6424142869,Парковая зона по улице Академика Арцимовича
118,район Южное Бутово,улица Академика Понтрягина,нет,нет,нет,37.5003736238,55.5403100892,Парковая зона на улице Академика Понтрягина
119,район Тёплый Стан,"улица Профсоюзная, дома 130, 132",нет,нет,нет,37.5153316035,55.6296719041,Сквер «Родничок»
120,район Коньково,"улица Профсоюзная, дома 96-98",нет,да,нет,37.5259344788,55.6480026419,Сквер «Беляево-Богородское»
121,район Северное Бутово,"Территория ограничена улицами Старобитцевская, Ратная, Старокачаловская и бульвар Дмитрия Донского",да,да,нет,37.5807119247,55.5727361375,Парковая зона на территории природного комплекса № 92 «Долина реки Битца»
122,район Зюзино,пересечение улиц Болотниковская и Керченская,нет,да,да,37.5884276279,55.6605035883,Сквер на пересечении улиц Болотниковская и Керченская
123,район Ясенево,улица Айвазовского (разделительный газон на участке от Литовского бульвара до Севастопольского проспекта),нет,нет,нет,37.5422624611,55.6180185693,Бульвар вдоль улицы Айвазовского
124,район Зюзино,На пересечении Симферопольского бульвара и Нахимовского проспекта,нет,нет,нет,37.6116946471,55.6635558832,Сквер на пересечении Симферопольского бульвара и Нахимовского проспекта
125,район Тёплый Стан,"Профсоюзная улица, дом 142",нет,да,нет,37.5103295158,55.6257751173,Сквер «70-летия Победы в Великой Отечественной Войне 1941-1945 годов»
126,район Тёплый Стан,улица Академика Виноградова,да,да,нет,37.488062946,55.6356609925,Зона отдыха «Тропарёво»
127,район Котловка,"Севастопольский проспект, дом 53",да,да,да,37.6051163298,55.6724791706,Парковая зона в пойме рек Котловка и Коршуниха
128,район Черёмушки,улица Новочеремушкинская (участок от улицы Цюрупы до улицы Болотниковской),нет,нет,нет,37.5641533919,55.6673762781,Сквер имени Федора Григорьевича Ерастова
129,район Ясенево,На пересечении проезда Карамзина и улицы Инессы Арманд,нет,да,нет,37.5426877529,55.590271294,Прилегающая территория к пруду по улице Инессы Арманд
130,район Зюзино,"Фруктовая улица, дом 11",нет,да,нет,37.6078758294,55.6616214365,Сквер ДК «ЗИЛ»
131,район Отрадное,"Вдоль Юрловского проезда, напротив дома 17",да,да,да,37.6194750911,55.8714216909,Пойма реки Чермянка (правый берег) вдоль Юрловского проезда до проезда Дежнёва
132,район Северный,Северный проезд,нет,нет,нет,37.5482594854,55.9432208633,Парк на Северном проезде
133,Ярославский район,Пересечение Ярославского шоссе и Хибинского проезда,нет,да,да,37.6837898538,55.8582424099,Хибинский сквер
134,район Бибирево,От станции метро Бибирево вдоль Костромской улицы до улицы Пришвина,нет,да,да,37.5926588738,55.8889120951,Пешеходная зона вдоль Костромской улицы
135,район Северное Медведково,вдоль Осташковской улицы,нет,да,нет,37.6729741834,55.8924763597,Осташковский сквер
136,район Отрадное,между улицей и улицей,нет,да,нет,37.5994124212,55.8628269664,Озеленённая территория - между улицей Санникова и улицей Хачатуряна
137,район Марьина Роща,улица Шереметьевская,нет,да,нет,37.6176331885,55.7944812001,Парковая зона у центра имени Райкина
138,район Бибирево,Пойма реки Чермянка в районе дома 28 по улице Плещеева,нет,нет,нет,37.6161530297,55.8789028451,"пойма реки Чермянка вдоль ул. Плещеева, д.28"
139,район Отрадное,Улица,нет,да,нет,37.6338932452,55.8624200635,Парковая зона в пойме реки Чермянка - от Заповедной улицы до улицы
140,район Отрадное,шоссе,нет,да,нет,37.5784320259,55.8536740452,Парковая зона реки Лихоборка
141,Алексеевский район,улица Церковная горка,нет,да,да,37.639934773,55.8183806053,Парковая зона «Алексеевская горка»
142,район Отрадное,вдоль Юрловского проезда,нет,да,нет,37.6267823758,55.865740337,Парковая зона в пойме реки Чермянка от проезда Дежнёва вдоль Юрловского проезда
143,Бабушкинский район,Чукотский проезд,нет,да,нет,37.6471573854,55.8653896329,"Парковая зона в пойме реки Яуза вдоль Ленской улицы, Чукотского проезда"
144,район Отрадное,улица,нет,да,да,37.5977627623,55.8612201874,Парк Отрада
145,район Северный,6-я северная линия,нет,да,нет,37.5543514284,55.9401406048,Парк в районе Северной водопроводной станции
146,район Марьина Роща,улица Шереметьевская,нет,да,нет,37.6065179815,55.7976192159,Сквер вдоль улицы Полковая
147,район Отрадное,проезд,нет,да,нет,37.6233611583,55.8691313544,Парковая зона в долине реки Чермянки
148,район Северный,1-я Северная линия,нет,нет,нет,37.5482696132,55.9438689282,Парк на 1-ой Северной линии
149,район Савёлки,"город Зеленоград, 5а микрорайон у корпуса 533",нет,да,да,37.2572762799,55.992066207,Народный парк «Бабочка»
150,район Силино,"город Зеленоград, территория лесопарковой зоны у корпуса 1207",да,да,нет,37.1944852015,55.9967562583,Зона отдыха «Дунькин пруд»
151,район Савёлки,"город Зеленоград, 5-й микрорайон, проезд №5253",нет,да,да,37.2360493769,56.0011960705,Парк «Ровесник»
152,район Савёлки,"город Зеленоград, Центральная площадь",да,нет,нет,37.2134627916,55.9879507934,Парк 40-летия Победы
153,район Старое Крюково,"город Зеленоград, Территория между большим городским прудом и Озерной аллеи",нет,нет,нет,37.2128361614,55.9869753317,Дендропарк в районе Старое Крюково
154,район Силино,"город Зеленоград, вдоль корпуса 1121",нет,нет,нет,37.1799631373,55.9964593968,Сквер имени 50-летия города Зеленограда
155,район Матушкино,"город Зеленоград, от корпуса 416 до корпуса 456",нет,да,да,37.2093402296,55.9922010292,Сквер у 4-го микрорайона города Зеленограда
156,район Силино,"г Зеленоград, 10 мкр от Школьного озера до улицы Филаретовская",да,да,да,37.1704098768,55.9908270808,Народный парк «Панфиловский»
157,район Ново-Переделкино,улица Новоорловская дом 5,нет,да,да,37.3627650447,55.6362062901,Парк на Новоорловской улице
158,район Фили-Давыдково,от дома 56 корпус 2 до дома 64 по улице Кастанаевская,да,да,да,37.4584164154,55.7328481106,Парк вдоль «Мазиловского» пруда
159,район Дорогомилово,Студенческая улица дом 9,нет,да,нет,37.5512422089,55.7432736359,Парк по Студенческой улице
160,район Крылатское,от дома 33 корпус 3 по улица Крылатская до дома 30 корпус 7 по улице Крылатские холмы,нет,да,да,37.4071028121,55.7693262561,Парк в Крылатском
161,Можайский район,улица Говорова дом 1,нет,да,да,37.3930530866,55.715618597,Можайский парк «Дубки»
162,район Раменки,улица Раменки от дом 15 корпус 1 до дом 15 корпус 2,да,да,нет,37.4965579343,55.6882020063,Парк на улице Раменки
163,район Очаково-Матвеевское,улица Озерная дом 17 - дом 27 корпус 2,да,нет,нет,37.4564066676,55.6728387406,Парк прилегающий к пойме реки Очаковка
164,район Солнцево,Боровское шоссе дом 14-16,нет,нет,нет,37.4049232757,55.6588312664,Парк по Боровскому шоссе
165,район Кунцево,Ивана Франко улица дом 12-16,нет,да,да,37.4457898035,55.7304303263,Парк у Префектуры Западного административного округа города Москвы
166,район Фили-Давыдково,Славянский бульвар дом 5 - дом 9,нет,да,да,37.4705412949,55.7248276589,Давыдковский микропарк
167,Можайский район,Можайское шоссе дом 4,нет,да,да,37.4419830013,55.7225810631,Парк «Можайский»
168,район Кунцево,улица Василия Ботылева дом 37 строение 2,нет,да,да,37.3511507875,55.7871823344,Парк в посёлке Рублёво
169,район Тропарёво-Никулино,улица Академика Анохина владение 2,нет,да,нет,37.4673219616,55.6712303368,Парк по улице Академика Анохина
170,район Тропарёво-Никулино,Вдоль улицы Никулинская,да,да,да,37.4525185615,55.6710793841,Парк «Школьников» прилегающий к Олимпийской деревне
171,район Соколиная Гора,"шоссе Энтузиастов, дом 19",нет,нет,нет,37.7256415059,55.7534373439,Сквер у колледжа
172,район Новокосино,Территория напротив дома 29 по Салтыковской улице,да,нет,нет,37.8734630219,55.7381981788,Парк между Салтыковской улицей и Салтыковским лесопарком
173,район Новогиреево,"Зелёный проспект, дом 26",нет,да,да,37.7964368238,55.7508333873,Сквер «Афганцев»
174,район Соколиная Гора,"Малая Семёновская улица, между Медовым и Мажоровым переулками",нет,нет,нет,37.7104537042,55.7847809736,Сквер на Малой Семёновской Сквер дружбы
175,район Новокосино,Пересечение улицы Городецкая и улицы Суздальская,нет,нет,нет,37.8640886251,55.7441206753,Городецкий бульвар
176,район Новогиреево,Пересечение Полимерной улицы и Новогиреевской улицы,нет,да,нет,37.8019461183,55.7471029772,Русские узоры
177,район Восточный,Между Главной улицей и улицей 9 Мая,нет,нет,нет,37.8619770242,55.8173446268,Брошенный сад
178,район Косино-Ухтомский,"улица Лухмановская, владения 29-33",нет,да,да,37.9043086447,55.723929219,Парковая зона на Лухмановской улице
179,район Восточный,Пересечение улицы Западная и улицы 9 Мая,нет,нет,нет,37.8685411764,55.8160281312,Парк «Южный»
180,район Новогиреево,Зеленый проспект 76,нет,да,да,37.8271818567,55.7495864249,Сквер между Зелёным проспектом и Фрязевской улицей
181,район Богородское,Пересечение 7-го проезда Подбельского и Открытого шоссе,нет,да,да,37.7261469673,55.8103648048,Парковая зона на Открытом шоссе
182,район Косино-Ухтомский,Между Салтыковской улицей и Святым озером,нет,нет,нет,37.8766478428,55.7151969041,Сквер у храма
183,район Щукино,Парковая зона вблизи набережной канала реки Москвы по Авиационная улица,да,да,да,37.4481021036,55.8116402644,Щукинская набережная
184,район Южное Тушино,Лодочная улица,нет,да,да,37.4544985889,55.8363035448,Кленовый сквер
185,район Митино,Бульварная зона от Дубравной улицы до 3-го Митинского переулка,нет,да,да,37.3540850237,55.8462822148,Бульвар 70-летия Победы
186,район Хорошёво-Мнёвники,"Москва, Территория березовой рощи между ул 3 Хорошевская 7 и Новохорошевским проездом 10",нет,да,да,37.496054223,55.780794687,Парковая зона на территории народного парка «Березовая Роща» между 3-ей Хорошёвской улицей и Новохорошёвским проездом
187,район Покровское-Стрешнево,Большая Набережная 25,нет,нет,нет,37.4612946833,55.8342014348,Сквер на Набережной
188,район Щукино,"Улица Маршала Новикова, дом 12, корпус 2",нет,да,да,37.4645951371,55.8059795506,Сквер Юность
189,район Строгино,"улица Твардовского, дом 14, корпус 1-3",нет,нет,нет,37.4036286492,55.7938437214,Парк «Соколиная гора»
190,район Строгино,"Москва улица Таллинская, владение 32",нет,да,да,37.4090529752,55.8027255481,Парк «70 лет битвы под Москвой»
191,район Куркино,Соловьиная роща 8-10,нет,да,нет,37.3994276333,55.8923325946,Соловьиная Роща
192,район Щукино,Бочвара 17,нет,да,да,37.4518105065,55.8028808513,Живописный сквер
193,район Строгино,улица Исаковского 24,нет,да,да,37.408617188,55.8077377697,Парк Скворечный
194,район Южное Тушино,вдоль Сходненской улицы,нет,нет,нет,37.4397234706,55.8474935581,Сходненский сквер
195,Даниловский район,Даниловская площадь,нет,нет,нет,37.6226159725,55.712097294,Сквер у пам. Даниилу Московскому
196,район Бирюлёво Западное,Харьковская улица,нет,нет,нет,37.6398925781,55.5880696533,Бульвар вдоль Харьковской улицы
197,район Чертаново Северное,улица Чертановская дом 8,нет,да,да,37.5941132035,55.6312422937,Народный парк «Чертановское подворье»
198,район Чертаново Северное,"Сумской проезд, дом 29",нет,да,нет,37.5883931434,55.6282339863,Детский парк на Сумском проезде
199,район Бирюлёво Западное,"Медынская улица, дом7а",нет,да,да,37.6476901123,55.5826560617,Парк «Школьный»
200,район Москворечье-Сабурово,"от улицы Кошкина, дом 12 корпус 1 до Кантемировской улицы, дом 18, корпус 5",нет,да,да,37.6715633456,55.6398983329,Народный парк вдоль Кантемировской улицы
201,Даниловский район,"Восточная улица, дом 4",нет,да,да,37.6548074387,55.7127394388,Детский парк на Восточной улице
202,район Братеево,"улица Ключевая, владение 6",нет,нет,нет,37.7613805721,55.6350152849,Народный парк «Исток»
203,Даниловский район,"улица Большая Тульская, дом 11",нет,нет,нет,37.6229291218,55.7111529588,Японский сад камней на Большой Тульской улице
204,Даниловский район,"улица Ленинская Слобода, дом 26",нет,нет,нет,37.6582736952,55.7113656765,Мини-парк на Восточной улице
205,Донской район,"Окружен: Донской улицей, 3-им Донским проездом, улицей Стасовой, 4-ым Донским проездом",нет,да,нет,37.5989121756,55.7140937613,Донской сквер
206,район Орехово-Борисово Южное,Расположена между Елецкой улицей и Гурьевским проездом,нет,да,да,37.7381873779,55.6014208726,Берёзовая роща
207,район Нагатинский Затон,"вдоль Коломенской набережной до Затонной улицы, дом 22",да,да,да,37.6871268014,55.6760698255,Народный парк – Парк спорта
208,Донской район,Варшавское шоссе дом13а,нет,да,да,37.620757866,55.6987466786,Детский парк на Варшавском шоссе
209,район Чертаново Центральное,"территория между улица Чертановская, дом 27 и улица Кировоградская, дом22",нет,да,да,37.593897497,55.6183220463,Парк 30-летия Победы
210,район Зябликово,территория между Борисовским проездом и Ореховым проездом,нет,нет,нет,37.7280403533,55.6191609759,Сквер-сад по Ореховому проезду
211,Донской район,Варшавское шоссе владение 2,нет,да,да,37.6193168279,55.7011391474,Народный парк «Южный дворик»
212,район Орехово-Борисово Северное,пересечение Каширского шоссе и Борисовского проезда,нет,нет,нет,37.7117866266,55.6242266947,Народный парк «Яблоневый сад»
213,район Чертаново Северное,"территория между улица Чертановская дом 9, корпус 4 и улица Кировоградская, дом 8, корпус 3",нет,да,да,37.6051660903,55.6293956824,Школьный парк на Кировоградской улице
214,район Чертаново Южное,"улица Дорожная, владение 5 - 7",да,да,да,37.6237738597,55.6048207712,Народный парк «Покровский»
215,район Царицыно,"улица Ереванская, владение 27",нет,да,да,37.674903376,55.6290498761,Народный парк имени Надежды Рушевой
216,Даниловский район,"территория между улицей Лобанова, дом 9 и улицей Трофимова, дом 8",да,да,да,37.6632869973,55.7013624889,Народный парк Кожуховский
217,район Коптево,"проезд Черепановых, 24с1",нет,нет,да,37.5210581463,55.839511321,Народный парк на проезде Черепановых
218,район Аэропорт,"улица Усиевича, 12",да,да,да,37.5265693924,55.8073820162,Народный парк у кинотеатра «Баку»
219,район Аэропорт,"Часовая улица, дом 21А",нет,да,нет,37.5200262757,55.8087940119,Народный парк по Головановскому переулку
220,район Левобережный,Расположен между каналом имени Москвы и Левобережной улицы,да,да,да,37.4599329572,55.8776107611,Парк «Левобережный»
221,Головинский район,"улица Петра Алексеева, 12",да,да,да,37.5188370095,55.8442715649,Парк Петра Алексеева
222,Войковский район,"1-ый Новоподмосковный переулок, 2
",нет,да,да,37.5010107698,55.8161312272,Народный парк по улице Космонавта Волкова
223,район Ховрино,"Клинская улица, 2с1",да,да,да,37.5093428948,55.8679598781,Парк «Грачёвка»
224,Головинский район,"3-й Лихачевский переулок, 2к3",да,да,да,37.5112591738,55.8415832486,Парк у Головинских прудов
225,район Западное Дегунино,"Дегунинская улица, 2к2",да,да,да,37.5349367443,55.8673973053,Народный парк у Дегунинского пруда
226,район Коптево,Между домами 24 и 24 корпус 3 на Большой Академической улице,нет,нет,да,37.5315319101,55.8258518832,Народный парк Вишневый сад
227,район Лефортово,улица Волочаевская дом 38,нет,нет,нет,37.676671451,55.7540608715,Парк «Строгановские дачи»
228,район Выхино-Жулебино,Пересечение улицы Авиаконструктора Миля и Жулебинского бульвара,нет,нет,нет,37.8478941604,55.6880016863,Парковая зона на улице Авиаконструктора Миля
229,Южнопортовый район,улица Мельникова владение 7,нет,нет,нет,37.6709476031,55.7257666627,Парковая зона на прилегающей территория к Храму по улице Мельникова
230,район Лефортово,1-й Краснокурсантский проезд улица Красноказарменная,нет,да,да,37.6943141721,55.7590977232,Сквер на Краснокурсантской площади
231,район Текстильщики,"На пересечение улиц Юных Ленинцев, Артюхиной, 8-й Текстильщиков, Малышева",нет,да,да,37.7366267505,55.7044382646,Сквер по улице Артюхиной
232,Рязанский район,"Вдоль жилых домов по Волжскому бульвару дом 3, корпус 1 до Саратовской улицы, дом 31",нет,нет,да,37.7458259441,55.7193974468,Солнечный
233,Рязанский район,Улица Зарайская владение 51-55,нет,да,да,37.7739262858,55.7296840344,Парк Плющево
234,Нижегородский район,1-я Карачаровская улица и Перовское шоссе,нет,нет,нет,37.7538212239,55.7370873905,Карачарово
235,район Выхино-Жулебино,Улица Саранская владение 5-7,нет,нет,нет,37.8514124256,55.6933633554,Сквер вокруг Храма Иоанна Кронштадского
236,район Капотня,"Территория Яблоневого сада в 3-м квартале Капотни, дом 4",нет,да,да,37.7995182084,55.6362631961,Народный парк «Яблоневый сад в Капотне»
237,Рязанский район,улица Федора Полетаева,нет,да,да,37.7793025923,55.711160599,Сквер на улице Фёдора Полетаева
238,район Лефортово,"Госпитальная площадь, улица Госпитальный вал",нет,нет,да,37.6980944148,55.767141913,«Госпитальный» сквер
239,район Текстильщики,улица Шкулева дом 2,да,да,да,37.735201532,55.6926030798,Парк имени Шкулёва
240,район Некрасовка,"Улица 2-я Вольская дом 11 корпус 3 дом 17, корпус 2 строение 1",нет,нет,нет,37.9310309178,55.688723669,Парковая зона на 2-й Вольской улице
241,район Люблино,"На пересечение улиц Армавирская, Краснодарская, Таганрогская",нет,да,да,37.7537653957,55.6769343917,Парк имени Чехова
242,район Капотня,2-й квартал Капотни дом 9,нет,нет,нет,37.8064980977,55.6410334647,Парк у памятника «погибшим Капотнинцам»
243,район Лефортово,Железнодорожная платформа Новая,нет,да,да,37.720230451,55.7509531128,Сквер у платформы «Новая»
244,район Лефортово,Вдоль улицы Госпитальный Вал от Крюковской улицы до Боровой улицы,нет,нет,нет,37.7118701989,55.7739668343,Пригородный сквер
245,район Люблино,"На пересечение улиц Краснодарская, Белореченская, Новороссийская, Совхозная",нет,да,да,37.7620443545,55.6750638438,Парковая зона в микрорайоне 39б
246,район Печатники,"Улица Гурьянова, владение 83",нет,да,да,37.7156339908,55.6851104979,Парк на набережной в Печатниках
247,район Капотня,Между Проектируемым проездом №5175 и 2-м кварталом района Капотня,нет,нет,нет,37.7989435547,55.6419292576,Парк вдоль проктируемого проезда № 5175
248,район Люблино,От метро Волжская по перегону к улице Заречье,нет,да,нет,37.7561211073,55.6908701828,Парк «Перегон Волжская-Люблино»
249,поселение Новофедоровское,"поселение Новофёдоровское, возле деревни Яковлевское",да,да,да,37.2017417702,55.5952807764,Фестивально-прогулочный парк «Сосны»
250,поселение Марушкинское,"поселение Марушкинское, в пойме ручья Алёшина",да,да,да,36.9299742028,55.4687523533,Детский парк «Ручеёк»
251,поселение Краснопахорское,"поселение Краснопахорское, возле села Былово, русло реки Пахра",нет,да,да,37.259528143,55.4416655278,Спортивный парк «Красная Пахра»
252,Хорошёвский район,2-я Песчаная улица,нет,да,да,37.5136897967,55.7969034115,Сквер на 2-ой Песчаной улице
253,Мещанский район,"Парк расположен между улицей Советской Армии, Олимпийским проспектом и Суворовской площадью",да,да,да,37.618973288,55.7863152593,"ГБУ СРЦ ВВ и ВС, отделение «Екатерининский парк»"
254,район Хамовники,Дворовая территория по Хилкову переулку возле дома 3,нет,да,да,37.5976408788,55.7383321866,Лукоморье
255,район Замоскворечье,"Новокузнецкая улица рядом с домом 33, строение 1",нет,да,да,37.6336893681,55.7344949511,Сквер на Новокузнецкой улице
256,Мещанский район,улица Трубная дом 15,нет,да,да,37.6233882676,55.7690652765,Парковая зона на Трубной улице
257,Таганский район,Пересечение Рабочей и Новорогожской улиц,нет,нет,нет,37.6867480215,55.7411732307,Парковая зона на пересечении Рабочей и Новорогожской улиц
258,район Якиманка,"Мытная улица, дом 40-44",нет,да,да,37.6163826326,55.7223939936,Сиреневый парк
259,район Замоскворечье,"Вдоль Люсиновской улицы от дома 2 до дома 48/50, строение 10",нет,нет,нет,37.6226974986,55.7276774258,Сквер на Люсиновской улице
260,Басманный район,Бауманская улица дом 38,нет,да,да,37.6782316812,55.7699535062,Парковая зона на Бауманской улице
261,район Якиманка,улица Большая Якиманка дом 35,нет,да,нет,37.6142452739,55.7340304037,Дворик на Большой Якиманке у дома 35
262,Таганский район,Пестовский переулок дом 2 строение 1,нет,да,нет,37.6595916997,55.7451388852,Парковая зона на улице Станиславского
263,Мещанский район,"Со стороны Банного переулка, дом 8",нет,нет,да,37.6363766781,55.7861645798,Парк на Банном
264,район Арбат,"Дворовая территория в 1-м Смоленском переулке, дом 22
",нет,нет,нет,37.5799520705,55.7499081678,Тихий уголок
265,Пресненский район,"Шелепихинская набережная, дом 8А",нет,да,да,37.5221020708,55.751566256,Причальный
266,Даниловский район,Между Подольским шоссе и Павловской улицей,нет,да,нет,37.6254271009,55.7151710348,Павловский сквер
267,район Царицыно,Кавказский бульвар,нет,да,да,37.6572988157,55.627925026,Парк по Кавказскому бульвару
268,Бескудниковский район,"Дмитровское шоссе, дом 82",нет,да,да,37.5473446212,55.8682725802,Парк имени Святослава Федорова
269,Можайский район,улица Кутузова дом 1,да,да,да,37.4127584157,55.7224253682,Овраг по улице Кутузова
270,район Отрадное,от дома 9 А по Северному бульвару до пересечения с Юрловским проездом,нет,да,нет,37.6082292387,55.8676590676,Сквер на Северном бульваре
271,район Люблино,от улицы Верхние поля дом 35 до улицы Новороссийской дом 32,нет,да,да,37.7598389994,55.6678692101,Аллея Молодых Семей
272,район Лефортово,улица Пруд Ключики дом 1-3,нет,да,нет,37.7194130731,55.748222527,Сквер 65-летия Победы в Великой Отечественной войне 1941-1945 годов в Лефортово
273,район Выхино-Жулебино,Жулебинский бульвар,нет,да,да,37.8538678455,55.69207446,Парковая зона на Жулебинском бульваре
274,Лосиноостровский район,Между улицами Мезенская и Оборонная,нет,да,да,37.6856807528,55.8811087049,Сквер по ул. Оборонная
275,Ярославский район,"Хибинский проезд, дом 14",нет,да,нет,37.6834136378,55.8579334743,Народный парк «Хибинский сквер»
276,Лосиноостровский район,Сквер между Изумрудной улицей и Осташковским проездом,да,да,да,37.6811450727,55.877311305,Сквер по Изумрудной улице
277,район Богородское,"Краснобогатырская улица, дом 21 (между проезжей частью и жилым домом)",нет,да,нет,37.7018263161,55.8115110648,Сквер на Краснобогатырской
278,район Новогиреево,"Перовская улица, напротив дома 61",да,нет,да,37.7986426374,55.7448339297,Перовский сквер
279,район Матушкино,"город Зеленоград, у корпуса 234А",нет,нет,нет,37.205995291,56.0032873462,Народный парк «Поляна сказок»
280,район Крюково,"город Зеленоград, Народный парк от корпуса 1446 до корпуса 1471",нет,нет,нет,37.1574262291,55.9862719889,Народный парк «Живые камни»
281,район Свиблово,улица Седова,нет,да,да,37.6364640748,55.853438646,сквер по улице Седова
282,Алексеевский район,улица Кибальчича,нет,нет,нет,37.6395916264,55.816947022,Сквер Победы по улице Кибальчича
283,Лосиноостровский район,улица таймырская,нет,да,да,37.6985520376,55.8819225914,сквер по улице Таймырская
284,район Арбат,Спасопесковский переулок,нет,нет,нет,37.5868441917,55.7503923202,Сквер в Спасопесковском переулке
285,район Хамовники,"улица Остоженка, дом 38",нет,нет,нет,37.5952156486,55.7389696882,Сквер на Остоженке у дома 38
286,район Хамовники,улица Остоженка дом 41,нет,нет,нет,37.5957880198,55.7385262305,Сквер на Остоженке у дома 41
287,поселение Троицк,набережная реки Десны в районе улицы Заречной,да,да,да,37.3057833333,55.4951626477,Парк «Заречье»
288,Пресненский район,Большой Патриарший переулок,да,да,нет,37.5907386662,55.7640056177,Парк Патриаршие пруды
289,район Северное Медведково,между Полярной улицей и проездом Шокальского,нет,да,да,37.6419621981,55.8841432539,Сквер им. 50-летия ВЛКСМ
290,Алтуфьевский район,"улица Инженерная, дом 1",да,да,да,37.5827326463,55.8800117353,Озелененная территория у кинотеатра Марс
291,Алексеевский район,улица Константинова,нет,да,да,37.65747625,55.8197023463,сквер по улице Константинова
292,район Лианозово,улица Череповецкая,нет,да,да,37.5648220465,55.8986143494,Озелененная территория по улице Череповецкая
293,район Северный,находится на пересечении шоссе с долгопрудненской аллей,да,нет,нет,37.5404438112,55.9420850399,Зона отдыха Долгие пруды
294,район Южное Бутово,"Детский ландшафтный парк в Южном Бутово, между улицами Адмирала Лазарева и улицей Горчакова",да,да,да,37.5320081813,55.5431018262,Детский ландшафтный парк
295,район Северное Бутово,Долина реки Битца от улицы Куликовская до бульвара Дмитрия Донского,да,да,нет,37.5684897937,55.5761247412,Поймы реки Битца
296,район Хамовники,Гоголевский бульвар,нет,нет,нет,37.6002419843,55.7509821398,Сквер на Гоголевском бульваре
297,район Якиманка,ул Академика Петровского,нет,нет,нет,37.6012713426,55.7216357776,Сквер по ул. Академика Петровского
298,район Южное Бутово,"Бутовский лесопарк квартал 36, природный комплекс № 113
",да,да,нет,37.5513309798,55.5325540168,лесопарк Бутовский ПК 113
299,район Южное Бутово,Бутовский лесопарк квартал 30 природный комплекс № 101,нет,нет,нет,37.5825869689,55.5390675022,лесопарк Бутовский ПК 101
300,район Южное Бутово,Бутовский лесопарк квартал 30 природный комплекс № 100,да,да,нет,37.5754183244,55.542880076,лесопарк Бутовский ПК 100
301,район Северное Бутово,"Бутовский лесопарк кварталы 13, 14, природный комплекс № 94",да,да,да,37.5588964728,55.5602830978,лесопарк Бутовский ПК 94
302,район Левобережный,"от ул Беломорская улица, 16А до Фестивальная улица, 17к1",нет,да,нет,37.4717609914,55.8637189771,Сквер у кинотеатра Нева
303,район Ховрино,"улица Лавочкина, 32",нет,да,да,37.4901615684,55.8591670069,"Народный парк по ул. Лавочкина, д. 32"
304,район Москворечье-Сабурово,"Между улицей Кошкина, дом 19, корпус 1 и улицей Кантемировская, дом 4, корпус 3",нет,да,да,37.6719560628,55.6399908094,«Кантимировский»
305,район Чертаново Северное,Между улицей Сумская и улицей Днепропетровская,нет,нет,нет,37.5980541998,55.6247479442,Сквер у кинотеатра «Ашхабад»
306,район Царицыно,"Улица Ереванская, между кинотеатром Эльбрус и Кавказским бульваром",нет,нет,нет,37.667822627,55.6321285795,Сквер у кинотеатра «Эльбрус»
307,район Орехово-Борисово Южное,Пересечение улицы Генерала Белова с улицей Воронежская,нет,нет,нет,37.7220298774,55.6078687339,Парк на пересечении улицы Генерала Белова с улицей Воронежская
308,район Ховрино,Вдоль 76-го километра Московской Кольцевой Автодороги,нет,да,да,37.4615946957,55.882250639,"Химкинский лесопарк (кварталы № 32, 33 Красногорского леспаркхоза, природный комплекс № 45)"
309,район Куркино,"Территория между микрорайонами № 4 и № 15 района Куркино, парк Дубрава",да,да,да,37.392892888,55.8972550883,Парк Дубрава
310,район Лефортово,"улица Красноказарменная, дом 2",нет,да,да,37.6868055904,55.761491689,"Сквер на Красноказарменной улице, д.2 (сквер Воинов-победителей)"
311,район Лефортово,"Красноказарменная улица, дом 8",нет,да,да,37.6939434429,55.7589268425,Парк Казачьей Славы
312,Савёловский район,ул Вятская 41,нет,да,да,37.5779270142,55.7998671933,Народный парк «Автомобилист»
313,Мещанский район,"улица Дурова, дом 2",нет,нет,нет,37.6171592204,55.7804571411,Екатерининский сквер
314,Мещанский район,Пересечение Олимпийского проспекта и Самотечной улицы,нет,нет,нет,37.6190124171,55.7742556588,Самотечный бульвар
315,район Марьина Роща,Рижская площадь,нет,нет,нет,37.6336555468,55.7931120669,Сквер у Рижского вокзала
316,Алексеевский район,Ракетный бульвар,нет,да,да,37.6475051752,55.8189013667,Ракетный бульвар
317,Останкинский район,Звездный бульвар,нет,нет,нет,37.6198650835,55.8127188692,Звездный бульвар
318,Ярославский район,Малыгинский проезд,нет,нет,нет,37.7062778841,55.8734573544,Сквер по Малыгинскому проезду
319,Пресненский район,пересечение улицы 1905 года улицы Трехгорный Вал и Шмитовский проезд,нет,да,нет,37.5609054489,55.7631514958,Сквер 1905 года
320,Бабушкинский район,Пересечение улицы Летчика Бабушкина и Изумрудной улицы,нет,нет,нет,37.6757484028,55.8693305887,Сквер между улицей Летчика Бабушкина и Изумрудной улицей
321,Бабушкинский район,Староватутинский проезд,нет,нет,нет,37.6612008684,55.8767539063,Сквер у магазина «Природа»
322,Останкинский район,"улица 1-я Останкинская, дом 13",нет,да,нет,37.6169658114,55.8243402174,Сквер «Останкино»
323,Алексеевский район,улица Кибальчича,нет,нет,нет,37.6545155702,55.8157084481,Бульвар по улице Кибальчича
324,Тверской район,"улица Самотечная, дом 17 а",нет,да,нет,37.6162358335,55.7805604243,Ново-Екатерининский сквер
325,район Ростокино,Пересечение улицы Вильгельма Пика и Леоновской улицы,да,нет,нет,37.6358476512,55.8439870235,Леоновская роща
326,район Южное Медведково,улица Заповедная от проезда Дежнева до Кольской улицы,да,да,нет,37.6409564739,55.8668492419,Сквер по Заповедной улице
327,Алексеевский район,Проспект Мира,нет,да,да,37.6416713651,55.8199341058,"Алексеевская гора
"
328,Тимирязевский район,улица Большая Академическая,нет,нет,нет,37.5394686111,55.8363623307,Сквер по улице Большая Академическая
329,Тимирязевский район,"Дмитровское шоссе, дом 49, корпус 1",нет,нет,нет,37.5678832351,55.8409217961,Сквер у кинотеатра «Комсомолец»
330,район Хамовники,"Фрунзенская набережная, дом 8",нет,нет,нет,37.5942044418,55.7331848549,Ботанический сад Сад имени П.И.Травникова
331,район Москворечье-Сабурово,улица Борисовские пруды дом 2,нет,нет,нет,37.7137033749,55.6372672375,Объект озеленения по улице Борисовские пруды в районе «Сабурово»
332,район Вешняки,"между Рассветной аллеей, аллеей Первой Маёвки и улицей Юности",да,нет,нет,37.7723533939,55.7346216001,Объект природного комплекса ПК № 80 Лесопарк Кусково
333,Хорошёвский район,Ленинградский проспект дома 47 - 49,нет,нет,нет,37.529900034,55.8005406576,Сквер у южного выхода станции метро Аэропорт
334,Хорошёвский район,Ходынский бульвар,нет,нет,нет,37.5224655205,55.7889156501,Бульвар Исторические ландшафты Москвы примыкающие к застройке Ходынского поля
335,район Ховрино,"улица Дыбенко, дом 34",нет,да,да,37.4830765685,55.8758056674,Сквер «Березовая роща» по улице Дыбенко
336,район Гольяново,улица Байкальская,нет,нет,нет,37.7995357583,55.8170544949,Бульвар по Байкальской улице
337,район Братеево,улица Борисовские пруды,да,нет,да,37.7356814257,55.6361432766,Объект озеленения Братеевской набережной
338,Савёловский район,"Россия, Москва, Петровско-Разумовский проезд, 29",нет,да,нет,37.5620756127,55.8041182202,Савеловский парк
339,Академический район,улица Винокурова дом 4,нет,да,нет,37.582456627,55.6899862528,Сквер Диета
340,район Котловка,улица Нагорная дом 39 корпус 4,нет,да,да,37.5953765945,55.667184027,Парк «Сосенки»
341,район Черёмушки,город Москва улица Болотниковская,нет,да,да,37.5680665123,55.6653488406,Парк имени 70-летия Победы
342,район Южное Бутово,город Москва улица 2-я Северодонецкая,нет,нет,нет,37.5675814465,55.5516446848,Сквер Защитников Московского неба
343,район Орехово-Борисово Южное,Вдоль 22-го километра Московской Кольцевой Автодороги,нет,да,нет,37.752508162,55.6048680826,"Видновский (Зябликовский) лесопарк, квартал 2 (природный комплекс № 180)"
344,район Матушкино,Окружен улицами: Ленинградское шоссе и Льяловское шоссе,нет,нет,нет,37.18962968,56.0219024048,Крюковский лесопарк (природный комплекс № IV)
345,район Савёлки,"улица Ворошилова, дом 110",нет,нет,нет,37.2307254995,55.9823397989,Крюковский лесопарк (природный комплекс № XXVII)
346,район Ново-Переделкино,Вдоль Боровского шоссе,нет,да,да,37.3669380587,55.6521818674,25 квартал Баковского лесопарка
347,район Чертаново Южное,"Окружен улицами: Варшавское шоссе, вдоль 33-го километра Московской Кольцевой Автодороги, Дорожной улицы",да,нет,нет,37.6036619273,55.5791843262,"Аннинский лесопарк (квартал 30 Битцевского леса, природный комплекс № 181)"
348,район Бирюлёво Восточное,Вдоль 28-го километра Московской Кольцевой Автодороги,да,да,да,37.6752031099,55.5741958699,"Видновский лесопарк (квартал 13, природный комплекс № 189)"
349,район Выхино-Жулебино,Окружают улицы: 10-й километр Московской Кольцевой Автодороги и Привольная улица,нет,да,да,37.8328217689,55.694606937,"Планируемый к созданию природный заказник «Жулебинский» (природный комплекс № 79, 80)"
350,Дмитровский район,Вдоль 81-го километра Московской Кольцевой Автодороги,да,нет,нет,37.536208593,55.9067542762,Хлебниковский лесопарк (квартал 127 леспаркхоза «Северный» у платформы «Марк» Савеловского направления Московской железной дороги
351,район Выхино-Жулебино,Окружают улицы: 10-й километр Московской Кольцевой Автодороги и Волгоградский проспект,нет,да,да,37.8290157312,55.6952754336,Планируемый к созданию природный заказник «Выхинский» (природный комплекс № 100)
352,район Крюково,Вдоль Ленинградского шоссе,да,нет,нет,37.1646995103,56.014170197,Крюковский лесопарк (природный комплекс № III)
353,район Северный,"Окружен улицами: Челобитьевское шоссе, Дмитровское шоссе, 83-й километр Московской Кольцевой Автодороги",да,да,да,37.5500950671,55.9117449001,Планируемый к созданию природный заказник «Северный» (природный комплекс № 25)
354,Дмитровский район,Вдоль 80-го километра Московской Кольцевой Автодороги,нет,нет,нет,37.5051430031,55.8950529433,"Хлебниковский (Коровинский) лесопарк (квартал 126 леспаркхоза «Северный», природный коплекс № 19)"
355,район Матушкино,"Вблизи Панфиловского проспекта, владения 158, 160",нет,да,да,37.2097339097,56.0131913181,Крюковский лесопарк (природный комплекс № V)
356,район Силино,"Панфиловский проспект, владение 222А",нет,нет,нет,37.1965554364,56.0025931155,Крюковский лесопарк (природный комплекс № VIII)
357,район Лианозово,"Окружен улицами: Череповецкая улица, Угличская улица",да,да,да,37.5568149063,55.8976695594,Планируемый к созданию ландшафтный заказник «Лианозовский» (природный комплекс № 54)
358,район Савёлки,"Окружен улицами: Ленинградским шоссе и проектируемым проездом № 5253, народный парк Ровесник",нет,нет,нет,37.236743416,56.0023584521,Крюковский лесопарк (природный комплекс № VI)
359,район Бибирево,"Окружен улицами: улица Лескова, Алтуфьевское шоссе, 86-й километр Московской Кольцевой Автодороги, Мелиховская улица",да,да,да,37.5884285689,55.9067769861,Планируемый к созданию комплексный заказник «Алтуфьевский» (природный комплекс № 34)
360,район Восточное Дегунино,Вдоль улицы Дубки,нет,нет,да,37.5676575902,55.823379791,Парк «Дубки» по улице Дубки (природный комплекс № 148)
361,район Савёлки,"Окружен улицами: улица Юности, Московский проспект",нет,нет,нет,37.2224355315,55.9968912854,Крюковский лесопарк (природный комплекс № X)
362,район Северный,Вдоль Новодачной улицы,да,нет,нет,37.5304826292,55.9289170925,Планируемый к созданию фаунистический заказник «Долгие пруды» (природный комплекс № 13)
363,район Силино,Окружен улицами: Алабушевская улица и проспект Генерала Алексеева,да,да,нет,37.166337529,56.0049938808,Крюковский лесопарк (природный комплекс № VII)
364,район Савёлки,"Окружен улицами: Московский проспект, Никольский проезд",да,да,нет,37.2355761365,55.9962191745,Крюковский лесопарк (природный комплекс № XI)
365,район Северный,"Окружен улицами: Челобитьевское шоссе, Дмитровское шоссе",да,нет,нет,37.5486453522,55.9187069372,Хлебниковский лесопарк (природный комплекс № 23)
366,район Савёлки,"Окружен улицами: от пересечения Московского проспекта с Никольским проездом до восточной границы Зеленограда, Восточная промзона и проектируемым проездом № 4921",да,да,да,37.253098306,55.9880526759,Крюковский лесопарк (природный комплекс № XII)
367,район Северный,"Окружен улицами: Дмитровское шоссе, Долгопрудная аллея",нет,нет,нет,37.5233084884,55.9401989137,Планируемый к созданию фаунистический заказник «Долгие пруды» (природный комплекс № 1)
368,район Северный,"Окружен улицами: проектируемый проезд № 237, Дмитровское шоссе",нет,нет,нет,37.5501401228,55.930616478,Планируемый к созданию природный заказник «Северный» (природный комплекс № 16)
369,район Силино,Окружен улицами: Между Панфиловским проспектом и проектируемым проездом № 5372,нет,нет,нет,37.1750529636,55.9926399252,Крюковский лесопарк (природный комплекс № XIV)
370,район Митино,Вдоль Пятницкого шоссе,нет,да,да,37.3704906799,55.8583336568,"Митинский лесопарк (квартал 66 Новогорского лесничества), район Митино (природный комплекс № 22)"
371,район Лианозово,"Окружен улицами: Череповецкая улица, Псковская улица, Зональная улица, Угличская улица",да,да,да,37.5568914461,55.9017684266,Планируемый к созданию ландшафтный заказник «Лианозовский» (природный комплекс № 27)
372,район Силино,"Окружен улицами: от проектируемого проезда № 5372 до 2-го Западного проезда, Панфиловским проспектом",нет,нет,нет,37.1826549822,55.9957371575,Крюковский лесопарк (природный комплекс № XV)
373,район Лианозово,"Окружен улицами: Череповецкая улица, Псковская улица, Лианозовский проезд",да,да,да,37.5568496508,55.8980269783,Планируемый к созданию ландшафтный заказник «Лианозовский» (природный комплекс № 53)
374,район Крюково,"Окружен: Панфиловским проспектом и Рабочей улицей, набережной пруда Ищучий, Центральным проспектом и Озёрной аллеей",да,да,да,37.1915076556,55.9968720256,Крюковский лесопарк (природный комплекс № XVII)
375,район Северное Медведково,"Окружен улицами: Студёный проезд, Полярная улица, 89-й километр Московской Кольцевой Автодороги",да,да,да,37.6457130687,55.8951979435,Планируемый к созданию природный заказник «Медведковский» (природный комплекс № 38)
376,район Щукино,Вдоль Авиационной улицы,нет,да,да,37.4759267757,55.8126312417,"Лесопарк «Покровское-Стрешнево», квартал 11 (Всехсвятская роща) по Авиационной улице (природный комплекс № 94)"
377,район Матушкино,"Окружен улицами: Озёрная аллея, Каштановая аллея",да,нет,нет,37.224769654,55.9845265312,Крюковский лесопарк (природный комплекс № XVII) народный парк 40-летия Победы и Дунькин пруд
378,район Старое Крюково,деревня Малино вдоль Солнечной улицы,да,да,нет,37.2023798449,55.9808035913,Крюковский лесопарк (природный комплекс № XXVI)
379,район Щукино,Вдоль Щукинской улицы,нет,да,да,37.465774795,55.8080986342,"Лесопарк «Покровское-Стрешнево», квартал 12 (Щукинский лесопарк) по Щукинской улице (природный комплекс № 98)"
380,район Люблино,ул Судакова,нет,нет,нет,37.7439016986,55.6734488224,Сквер по ул. Судакова
381,район Вешняки,Пересечение ул Юности с Жемчуговой аллеей,нет,да,да,37.8172681733,55.7385166807,Сквер по улице Юности
382,район Северное Измайлово,Сиреневый бульвар,нет,нет,нет,37.8212530174,55.8032033177,Сиреневый бульвар
383,район Щукино,Вдоль Щукинской улицы,нет,да,нет,37.4758115492,55.8104896266,Лесопарк «Покровское-Стрешнево» по Щукинской улице (природный комплекс № 97)
384,Останкинский район,Проспект Мира,нет,нет,нет,37.6390659943,55.8238469484,"Объект озеленения Аллея Героев космоса и сквер, прилегающий к Мемориальному музею космонавтики"
385,Бескудниковский район,"Дмитровское шоссе, дом 58",да,нет,нет,37.5631839498,55.8525395877,Сквер у 7-го автобусного парка
386,район Беговой,Московская аллея,нет,нет,нет,37.5608576593,55.7888280871,Московская аллея
387,район Метрогородок,Бульвар имени Николая Химушина,нет,нет,нет,37.7543450586,55.8177549963,Бульвар имени Николая Химушина
388,район Восточное Измайлово,Измайловский бульвар,нет,да,нет,37.7825817162,55.7962330545,Измайловский бульвар
389,район Преображенское,"Шитова набережная, владение 72",нет,нет,нет,37.7321449975,55.8078012241,Сквер на Шитовой набережной
390,район Преображенское,улица Измайловский Вал,нет,нет,нет,37.7166744897,55.7880230291,Хапиловский сквер южный
391,район Преображенское,Пересечение улицы Преображенский Вал и улицы Девятая Рота,нет,нет,нет,37.7132994417,55.7902964318,Хапиловский сквер северный
392,район Метрогородок,Измайловское шоссе,да,нет,нет,37.7660199082,55.7898505968,Объект озеленения Зона Серебряно-Виноградных прудов
393,Савёловский район,улица Бутырская дом 1 - дом 5,нет,нет,нет,37.5843199704,55.7944963199,Савеловский сквер
394,район Свиблово,улица Снежная,да,да,нет,37.6491146878,55.8514607363,Сквер у Капустинского пруда
395,район Южное Медведково,улица Молодцова,нет,нет,нет,37.6222605136,55.8797101285,Сквер по улице Молодцова
396,район Северное Тушино,улица Свободы,нет,нет,да,37.4309527626,55.8759667391,Озелененная территория по улице Свободы владение 60-80
397,район Митино,Новотушинский проезд,нет,нет,нет,37.3804355152,55.8374944839,Объект озеленения станция метро Волоколамская
398,район Митино,Митинская улица,нет,нет,нет,37.3531577538,55.8512622324,Объект озеленения разделительной полосы от улицы Дубравная до дома 47 по улице Митинская
399,район Митино,Митинская улица,нет,нет,нет,37.3607432201,55.8464924498,Объект озеленения разделительной полосы от улицы Дубравная до дома 25 по улице Митинская
400,Тверской район,улица Сущевский Вал владение 62,нет,да,да,37.5950494279,55.791894285,Парк Новослободский
401,район Строгино,Строгинский бульвар,нет,нет,нет,37.3904796833,55.8065789181,Объект озеленения разделительной полосы от улицы Кулакова до Неманского проезда
402,район Строгино,улица Исаковского дом 16 до улицы Маршала Катукова дом 11,нет,да,нет,37.4094661072,55.8129882931,Объект озеленения от улицы Исаковского дом 16 до улицы Маршала Катукова дом 11
403,район Строгино,улица Таллинская,нет,нет,нет,37.3875150518,55.800825635,Объект озеленения березовая роща в Строгино
404,район Щукино,улица Маршала Рыбалко дом 1,нет,нет,нет,37.4949067985,55.7963378573,Сквер у кинотеатра «Юность»
405,район Строгино,Строгинский бульвар,нет,нет,нет,37.3946200947,55.8058539973,Строгинский бульвар
406,район Хорошёво-Мнёвники,улица Саляма Адиля дом 4,нет,нет,нет,37.4681740667,55.7759015276,Сквер у кинотеатра Патриот
407,район Хорошёво-Мнёвники,Пересечение улиц Берзарина и Народного Ополчения,нет,да,нет,37.4890353089,55.7875545696,Скверы Берзарина
408,район Хорошёво-Мнёвники,Бульвар Генерала Карбышева,нет,да,да,37.4729498455,55.7838969309,Бульвар Генерала Карбышева
409,район Хорошёво-Мнёвники,улица Тухачевского дом 19,нет,нет,нет,37.4817299185,55.7830522784,Сквер по улице Тухачевского дом 19
410,Таганский район,Краснохолмская набережная владение 11,да,да,нет,37.6526108665,55.7323747024,Сквер на Краснохолмской набережной
411,район Якиманка,Калужская площадь,нет,нет,нет,37.6126181082,55.7300142003,Сквер на Калужской площади
412,Красносельский район,"Большая Сухаревская площадь, Панкратьевский переулок",нет,нет,нет,37.633136278,55.7723863604,Сквер на Сухаревской площади
413,Мещанский район,Цветной бульвар,нет,нет,нет,37.6211311893,55.7732419268,Цветной бульвар
414,Гагаринский район,Площадь Гагарина,нет,нет,нет,37.5820200414,55.7096258443,Площадь Гагарина
415,Тверской район,Тверская площадь Столешников переулок,нет,нет,нет,37.6115405817,55.7625213088,Тверской сквер
416,Таганский район,Устьинский проезд дом 2,нет,нет,нет,37.6398677844,55.7485684597,Сквер на Устьинском проезде
417,Пресненский район,улица Спиридоновка дом 6,нет,нет,нет,37.5953147581,55.7592889814,Сквер у памятника Александру Блоку
418,Красносельский район,Лермонтовская площадь,нет,нет,нет,37.6513257676,55.7700290886,Лермонтовский сквер
419,Пресненский район,Пересечение Конюшковской улицы и Рочдельской улицы,нет,нет,нет,37.5756626351,55.7558933997,Сквер у памятника «Мост памяти 1905 года»
420,Таганский район,"Пересечение Устьинского проезда, улицы Яузская и Устьинской набережной",нет,нет,нет,37.6423462972,55.7500718835,Устьинский Сквер
421,Таганский район,улица Яузская дом 6,нет,нет,нет,37.6459098043,55.7481143832,Сквер на Интернациональной улице
422,район Арбат,улица Смоленская дом 1,нет,нет,нет,37.5821116274,55.7463692778,Сквер на Смоленской площади
423,район Якиманка,Болотная площадь,нет,да,нет,37.6150651229,55.7446533704,Болотный сквер
424,район Якиманка,Лаврушинский переулок владение 17,нет,нет,нет,37.6217413118,55.7407356423,Сквер имени Ивана Сергеевича Шмелева
425,Таганский район,Гончарная набережная,нет,нет,нет,37.647916231,55.7383560992,Сквер на Гончарной набережной
426,Красносельский район,улица Мясницкая дом 1,нет,нет,нет,37.629346603,55.7603008236,"Сквер по Мясницкой улице, дом 1"
427,район Сокол,Ул Алабяна напротив дома № 3,нет,нет,нет,37.5086987068,55.8042361911,Сквер «Арбатец»
428,район Люблино,"На пересечении улиц Краснодонская, Судакова, Совхозная",нет,да,да,37.7466126505,55.6726317918,Сквер на улице Краснодонской
429,район Кузьминки,Волжский бульвар,нет,да,да,37.7457485629,55.7099880311,"«Волжский бульвар, ПК №33»"
430,Басманный район,улица Новорязанская,нет,да,да,37.6698879435,55.7731962365,Милютинский парк
431,район Южное Бутово,"Рекреационная зона между улицей Бартеневская, улицей Горчакова, улицей Адмирала Лазарева, улицей Адмирала Руднева",нет,да,нет,37.524314241,55.5487450625,Рекреационная зона между комплексами «А» и «Б»
432,район Братеево,От дома 11 до 44 по улице Борисовские пруды,да,да,да,37.7476943204,55.6393393393,Парк «Южный кластер»
433,Тверской район,Самотечный переулок,да,нет,нет,37.6088765055,55.7804917802,Антроповский сквер
434,Тверской район,"улица Чаянова, Миусская площадь дом 2",нет,нет,нет,37.5925957471,55.7754787719,Сквер на улице Чаянова
435,район Царицыно,между улицей Кантемировская и пролетарским Проспектом,нет,нет,нет,37.6523434173,55.637592455,Сквер на Кантемировской улице
436,район Замоскворечье,"улица Новокузнецкая, улица Пятницкая",нет,нет,нет,37.6288018057,55.7421361667,Сквер у метро Новокузнецкая
437,Мещанский район,Суворовская площадь,нет,нет,нет,37.6154733846,55.781938522,Сквер на Суворовской площади
438,Мещанский район,улица Неглинная,нет,нет,нет,37.621392504,55.7666656914,Бульвар по Неглинной улице
439,район Сокол,Песчаная площадь,нет,нет,нет,37.5094659323,55.7934623805,Сквер на Песчаной улице
440,район Кузьминки,Пересечение улицы Юных Ленинцев и улицы Маршала Чуйкова,нет,нет,нет,37.7638464593,55.6996498812,Сквер у кинотеатра Высота
441,район Кузьминки,улица Маршала Чуйкова дом 7,нет,нет,нет,37.7642722665,55.7048291397,Сквер у кинотеатра Будапешт
442,район Кузьминки,Есенинский бульвар,нет,да,нет,37.7765187381,55.6987716955,Есенинский бульвар
443,Рязанский район,1-ый Вешняковский проезд,нет,нет,нет,37.7955127408,55.7220684309,Сквер по 1-му Вешняковскому проезду
444,Рязанский район,улица Вострухина,нет,нет,нет,37.7966097154,55.7224442412,Сквер у платформы Вешняки
445,район Печатники,"улица Гурьяновская, улица Кухмистерова",нет,нет,нет,37.7178463924,55.6857294217,Сквер у кинотеатра Тула
446,Даниловский район,Автозаводская улица,нет,нет,нет,37.6555948782,55.7072223235,Сквер по Автозаводской улице
447,Даниловский район,Пересечение Восточной и Велозаводской улиц,нет,нет,нет,37.6627436933,55.7177621275,Сквер по Восточной улице
448,район Дорогомилово,Украинский бульвар дома 7 и 8,нет,да,нет,37.5638003894,55.7494801064,Украинский бульвар
449,район Крылатское,Осенний бульвар,нет,да,нет,37.4067378095,55.7529576717,Осенний бульвар
450,район Проспект Вернадского,Проспект Вернадского дом 14,нет,нет,нет,37.5057248566,55.6768298639,Сквер у кинотеатра Звездный
451,район Раменки,"Мичуринский проспект, дом 8",нет,нет,нет,37.5122409511,55.7065164864,Сквер у кинотеатра Литва
452,район Крылатское,"улица Молодогвардейская, дом 29, корпус 1",нет,нет,нет,37.4169175742,55.7336815266,"Объект озеленения Сквер по улице Молодогвардейская, дом 29, корпус 1"
453,район Ясенево,Вдоль Проектируемого проезда № 5408 и 5314,да,да,да,37.500252602,55.6109467602,Голубинский лесопарк
454,район Зябликово,Ореховый бульвар участок между владениями 28Б и 57,нет,нет,нет,37.7535174422,55.6145133251,Озелененная территория в конце Орехового бульвара
455,Басманный район,"переулок Огородная Слобода, 6",нет,да,да,37.6441005298,55.7652390108,"Сквер в переулке Огородная Слобода, у дома 6"
456,Пресненский район,Леонтьевский переулок,нет,нет,нет,37.6045422214,55.7601167576,Сквер у Леонтьевского переулка
457,район Люблино,"на пересечении улиц Кубанская, Люблинская",нет,нет,нет,37.7375149446,55.6836225904,"Кубанская улица, озеленения 2-й категории"
458,Пресненский район,"улица Большая Грузинская, 25",нет,да,нет,37.5777057154,55.7670686543,Георгиевский сквер
459,район Арбат,улица Поварская 33,нет,нет,нет,37.5864784705,55.7581190594,Сквер у Дома Актера
460,район Арбат,Большой Ржевский переулок 33,нет,нет,нет,37.5920103408,55.7538963622,Сквер по Большому Ржевскому переулку
461,район Арбат,улица Поварская 33,нет,да,нет,37.5913589376,55.7553575051,Сквер у памятника Бунину
462,район Арбат,Борисоглебский переулок 9,нет,нет,нет,37.5895725136,55.7542680474,Сквер по Борисоглебскому переулку
463,Басманный район,Покровский бульвар,нет,да,да,37.6472730948,55.7567481317,Милютинский сад
464,Басманный район,улица Покровка 20,нет,нет,нет,37.6473090976,55.7594883041,Сквер Чернышевского
465,Мещанский район,улица Гиляровского 68,нет,нет,нет,37.6333885231,55.7892990761,Сквер на ул. Гиляровского у дома 68
466,Басманный район,улица Спартаковская,нет,нет,нет,37.6733471221,55.7721799526,Елоховский сквер
467,Басманный район,улица Старая Басманная 35,нет,нет,нет,37.6678000984,55.7696181248,Площадь Разгуляй
468,Басманный район,улица Бакунинская 43-55,нет,нет,нет,37.6888955655,55.778135355,Сквер на улице Бакунинская у домов 43-55
469,Басманный район,Рубцовская набережная,нет,нет,нет,37.694468476,55.7728011956,Рубцовский сквер
470,Басманный район,пересечение 3-го Сыромятнического переулка и Верхней Сыромятнической улицы,нет,нет,нет,37.6629849861,55.7542144198,Сквер на пересечении 3-го Сыромятнического переулка и Верхней Сыромятнической улицы
471,Басманный район,улица Радио 10,нет,нет,нет,37.6742254956,55.7636341578,Сквер по улице Радио
472,Басманный район,Центросоюзный переулок,нет,нет,нет,37.6866378897,55.7800651174,Сквер на Центросоюзном переулке
473,Басманный район,улица Покровка 5,нет,да,да,37.6409787138,55.7590199094,Парковая зона на улице Покровка у дома 5
474,Басманный район,Семеновская набережная,нет,нет,нет,37.7029130036,55.7770251098,Аллея Серп и Молот
475,район Хамовники,улица 2-я Фрунзенская,нет,нет,нет,37.5855808732,55.7215410118,Сквер на 2-ой Фрунзенской
476,район Хамовники,улица 3-я Фрунзенская,нет,нет,нет,37.5723342231,55.7236379926,Сквер на 3-й Фрунзенской
477,район Хамовники,пер Сивцев Вражек д 11,нет,нет,нет,37.595462343,55.7474979686,Сквер по переулку Сивцев Вражек
478,район Хамовники,ул Тимура Фрунзе,нет,нет,нет,37.5924573713,55.7318493998,Сквер на Тимура Фрунзе
479,район Хамовники,ул 1-я Фрунзенская,нет,нет,нет,37.5831956066,55.7275008595,Сквер на 1-й Фрунзенской
480,район Хамовники,ул 1-я Фрунзенская д 22,нет,нет,нет,37.587134164,55.7266401767,Сквер у Минобороны
481,район Хамовники,ул Остоженка д 17,нет,нет,нет,37.599269162,55.741505299,Сквер на Остоженке у дома 17
482,район Хамовники,Комсомольский пр-т д 1 (возле Крымской эстакады),нет,нет,нет,37.5937077375,55.7338249401,Крымский сквер
483,район Хамовники,7-й Ростовский пер д 1,нет,нет,нет,37.5743659403,55.7423166132,Озелененный участок над Ростовским откосом
484,район Хамовники,пер 1-й Вражский,нет,нет,нет,37.5733122965,55.7403650215,Сквер на 1-м Вражском (ЗАГС)
485,район Хамовники,ул Усачева 29к9,нет,нет,нет,37.5634852163,55.7249745642,Усачевский сквер
486,район Хамовники,Лужнецкий проезд д 1А,нет,нет,нет,37.5597239054,55.725959798,Сквер на Лужнецком (Кафе «Мята»)
487,район Хамовники,Лужнецкий проезд,нет,нет,нет,37.5599073594,55.7267081779,Сквер на Лужнецком (от Учебного переулка)
488,район Хамовники,Лужнецкий проезд д 1,нет,нет,нет,37.5610201853,55.7265251581,Сквер «Молодым ученым»
489,район Хамовники,ул 10 Летия Октября 13с1,нет,нет,нет,37.5651274374,55.7240054192,Сквер у метро Спортивная
490,район Нагатинский Затон,Коломенская набережная от дома 6 до дома 26,нет,нет,нет,37.7094754285,55.6833875644,Пешеходная зона по Коломенской набережной от дома 6 до дома 26
491,район Хамовники,ул Пречистенка д 30,нет,нет,нет,37.5923140919,55.741369967,Сквер у памятника Сурикову
492,район Хамовники,1-й Тружеников пер вл 17А,нет,нет,нет,37.5745312863,55.7369336613,Сквер на переулке Тружеников
493,Красносельский район,Тургеневская площадь дом 2,нет,нет,нет,37.6357948653,55.7648334712,Сквер на Тургеневской площади
494,район Хамовники,Большой Могильцевский пер д 7,нет,нет,нет,37.5905039285,55.7435621025,Сквер на Большом Могильцевском
495,район Хамовники,Большой Левшинский пер д 6 стр 1,нет,нет,нет,37.5892335168,55.7430661611,Сквер у памятника Нансену
496,Красносельский район,Уланский переулок дом 4,нет,нет,нет,37.6375591819,55.767350022,Сквер в Уланском переулке у дома 4
497,Красносельский район,Живарев переулок дом 15,нет,да,нет,37.6406739134,55.7771324617,Грохольский сквер
498,район Хамовники,ул Плющиха д 27,нет,нет,нет,37.5785194749,55.7421987755,Сквер у памятника Александрову
499,Красносельский район,улица Каланчевская,нет,нет,нет,37.6532996669,55.7737974069,Сквер на улице Каланчевская
500,Красносельский район,улица Каланчевская,нет,нет,нет,37.6530093171,55.7736727041,Сквер Большевичка
501,Красносельский район,улица Каланчевская д 32,нет,нет,нет,37.6524277651,55.7757691232,Сквер на улице Каланчевская у дома 32
502,район Беговой,"Беговая улица, 22",нет,нет,нет,37.5580411418,55.7794614642,Сквер у ипподрома
503,Тверской район,Миусская площадь,нет,да,да,37.5926711573,55.7779626189,Миусский сквер
504,район Коптево,Коптевский бульвар от улицы Коптевская до улицы Большая Академическая,нет,да,нет,37.5202149336,55.833257473,Коптевский бульвар
505,Тверской район,улица Делегатская,нет,да,да,37.6087673524,55.7768660595,Детский парк № 2
506,Тверской район,Перуновский переулок дом 3,нет,нет,нет,37.6025135688,55.7853242679,Перуновский сквер
507,Тверской район,улица Петровка дом 36,нет,нет,нет,37.6130343612,55.7690932715,Сквер на улице Петровка у дома 36
508,район Арбат,Спасопесковский переулок,нет,нет,нет,37.5875910394,55.7496697484,Сквер по Спасопесковскому переулку
509,район Арбат,метро Арбатская,нет,нет,нет,37.6033495684,55.7524290378,Арбатский сквер
510,район Арбат,улица Большая Никитская 5-7,нет,нет,нет,37.6001805832,55.7540695145,Сквер у музея имени Гоголя
511,район Арбат,метро Смоленская,нет,нет,нет,37.5812292484,55.748841856,Сквер по Смоленской площади
512,район Фили-Давыдково,Кременчугская улица,нет,да,да,37.4602517857,55.7254226391,Кременчугский сквер
513,район Арбат,улица Большая Никитская 7-10,нет,нет,нет,37.6073720584,55.756041234,Сквер по Большой Никитской улице
514,район Якиманка,улица Донская 21,нет,нет,нет,37.60689675,55.722677738,Сквер по улице Донская
515,район Якиманка,улица Академика Петровского,нет,нет,нет,37.6070152472,55.7198755918,Сквер Академика Петровского
516,район Якиманка,улица Серафимовича 3-5,нет,нет,нет,37.6139974858,55.7461991266,Cквер по улице Серафимовича
517,Академический район,"город Москва, проспект 60-летия Октября дом 31/18 корпус 1",нет,нет,нет,37.5748787254,55.6884164214,Сквер Хо Ши Мина
518,район Черёмушки,"город Москва, улица Гарибальди (от Ленинского проспекта до улицы Профсоюзной)",нет,нет,нет,37.5387713285,55.6760855877,Бульвар по улице Гарибальди
519,Останкинский район,по левую сторону проспекта Мира при движении из центра,да,да,да,37.6359965431,55.8245045681,ВДНХ
520,Можайский район,улица Беловежская дом 33,да,да,да,37.3980863146,55.7115051046,Парк у Беловежского пруда
521,Алексеевский район,Сквер расположен между домом 5 по улице Павла Корчагина и улицей Кибальчича,нет,нет,нет,37.655853924,55.8154755233,сквер Памяти героев
522,Басманный район,Чистопрудный бульвар,да,да,нет,37.6388930936,55.7644062484,Сквер на Чистопрудном бульваре
523,Бабушкинский район,Северо-Восточный Административный округ район Бабушкинский улица Чичерина,нет,нет,да,37.6611261699,55.8637819855,Сквер по улице Чичерина
524,район Сокол,"между улицей Сальвадора Альенде, дом 3 и Песчаным переулком, дом 20",нет,нет,нет,37.5082241803,55.7952247038,Сквер Сальвадора Альенде
525,район Восточное Дегунино,в районе домов № 26 корпус 2 и №24 по улице 800-летия Москвы,нет,да,нет,37.5593206626,55.8782472174,Народный парк «Наша Победа»
526,Дмитровский район,между Вагоноремонтной улицей и Карельским бульваром,нет,да,нет,37.5355969478,55.8982066328,«Аллея Славы»
527,Тимирязевский район,"улица Тимирязевская, владения 25-27",нет,нет,нет,37.5619183576,55.815819117,"сквер по улице Тимирязевская, владения 25-27"
528,Гагаринский район,"город Москва, между проспектом Вернадского и Университетским проспектом",нет,да,нет,37.546005911,55.7002166554,Парк имени 40-летия ВЛКСМ
529,район Щукино,ул Маршала Василевского д 1 к 1,нет,нет,нет,37.4755465675,55.8027548625,Сквер на площади Академика Курчатова
530,район Якиманка,Ул Большая Полянка д 39,нет,нет,нет,37.6196585088,55.7347265397,Сквер по улице Большая Полянка у дома 39
531,район Якиманка,Ордынский тупик,нет,нет,нет,37.6235347818,55.741253163,Сквер на Ордынском тупике
532,Пресненский район,ул Малая Никитская д 4,нет,нет,нет,37.5964431146,55.7578647522,Сквер у Никитских Ворот
533,район Якиманка,ул Шаболовка д 7,нет,нет,нет,37.6119766261,55.7272723654,Сквер на ул. Шаболовка у дома 7
534,район Якиманка,ул Шаболовка д 2-4,нет,нет,нет,37.6114315184,55.7265340938,Сквер на ул. Шаболовка у домов 2-4
535,Пресненский район,ул Большая Никитская,нет,нет,нет,37.5940144875,55.758145086,Сквер у памятника Алексею Толстому
536,район Щукино,ул Маршала Бирюзова д 1,нет,да,нет,37.4996598724,55.7903379938,Сквер у завода Энергоприбор
537,район Хорошёво-Мнёвники,ул Расплетина д2,нет,нет,да,37.4786413773,55.788874622,Территория сквера Генерала Берзарина от ул Расплетина до ул Народного Ополчения
538,район Якиманка,ул Большая Полянка 20с2,нет,нет,нет,37.6169310287,55.7399608621,Сквер у Памятника Димитрова
539,Пресненский район,Спиридоньевский пер - Б Козихинский пер,нет,нет,нет,37.5961454089,55.7634542103,Спиридоньевский сквер
540,район Щукино,ул Берзарина д16,нет,нет,нет,37.4855579575,55.7884784905,Сквер у мемориала по ул Берзарина
541,Пресненский район,Большая Садовая ул д 6-8,нет,нет,нет,37.5924469672,55.7665442057,Сквер на Большой Садовой у домов 6-8
542,район Якиманка,2й Спасоналивковский пер 16/5,нет,нет,нет,37.6197053704,55.7313257964,Сквер по 2-му Спасоналивковскому переулку
543,район Щукино,ул Гамалеи д19 к1,нет,нет,нет,37.4553900804,55.8017990204,Сквер на ул Гамалеи
544,район Щукино,ул Маршала Бирюзова д 32,нет,нет,нет,37.4832783402,55.7986642441,Сквер по ул. Маршала Бирюзова
545,Пресненский район,Елисеевский переулок,нет,нет,нет,37.6069323532,55.7592216248,Сквер у памятника Мстислава Растроповича
546,район Щукино,На протяжении ул Василевского,нет,нет,нет,37.4665468787,55.8074302283,Озелененная территория по ул. Василевского
547,Пресненский район,Шведский тупик,нет,нет,нет,37.6038573061,55.7604117176,Сквер по Шведскому тупику
548,Пресненский район,1-й Красногвардейский пр-д,нет,нет,нет,37.5479410836,55.7556673418,Сквер у Сахарного завода
549,район Щукино,ул Авиационная д 20,нет,нет,нет,37.4661278135,55.8100063537,Озелененная территория по ул. Авиационная
550,Пресненский район,ул 1905 года,нет,нет,нет,37.5620143485,55.763663327,Сквер на улице 1905 года у метро
551,Пресненский район,Шмитовский пр-д д 2,нет,нет,нет,37.5572301237,55.759547124,Сквер у районной управы
552,район Щукино,Волоколамское шоссе д 30,нет,нет,нет,37.4748484357,55.8134141388,Озелененная территория по Волоколамскому шоссе
553,Пресненский район,Кудринская площадь д 1,нет,да,нет,37.5820404306,55.7592627423,Сквер по Кудринской площади
554,Пресненский район,Красногвардейский бульвар д 1,нет,нет,нет,37.5428382882,55.7584658576,Сквер на Красногвардейском бульваре у дома 1
555,Пресненский район,ул Подвойского,нет,нет,нет,37.5347409213,55.759381454,Сквер по ул Подвойского
556,Пресненский район,Тверской бульвар,нет,да,нет,37.6048959613,55.7645595991,Сквер на Тверском бульваре
557,район Строгино,ул Кулакова д 6 к 3 д 8,нет,да,нет,37.4023279477,55.8181409904,Сквер по ул. Кулакова
558,район Строгино,ул Исаковского д 28 к1,нет,нет,нет,37.415472897,55.8051124313,Сквер по ул Исаковского
559,район Арбат,Никитский бульвар,нет,нет,нет,37.6005526045,55.7547891723,Сквер на Никитском бульваре
560,Пресненский район,Тишинская пл,нет,нет,нет,37.5828421313,55.7706211738,Сквер на Тишинской площади
561,Пресненский район,Б Грузинская д 20,нет,нет,нет,37.5796447442,55.7659393248,Сквер по Большой Грузинской улице
562,Пресненский район,ул Заморенова,нет,нет,нет,37.5769565706,55.7594460021,Озелененный участок у метро Краснопресненская
563,Пресненский район,ул Сергея Макееева,нет,нет,нет,37.5553583735,55.7683425607,Озелененный участок по ул. Сергея Макеева
564,Пресненский район,Озелененная территория от Большой Грузинской до Зоологической улицы,нет,да,нет,37.5798101849,55.7664342041,Озелененная территория от Большой Грузинской до Зоологической улицы
565,Пресненский район,Б Садовая д 5,нет,нет,нет,37.5920338955,55.7684662035,"Сквер на улице Большая Садовая, у дома 5"
566,Тверской район,Страстной бульвар,нет,да,нет,37.6089243026,55.7670929709,Сквер на Страстном бульваре
567,Тверской район,Петровский бульвар,нет,нет,нет,37.6150525663,55.7681690732,Сквер на Петровском бульваре
568,Мещанский район,Рождественский бульвар,нет,нет,нет,37.6250972448,55.7667502016,Сквер на Рождественском бульваре
569,Красносельский район,Сретенский бульвар,нет,да,нет,37.6316451554,55.7668205725,Сретенский бульвар
570,Басманный район,Покровский бульвар,нет,нет,нет,37.6464645012,55.7578312309,Покровский бульвар
571,Таганский район,Яузский бульвар,нет,нет,нет,37.6468869489,55.7528866392,Яузский бульвар
572,Таганский район,улица Средняя Калитниковская,да,нет,нет,37.6885480562,55.7344915502,Сквер у Калитниковского пруда
573,Таганский район,улица Талалалихина пересечение с улицей Малая Калитниковская,нет,нет,нет,37.6766048375,55.7366331668,Талалихинский сквер
574,Таганский район,улица Рогожский вал,нет,нет,нет,37.6757498461,55.7436398098,Сквер по улице Рогожский Вал
575,район Строгино,ул Таллинская д 3 к1 до д 19 к1,нет,нет,нет,37.3912564367,55.8006238375,Сквер по ул. Таллинская
576,Таганский район,улица Средняя Калитниковская,нет,да,нет,37.6865795031,55.7354788776,Калитниковский сквер
577,Таганский район,Сибирский проезд дом 20,нет,нет,нет,37.6814043219,55.7333318982,Боенский сквер
578,Таганский район,улица Абельмановская дом 28-49,нет,нет,нет,37.6684823269,55.7336317823,Крестьянский сквер
579,район Северное Тушино,ул Катукова д 2 до д 22 к1,нет,нет,нет,37.4080783845,55.8029461272,Бульвар по ул Катукова
580,Таганский район,улица Абельмановская 17,нет,нет,нет,37.6687396447,55.7338671004,Абельмановский сквер
581,Таганский район,пересечение улицы Николоямская и улицы Верхняя Радищевская,нет,нет,нет,37.6470628585,55.7472852752,Интернациональный сквер
582,Таганский район,улица Николоямская дом 1,нет,нет,нет,37.6458687724,55.7486186007,Сквер у библиотеки Иностранной литературы
583,Таганский район,улица Большая Андроньевская 25-33,нет,нет,нет,37.6719496084,55.7398708795,Фестивальный сквер
584,Таганский район,переулок Большой Факельный дом 24,нет,нет,нет,37.6689762011,55.7414551291,Вокзальный сквер
585,Таганский район,Андроньевский проезд дом 2-8,нет,нет,нет,37.6689393297,55.7482583565,Рублевский сквер
586,Таганский район,Серебрянический переулок,нет,нет,нет,37.6461958333,55.7494255328,Сквер по Серебряническому переулку
587,Таганский район,улица Народная дом 11-13,нет,нет,нет,37.6504751073,55.7375050225,Народный сквер
588,район Хорошёво-Мнёвники,Ул Народного Ополчения д 20к1,нет,да,нет,37.4796286063,55.7755780622,Озелененная территория по ул Народного Ополчения
589,Таганский район,пересечение шоссе Энтузиастов и улицы Золоторогожский вал,нет,нет,нет,37.6814719937,55.7473614782,Сквер у метро Площадь Ильича
590,район Хорошёво-Мнёвники,ул Маршала Жукова д 2,нет,нет,нет,37.50332139,55.7769286182,Озелененная территория по ул 3я Хорошевская
591,Таганский район,улица Динамовская,нет,нет,нет,37.6645309472,55.732432682,Сквер у метро Крестьянская застава
592,район Покровское-Стрешнево,ул Вишневая д 6,нет,да,да,37.4469898617,55.8303197,Сквер по ул Вишневая
593,Таганский район,пересечение Саринского проезда и Крестьянской площади,нет,нет,нет,37.6660516753,55.7315614636,Сквер Крестьянская застава
594,Таганский район,Рогожский вал дом 4,нет,нет,нет,37.67415217,55.7414739193,Сквер по Рогожскому валу у дома 4
595,район Покровское-Стрешнево,ул Вишневая д7,нет,да,нет,37.4450849337,55.829500391,Сквер у ДК «Красный Октябрь»
596,район Покровское-Стрешнево,ул Свободы д10,нет,да,да,37.4530833351,55.8294869607,Сквер у кинотеатра «Метеор»
597,район Митино,Пятницкое шоссе д23,нет,да,нет,37.3664775916,55.8493991481,Сквер на Пятницком шоссе (территория памятника)
598,район Покровское-Стрешнево,ул Свободы д13 к2,нет,нет,нет,37.4516940718,55.830028899,Сквер у Префектуры
599,район Покровское-Стрешнево,ул Свободы д 18,нет,нет,нет,37.4537662524,55.8328423399,Сквер по ул Свободы
600,район Митино,Ангелов переулок д6к3,нет,да,да,37.3479098698,55.856984367,Бульварная зона микрорайона 4
601,район Покровское-Стрешнево,ул Свободы д 23,нет,нет,нет,37.4531582339,55.8339130999,Сквер на ул Свободы
602,район Замоскворечье,улица Пятницкая дом 25,нет,нет,нет,37.6304527923,55.7424952072,Сквер у Радиокомитета
603,район Замоскворечье,Космодамианская набережная дом 4/22,нет,нет,нет,37.640649787,55.7440798525,Сквер по Космодамианской набережной у домов 4-22
604,район Покровское-Стрешнево,От ул Вишневой до ул Большая Набережная д 25 к1,нет,нет,да,37.4480368265,55.8354744309,Озелененная территория по ул Малая Набережная
605,район Замоскворечье,улица Садовническая дом 36,нет,нет,нет,37.6356018784,55.7454774119,Устьинский сквер
606,район Митино,ул Митинская д52к2,нет,да,нет,37.3559358069,55.8534024828,Бульварная зона микрорайона 3
607,район Замоскворечье,улица Пятницкая дом 67,нет,нет,нет,37.6270446296,55.7322030637,Сквер по улице Пятницкая у дома 67
608,район Митино,ул Митинская 17к3,нет,да,да,37.3562051893,55.8433332033,Бульварная зона микрорайона 7
609,район Южное Тушино,ул Свободы д 26,нет,да,нет,37.4548576317,55.8399693684,Сквер «Салют»
610,район Ясенево,"город Москва, вдоль улицы Инессы Арманд (от проезда Карамзина до улицы Голубинской)",нет,нет,нет,37.5468575887,55.5942602317,Сквер по улице Инессы Арманд
611,район Люблино,улица Ставропольская,нет,нет,нет,37.7560411417,55.6828837636,Сквер им. Авдеева
612,район Тропарёво-Никулино,Покрышкина 4,нет,нет,нет,37.4803566737,55.6643871923,Сквер у ТЦ Звездочка
613,район Митино,от Ангелова переулка д 5 до 3-го Митинского переулка д 6к2,нет,да,нет,37.3468786607,55.8526953069,Бульварная зона микрорайона 5
614,район Митино,Пятницкое шоссе д45,нет,нет,нет,37.3485446005,55.8589623602,Озелененная территория по Пятницкому шоссе микрорайон 4
615,район Митино,от ул Дубравная до первого Митинского переулка,нет,нет,нет,37.3677675624,55.8496038922,Озелененная территория по Пятницкому шоссе микрорайон 2
616,район Митино,Пятницкое шоссе д 29 до д 39,нет,нет,нет,37.3551826004,55.8557719811,Озелененная территория по Пятницкому шоссе микрорайона 3
617,район Митино,от первого Митинского переулка до д7 по Пятницкому шоссе,нет,нет,нет,37.3778295379,55.8446996176,Озелененная территория по Пятницкому шоссе микрорайона 1 до РТС
618,район Куркино,Новокуркинское шоссе д51,нет,нет,нет,37.3891189377,55.9122102632,Бульвар МБ-2 Новокуркинское шоссе
619,район Митино,Пятницкое шоссе д6 корп8,нет,да,нет,37.392015987,55.8395530634,Бульварная зона микрорайона 10 «А»
620,район Южное Тушино,от улицы Сходненская до улице Свободы,нет,да,да,37.4381217732,55.8374193638,сквер между Западным и Восточным мостом
621,район Южное Тушино,улица Фабрициуса д 20,нет,да,да,37.4439570884,55.8456833118,Сквер у кинотеатра «Полет»
622,район Куркино,Новокуркинское шоссе от улицы Соколово-Мещерская до улицы Юровская,нет,нет,нет,37.3888931146,55.9071871831,Бульвар МБ-5 Новокуркинское шоссе
623,район Южное Тушино,улица Свободы,нет,нет,нет,37.4520842362,55.8505574532,улица Свободы от Восточного моста до Химкинского бульвара
624,район Северное Тушино,ул Туристская д 20,нет,да,нет,37.4201725728,55.8578659548,бульвар по ул Туристская
625,район Куркино,Новокуркинское шоссе от улицы Юровская до д8корп2 по улице Соколово-Мещерская,нет,нет,нет,37.3985994798,55.898131946,Бульвар МБ-6 Новокуркинское шоссе
626,район Северное Тушино,ул Планерная д 12,нет,нет,нет,37.4360822713,55.8614052514,Озеленённая территория между выходами метро Планерная
627,район Северное Тушино,ул Героев Панфиловцев д 8,нет,да,да,37.4376196213,55.8553603873,Сквер по улице Героев
628,район Куркино,улица Соколово-Мещерская д2 до д 6,нет,да,нет,37.3877302496,55.8935340015,Бульвар МБ-12
629,район Куркино,улица Родионовская от д 3 до д 17,нет,нет,нет,37.3876471594,55.8935233114,Бульвар ПК-6 по улице Родионовская
630,район Северное Тушино,Химкинский бульвар д 14,нет,да,нет,37.4511051888,55.852704136,Химкинский бульвар
631,район Куркино,улица Соловьиная роща д 2-4,нет,да,нет,37.3997600115,55.8898012666,Парк Березовая роща
632,район Северное Тушино,бульвар Яна Райниса д 2,нет,да,нет,37.4238498461,55.8496085302,бульвар Яна Райниса
633,район Куркино,улица Соловьиная роща д 6 корп1,нет,да,нет,37.4022263317,55.8905101565,Сад-усадьба микрорайон 14 Новокуркинское шоссе
634,район Северное Тушино,ул Героев Панфиловцев д10,нет,нет,нет,37.4374777061,55.8555467718,сквер по ул Фомичёвой
635,район Куркино,улица Соловьиная роща д 8-10,нет,да,нет,37.3992346085,55.8923783243,Парк Соловьиная роща
636,район Проспект Вернадского,Озелененная территория прилегающая к прудам по улице Кравченко,да,нет,нет,37.5115871661,55.6781480511,Пруд по улице Кравченко
637,Даниловский район,Бульвар по улице Серпуховский вал,нет,да,да,37.6067765514,55.7119564252,Бульвар по улице Серпуховский вал
638,район Преображенское,Сквер между Краснобогатырской улицей и улицей Алымова,нет,да,да,37.7113137082,55.80414629,Сквер на Алымова
639,район Крюково,"город Зеленоград, 18 микрорайон, напротив корпуса 1824",нет,нет,нет,37.1701913019,55.9818169917,Народный парк у корпуса 1824
640,Пресненский район,Красногвардейские пруды,да,да,да,37.5458432165,55.757591329,Парк Красная Пресня (Красногвардейские пруды)
641,район Северное Тушино,"улица Свободы, владение 50-56",да,да,да,37.4557175373,55.8532165733,Залив Захарково
642,район Преображенское,"Малая Семеновская улица, дом 11",нет,нет,нет,37.7113127997,55.7850144751,Парк Сокольники (дополнительная территория)
643,район Покровское-Стрешнево,"Иваньковское шоссе, владение 2",да,да,да,37.4718628174,55.8341094895,Покровский берег
644,район Москворечье-Сабурово,"Каширское шоссе, дом 80Д",да,да,да,37.6959629802,55.6353361699,Озелененная территория между Шипиловским проездом и Каширским шоссе
645,район Левобережный,"улица Левобережная, канал имени Москвы",да,да,да,37.4589560623,55.8824213963,Парк между каналом имени Москвы и Левобережной улицей
646,район Филёвский Парк,"улица Большая Филевская, дом 22",нет,да,да,37.4942145049,55.7528736672,Сквер у ДК Горбунова
647,Таганский район,"улица Таганская, дом 15А",нет,да,да,37.6599113204,55.7412796304,Парк Таганский (детская территория)
648,район Выхино-Жулебино,"Пересечение улицы Кузьминская, улицы Тополевая и улицы Кузьминский парк, дом 1, строение 2",да,да,нет,37.8049031941,55.6880622748,Природно-исторический парк Кузьминки-Люблино
649,Лосиноостровский район,Территория между улицей Изумрудная и улицей 1-я Напрудная,нет,да,нет,37.687585619,55.8757539693,Сквер по ул. Изумрудная
650,район Очаково-Матвеевское,улица Марии Поливановой 4,нет,да,нет,37.4490696391,55.6808638765,Сквер по улице Марии Поливановой
651,район Филёвский Парк,"улица Сеславинская, дом 16 - 42",нет,да,нет,37.4942926531,55.7434060465,ул. Сеславинская
652,Молжаниновский район,"3-я Подрезковская, 14",нет,нет,нет,37.3553244396,55.9414259047,Молжаниновский народный парк
653,Басманный район,"улица Верхняя Сыромятническая, дом 2",нет,нет,нет,37.6583918752,55.7548767746,Верхний Сыромятнический сквер
654,район Коньково,"город Москва, улица Островитянова, улица Академика Арцимовича",нет,да,да,37.5076282267,55.6408873116,"Сквер от ул. Островитянова до ул. Академика Арцимовича, вдоль д. 14 к. 1, 2."
655,Войковский район,пересечение Старопетровского проезда и ул Клары Цеткин,нет,да,нет,37.5104636663,55.8264530169,Старопетровский сквер
656,район Южное Бутово,"город Москва, улица Кадырова",нет,да,нет,37.5027174304,55.5368766288,Северная зона Большого пруда
657,район Южное Бутово,"город Москва, улица Кадырова",нет,да,да,37.5045229471,55.5360292977,Спортивная зона парка Южное Бутово
658,район Южное Бутово,"город Москва, Проектируемый проезд № 6417",нет,нет,нет,37.5015238588,55.5367452366,Правый берег Большого пруда в пойме реки Чуры
659,район Южное Бутово,"город Москва, улица Южнобутовская",нет,да,нет,37.5144031517,55.5365972666,Левый берег Большого пруда в пойме реки Чуры
660,район Внуково,Пересечение Центральной и 1-й Рейсовой улицы до дома №1/21 по 1-й Рейсовой улице и дома №25к1 по Большой Внуковской улице,нет,да,да,37.2956481133,55.6069403156,Парк «Центральный»
661,район Лефортово,"на пересечении улиц шоссе Энтузиастов , Авиамоторная
",нет,нет,нет,37.7164920541,55.753317497,Сквер имени М.И.Калинина
662,район Внуково,От Большой Внуковской улицы до дома 3с1 по Центральной улице,нет,да,нет,37.2937603453,55.6117000784,Парк за «КБО» (Комбинат бытового обслуживания)
663,Тверской район,"Лубянский проезд, 19",нет,нет,нет,37.6304526006,55.7565966466,Ильинский сквер
664,район Замоскворечье,Улица Бахрушина,нет,да,да,37.6355400082,55.7352081006,Парк «Михайловский сад»
665,район Хамовники,Хамовнический вал дом 24,нет,нет,нет,37.5704615066,55.7193667518,Озелененная территория вдоль ул. Хамовнический вал
666,Мещанский район,"Сущевский вал, владение 56",нет,да,да,37.6167237773,55.7913967931,Фестивальный парк
667,Пресненский район,Парк находится около Дома Правительства РФ,нет,да,да,37.5735324481,55.7577005732,Парк Пресненский
668,Тверской район,Миусская площадь у строения 4,нет,нет,да,37.5906978552,55.7766605011,Парк на Миуссах
669,район Филёвский Парк,ул Барклая 9/2,нет,нет,нет,37.4996655242,55.7418468483,Сквер у культурного центра Л. Рюминой
670,район Филёвский Парк,ул Барклая,нет,нет,нет,37.4984326014,55.7427834693,Сквер у магазина «Мебель»
671,район Крюково,"город Зеленоград, от корпуса 1504 до корпуса 1561",да,нет,нет,37.1529938511,55.9774859837,Бульвар у Михайловского пруда в Западной части города Зеленограда со стороны 15 микрорайона
672,Останкинский район,По правую руку при движении по 1-й Останкинской улице от метро ВДНХ,да,да,да,37.6114352797,55.8322061075,Парк «Останкино»
673,район Лианозово,"Улица Громова, дом 27",нет,нет,нет,37.5758510387,55.9093187031,Объект природного комплекса № 30 Парк у поселка имени Ларина
674,район Лианозово,"Алтуфьевское шоссе, дом 147А",да,да,нет,37.5772584536,55.9059891175,Объект природного комплекса № 31 Долина реки Чермянки с усадьбой Алтуфьево
675,район Ясенево,от Одоевского проезда вдоль улицы Голубинская,да,нет,нет,37.510790806,55.6037203552,Объект природного комплекса № 83 Долина реки Битцы
676,район Ясенево,Правобережный участок ниже Вильнюсской улицы,да,нет,нет,37.521259219,55.5974198715,Объект природного комплекса № 88 Долина реки Битцы
677,район Ясенево,Ниже Вильнюсской улицы,да,нет,нет,37.5196499439,55.5997116869,Объект природного комплекса № 89 Долина реки Битцы
678,район Ясенево,Квартал 1 Битцевского леса,да,нет,нет,37.5249246402,55.596923,Объект природного комплекса № 90 Ясеневский лесопарк
679,район Ясенево,Квартал 1 Битцевского леса,да,да,нет,37.5316376577,55.5933840917,Объект природного комплекса № 91 Ясеневский лесопарк
680,Можайский район,Можайское шоссе,да,нет,нет,37.4119091609,55.7222370734,Объект природного комплекса № 179
681,район Ново-Переделкино,Озелененная территория в районе Ново-Переделкино,да,нет,нет,37.2799960689,55.6475227875,Озелененная территория в Долине реки Сетуни Объект природного комплекса № 178
682,Можайский район,Сквер по улице Толбухина дом 4 корпус 1,нет,да,нет,37.4015867478,55.7188076956,Территория прилегающая к кинотеатру МИНСК
683,Можайский район,Можайское шоссе дом 5,нет,нет,нет,37.4419547323,55.7206830772,Сквер у кинотеатра БОРОДИНО
684,Можайский район,улица Беловежская и улица Вяземская,да,да,нет,37.3980450749,55.7117226702,Беловежский пруд
685,район Очаково-Матвеевское,улица Нежинская дом 8,нет,нет,нет,37.4680488823,55.7084065323,Нежинский бульвар
686,район Очаково-Матвеевское,Пересечение Мичуринского проспекта улица Лобиченского,нет,нет,нет,37.4749924658,55.6860942358,Парк перед Храмом на перечении улицы Лобачевского и Мичуринского проспекта
687,район Преображенское,Преображенская площадь,нет,нет,нет,37.7140924678,55.7962385904,"Сквер, прилегающий к Храму Преображения Господня (Народный парк)"
688,район Проспект Вернадского,улица Кравченко,нет,нет,нет,37.5115707884,55.6783663577,Удальцовские пруды
689,район Солнцево,улица Нарофоминская дом 2,нет,нет,нет,37.3872257394,55.655473234,парк Дружба
690,район Солнцево,Боровский проезд дом 2,нет,нет,нет,37.390378011,55.6587425418,Бульвар между Боровским шоссе и железной дорогой
691,район Солнцево,Солнцевский проспект дом 24,нет,нет,нет,37.4071416975,55.6493338431,сквер Молодежный
692,район Солнцево,улица богданова дом 12,нет,нет,нет,37.4049155712,55.6588544094,Аллея Советско-Чехославакской дружбы
693,район Солнцево,улица Богданова дом 52,нет,нет,нет,37.3938286077,55.6496431058,Бульвар по улице Щорса
694,район Солнцево,улица Богданова дом 50,нет,нет,нет,37.3944983105,55.6528388468,Массив по улице Богданова
695,район Фили-Давыдково,улица Кастанаевская дом 51 корпус 3,нет,нет,нет,37.4598562641,55.7306594987,Сквер между улицей Герасима Курина и улицей Кастанаевская
696,район Солнцево,улица Богданова дом 6,нет,нет,нет,37.4095555378,55.659106774,Парк 17 съезда ВЛКСМ
697,район Солнцево,Поселок Мещерский,нет,нет,нет,37.4097121311,55.6756256086,Зона отдыха Мещерское
698,Академический район,"Город Москва, улица Новочеремушкинская, дом 39, корпус 1",да,нет,да,37.5743178319,55.676173138,Сквер 9-Ю
699,Южнопортовый район,Шарикоподшипниковская улица,нет,нет,нет,37.677240306,55.7155134587,Сквер у Фабрики-кухни по Шарикоподшипниковской улице
700,Южнопортовый район,Шарикоподшипниковская улица,нет,нет,нет,37.6736759827,55.7204053355,Шарикоподшипниковский бульвар
